bioguide_id,phone,city,zip,qr_code_uid,qr_code_name
T000464,202-224-2644,Washington,20510,2017/01/15/5e0l7hvv9a_Tester_DC_20510.png,Tester_DC_20510.png
A000360,202-224-4944,Washington,20510,2017/01/15/4tudjsj674_Alexander_DC_20510.png,Alexander_DC_20510.png
D000563,202-224-2152,Washington,20510,2017/01/15/4kjeguvwgp_Durbin_DC_20510.png,Durbin_DC_20510.png
M001176,202-224-3753,Washington,20510,2017/01/15/3vsjuvz8ev_Merkley_DC_20510.png,Merkley_DC_20510.png
R000307,202-224-4774,Washington,20510,2017/01/15/6y7udo0rc8_Roberts_DC_20510.png,Roberts_DC_20510.png
G000555,202-224-4451,Washington,20510,2017/01/15/2t1t4mflu0_Gillibrand_DC_20510.png,Gillibrand_DC_20510.png
A000055,202-225-4876,Washington,20515-0104,2017/01/15/8md1zmb1hy_Aderholt_DC_20515_0104.png,Aderholt_DC_20515-0104.png
B001230,202-224-5653,Washington,20510,2017/01/15/6xy90na3iu_Baldwin_DC_20510.png,Baldwin_DC_20510.png
B000287,202-225-6235,Washington,20515-0534,2017/01/15/7uf3j7wk6z_Becerra_DC_20515_0534.png,Becerra_DC_20515-0534.png
B001250,202-225-0453,Washington,20515-4401,2017/01/15/8zaphapvjd_Bishop_DC_20515_4401.png,Bishop_DC_20515-4401.png
B001277,202-224-2823,Washington,20510,2017/01/15/18bd1drhd7_Blumenthal_DC_20510.png,Blumenthal_DC_20510.png
M000639,202-224-4744,Washington,20510,2017/01/15/4n066ih1gk_Men_ndez_DC_20510.png,Menéndez_DC_20510.png
C000059,202-225-1986,Washington,20515-0542,2017/01/15/55183lbkdi_Calvert_DC_20515_0542.png,Calvert_DC_20515-0542.png
C001051,202-225-3864,Washington,20515-4331,2017/01/15/6belyfaoly_Carter_DC_20515_4331.png,Carter_DC_20515-4331.png
C000266,202-225-2216,Washington,20515-3501,2017/01/15/65h0wsebsc_Chabot_DC_20515_3501.png,Chabot_DC_20515-3501.png
B001260,202-225-5015,Washington,20515-0916,2017/01/15/1kvgfa4y51_Buchanan_DC_20515_0916.png,Buchanan_DC_20515-0916.png
C001067,202-225-6231,Washington,20515-3209,2017/01/15/42s7chwba9_Clarke_DC_20515_3209.png,Clarke_DC_20515-3209.png
C001077,202-225-7882,Washington,20515-0606,2017/01/15/jzsz4vy6g_Coffman_DC_20515_0606.png,Coffman_DC_20515-0606.png
C001078,202-225-1492,Washington,20515-4611,2017/01/15/u04b8470a_Connolly_DC_20515_4611.png,Connolly_DC_20515-4611.png
C001069,202-225-2076,Washington,20515-0702,2017/01/15/2bzg1rpn2j_Courtney_DC_20515_0702.png,Courtney_DC_20515-0702.png
C001063,202-225-1640,Washington,20515-4328,2017/01/15/5uop3lrps7_Cuellar_DC_20515_4328.png,Cuellar_DC_20515-4328.png
D000598,202-225-2040,Washington,20515-0553,2017/01/15/9bpyghmvxp_Davis_DC_20515_0553.png,Davis_DC_20515-0553.png
D000612,202-225-4540,Washington,20515-0510,2017/01/15/2g9di2m2qk_Denham_DC_20515_0510.png,Denham_DC_20515-0510.png
D000600,202-225-4211,Washington,20515-0925,2017/01/15/8wjfrjmrre_Diaz_Balart_DC_20515_0925.png,Diaz-Balart_DC_20515-0925.png
D000614,202-225-3365,Washington,20515-4907,2017/01/15/21d7j2pqsa_Duffy_DC_20515_4907.png,Duffy_DC_20515-4907.png
E000179,202-225-2464,Washington,20515-3216,2017/01/15/4j7fhrgrz2_Engel_DC_20515_3216.png,Engel_DC_20515-3216.png
F000455,202-225-7032,Washington,20515-3511,2017/01/15/atx7js7bz_Fudge_DC_20515_3511.png,Fudge_DC_20515-3511.png
G000563,202-225-6265,Washington,20515-3507,2017/01/15/3t0cwf75q3_Gibbs_DC_20515_3507.png,Gibbs_DC_20515-3507.png
G000566,202-225-6030,Washington,20515-4004,2017/01/15/3evibzlye9_Gowdy_DC_20515_4004.png,Gowdy_DC_20515-4004.png
G000560,202-225-5211,Washington,20515-1014,2017/01/15/5h9ffkzmzt_Graves_DC_20515_1014.png,Graves_DC_20515-1014.png
G000551,202-225-2435,Washington,20515-0303,2017/01/15/2751fqshxv_Grijalva_DC_20515_0303.png,Grijalva_DC_20515-0303.png
H001052,202-225-5311,Washington,20515-2001,2017/01/15/4dlo6dtcu8_Harris_DC_20515_2001.png,Harris_DC_20515-2001.png
H001036,202-225-3484,Washington,20515-4305,2017/01/15/29gh2pm0qz_Hensarling_DC_20515_4305.png,Hensarling_DC_20515-4305.png
H001061,202-224-2551,Washington,20510,2017/01/15/4gknp9xqqz_Hoeven_DC_20510.png,Hoeven_DC_20510.png
H001059,202-225-2976,Washington,20515-1314,2017/01/15/gat5ioc1q_Hultgren_DC_20515_1314.png,Hultgren_DC_20515-1314.png
J000032,202-225-3816,Washington,20515-4318,2017/01/15/3poimag7nk_Jackson_Lee_DC_20515_4318.png,Jackson Lee_DC_20515-4318.png
J000288,202-225-1605,Washington,20515-1004,2017/01/15/655lhp01th_Johnson_DC_20515_1004.png,Johnson_DC_20515-1004.png
J000289,202-225-2676,Washington,20515-3504,2017/01/15/7vwzqijugw_Jordan_DC_20515_3504.png,Jordan_DC_20515-3504.png
K000188,202-225-5506,Washington,20515-4903,2017/01/15/5ff6licd1l_Kind_DC_20515_4903.png,Kind_DC_20515-4903.png
L000573,202-225-6611,Washington,20515-1201,2017/01/15/4tpcf6depq_Labrador_DC_20515_1201.png,Labrador_DC_20515-1201.png
L000551,202-225-2661,Washington,20515-0513,2017/01/15/7yo4nzu64d_Lee_DC_20515_0513.png,Lee_DC_20515-0513.png
L000563,202-225-5701,Washington,20515-1303,2017/01/15/6cslq8qqze_Lipinski_DC_20515_1303.png,Lipinski_DC_20515-1303.png
L000576,202-225-6536,Washington,20515-2507,2017/01/15/8h730ywbml_Long_DC_20515_2507.png,Long_DC_20515-2507.png
L000570,202-225-6190,Washington,20515-3103,2017/01/15/68o0khtump_Luj_n_DC_20515_3103.png,Luján_DC_20515-3103.png
M001179,202-225-3731,Washington,20515-3810,2017/01/15/91115t2trr_Marino_DC_20515_3810.png,Marino_DC_20515-3810.png
M001165,202-225-2915,Washington,20515-0523,2017/01/15/8r9mial39k_McCarthy_DC_20515_0523.png,McCarthy_DC_20515-0523.png
M000312,202-225-6101,Washington,20515-2102,2017/01/15/80lyh4t0ri_McGovern_DC_20515_2102.png,McGovern_DC_20515-2102.png
M001166,202-225-1947,Washington,20515-0509,2017/01/15/333fi1j4zq_McNerney_DC_20515_0509.png,McNerney_DC_20515-0509.png
M000934,202-224-6521,Washington,20510,2017/01/15/5km823zk23_Moran_DC_20510.png,Moran_DC_20510.png
M001151,202-225-2301,Washington,20515-3818,2017/01/15/6bfjhpk942_Murphy_DC_20515_3818.png,Murphy_DC_20515-3818.png
N000015,202-225-5601,Washington,20515-2101,2017/01/15/374wc11mpg_Neal_DC_20515_2101.png,Neal_DC_20515-2101.png
O000168,202-225-5951,Washington,20515-4322,2017/01/15/ochzktf7q_Olson_DC_20515_4322.png,Olson_DC_20515-4322.png
P000603,202-224-4343,Washington,20510,2017/01/15/2erlt1gu00_Paul_DC_20510.png,Paul_DC_20510.png
P000197,202-225-4965,Washington,20515-0512,2017/01/15/2f4a72t00h_Pelosi_DC_20515_0512.png,Pelosi_DC_20515-0512.png
P000523,202-225-1784,Washington,20515-3304,2017/01/15/5xityrol1w_Price_DC_20515_3304.png,Price_DC_20515-3304.png
R000586,202-225-3876,Washington,20515-3516,2017/01/15/73r4y6480p_Renacci_DC_20515_3516.png,Renacci_DC_20515-3516.png
R000582,202-225-6356,Washington,20515-4201,2017/01/15/6lyajcoiue_Roe_DC_20515_4201.png,Roe_DC_20515-4201.png
R000592,202-225-5037,Washington,20515-1404,2017/01/15/5sk21tln6r_Rokita_DC_20515_1404.png,Rokita_DC_20515-1404.png
R000593,202-225-1252,Washington,20515-0915,2017/01/15/6yifsepcku_Ross_DC_20515_0915.png,Ross_DC_20515-0915.png
R000576,202-225-3061,Washington,20515-2002,2017/01/15/9n0agli295_Ruppersberger_DC_20515_2002.png,Ruppersberger_DC_20515-2002.png
S001177,202-225-2646,Washington,20515-5201,2017/01/15/176a37b29b_Sablan_DC_20515_5201.png,Sablan_DC_20515-5201.png
S001150,202-225-4176,Washington,20515-0528,2017/01/15/dr1bdeykn_Schiff_DC_20515_0528.png,Schiff_DC_20515-0528.png
S001189,202-225-6531,Washington,20515-1008,2017/01/15/6war2l69sp_Scott_DC_20515_1008.png,Scott_DC_20515-1008.png
S000248,202-225-4361,Washington,20515-3215,2017/01/15/5iw9uroogs_Serrano_DC_20515_3215.png,Serrano_DC_20515-3215.png
S000320,202-224-5744,Washington,20510,2017/01/15/5ox81ah2ox_Shelby_DC_20510.png,Shelby_DC_20510.png
S001148,202-225-5531,Washington,20515-1202,2017/01/15/22gmcit283_Simpson_DC_20515_1202.png,Simpson_DC_20515-1202.png
S001172,202-225-6435,Washington,20515-2703,2017/01/15/7jkylnhc5w_Smith_DC_20515_2703.png,Smith_DC_20515-2703.png
S001187,202-225-2015,Washington,20515-3515,2017/01/15/1a5dn8gwn0_Stivers_DC_20515_3515.png,Stivers_DC_20515-3515.png
T000469,202-225-5076,Washington,20515-3220,2017/01/15/2dm9qly5r9_Tonko_DC_20515_3220.png,Tonko_DC_20515-3220.png
V000128,202-224-4654,Washington,20510,2017/01/15/36mi67wqyl_Van_Hollen_DC_20510.png,Van Hollen_DC_20510.png
W000798,202-225-6276,Washington,20515-2207,2017/01/15/1xdgtnh7gl_Walberg_DC_20515_2207.png,Walberg_DC_20515-2207.png
W000187,202-225-2201,Washington,20515-0543,2017/01/15/8mlsshitmw_Waters_DC_20515_0543.png,Waters_DC_20515-0543.png
W000808,202-225-4506,Washington,20515-0924,2017/01/15/77klctoa8y_Wilson_DC_20515_0924.png,Wilson_DC_20515-0924.png
W000779,202-224-5244,Washington,20510,2017/01/15/4gtrhlhk6g_Wyden_DC_20510.png,Wyden_DC_20510.png
Y000064,202-224-5623,Washington,20510,2017/01/15/8xov1a39k5_Young_DC_20510.png,Young_DC_20510.png
B001278,202-225-0855,Washington,20515-3701,2017/01/15/2lhwz2ntsp_Bonamici_DC_20515_3701.png,Bonamici_DC_20515-3701.png
S001194,202-224-3934,Washington,20510,2017/01/15/4y8nrno1kp_Schatz_DC_20510.png,Schatz_DC_20510.png
S001191,202-225-9888,Washington,20515-0309,2017/01/15/3ir7lum9pp_Sinema_DC_20515_0309.png,Sinema_DC_20515-0309.png
C001094,202-225-5861,Washington,20515-0508,2017/01/15/556xb8kpus_Cook_DC_20515_0508.png,Cook_DC_20515-0508.png
C001097,202-225-6131,Washington,20515-0529,2017/01/15/9avdooiaxe_C_rdenas_DC_20515_0529.png,Cárdenas_DC_20515-0529.png
V000130,202-225-8045,Washington,20515-0551,2017/01/15/1rsg34k2iq_Vargas_DC_20515_0551.png,Vargas_DC_20515-0551.png
D000621,202-225-2706,Washington,20515-0906,2017/01/15/j9enabu1l_DeSantis_DC_20515_0906.png,DeSantis_DC_20515-0906.png
B001282,202-225-4706,Washington,20515-1706,2017/01/15/9qsa4r0afn_Barr_DC_20515_1706.png,Barr_DC_20515-1706.png
K000380,202-225-3611,Washington,20515-2205,2017/01/15/24doi6sm78_Kildee_DC_20515_2205.png,Kildee_DC_20515-2205.png
D000618,202-224-2651,Washington,20510,2017/01/15/327u3384rn_Daines_DC_20510.png,Daines_DC_20510.png
H001065,202-225-3032,Washington,20515-3302,2017/01/15/5ik0cpl8f5_Holding_DC_20515_3302.png,Holding_DC_20515-3302.png
K000382,202-225-5206,Washington,20515-2902,2017/01/15/5f3pl1o186_Kuster_DC_20515_2902.png,Kuster_DC_20515-2902.png
M001185,202-225-5441,Washington,20515-3218,2017/01/15/kcn2r7pct_Maloney_DC_20515_3218.png,Maloney_DC_20515-3218.png
B001281,202-225-4324,Washington,20515-3503,2017/01/15/42jzuqm9m2_Beatty_DC_20515_3503.png,Beatty_DC_20515-3503.png
P000605,202-225-5836,Washington,20515-3804,2017/01/15/73tucffnwz_Perry_DC_20515_3804.png,Perry_DC_20515-3804.png
W000814,202-225-2831,Washington,20515-4314,2017/01/15/3me3gqidn0_Weber_DC_20515_4314.png,Weber_DC_20515-4314.png
W000816,202-225-9896,Washington,20515-4325,2017/01/15/239kzgoetw_Williams_DC_20515_4325.png,Williams_DC_20515-4325.png
K000381,202-225-5916,Washington,20515-4706,2017/01/15/h13pod9ok_Kilmer_DC_20515_4706.png,Kilmer_DC_20515-4706.png
K000385,202-225-0773,Washington,20515-1302,2017/01/15/6bymxtg3ow_Kelly_DC_20515_1302.png,Kelly_DC_20515-1302.png
C001101,202-225-2836,Washington,20515-2105,2017/01/15/41ax0cd3a3_Clark_DC_20515_2105.png,Clark_DC_20515-2105.png
A000370,202-225-1510,Washington,20515-3312,2017/01/15/5nna4afnr0_Adams_DC_20515_3312.png,Adams_DC_20515-3312.png
L000582,202-225-3976,Washington,20515-0533,2017/01/15/4niar9yynj_Lieu_DC_20515_0533.png,Lieu_DC_20515-0533.png
C001107,202-225-2778,Washington,20515-0926,2017/01/15/61hmxk5qnw_Curbelo_DC_20515_0926.png,Curbelo_DC_20515-0926.png
A000372,202-225-2823,Washington,20515-1012,2017/01/15/66pfoa85sq_Allen_DC_20515_1012.png,Allen_DC_20515-1012.png
A000374,202-225-8490,Washington,20515-1805,2017/01/15/6y8af2c7el_Abraham_DC_20515_1805.png,Abraham_DC_20515-1805.png
B001293,202-225-4872,Washington,20515-2208,2017/01/15/226nkj55cn_Bishop_DC_20515_2208.png,Bishop_DC_20515-2208.png
E000294,202-225-2331,Washington,20515-2306,2017/01/15/6fdjnjhn9j_Emmer_DC_20515_2306.png,Emmer_DC_20515-2306.png
M001193,202-225-4765,Washington,20515-3003,2017/01/15/6w69s5hew5_MacArthur_DC_20515_3003.png,MacArthur_DC_20515-3003.png
S001196,202-225-4611,Washington,20515-3221,2017/01/15/2ge57bsral_Stefanik_DC_20515_3221.png,Stefanik_DC_20515-3221.png
B001296,202-225-6111,Washington,20515-3813,2017/01/15/2jc8vwtu6i_Boyle_DC_20515_3813.png,Boyle_DC_20515-3813.png
L000584,202-225-3011,Washington,20515-4404,2017/01/15/26vwip9wma_Love_DC_20515_4404.png,Love_DC_20515-4404.png
N000189,202-225-5816,Washington,20515-4704,2017/01/15/310hvz2dl2_Newhouse_DC_20515_4704.png,Newhouse_DC_20515-4704.png
R000600,202-225-8577,Washington,20515-5200,2017/01/15/57uluh1z4c_Amata_DC_20515_5200.png,Amata_DC_20515-5200.png
T000476,202-224-6342,Washington,20510,2017/01/15/3rer8sr4bc_Tillis_DC_20510.png,Tillis_DC_20510.png
D000625,202-225-3371,Washington,20515-3211,2017/01/15/2n4yztj9x2_Donovan_DC_20515_3211.png,Donovan_DC_20515-3211.png
K000393,202-224-4623,Washington,20510,2017/01/15/267m3yju4c_Kennedy_DC_20510.png,Kennedy_DC_20510.png
S001170,202-225-5456,Washington,20515-2901,2017/01/15/1zrbqel20e_Shea_Porter_DC_20515_2901.png,Shea-Porter_DC_20515-2901.png
P000613,202-225-2861,Washington,20515-0520,2017/01/15/9dhujpipdu_Panetta_DC_20515_0520.png,Panetta_DC_20515-0520.png
C001110,202-225-2965,Washington,20515-0546,2017/01/15/77s8dowy9j_Correa_DC_20515_0546.png,Correa_DC_20515-0546.png
R000609,202-225-2501,Washington,20515-0904,2017/01/15/4e6hmbkot4_Rutherford_DC_20515_0904.png,Rutherford_DC_20515-0904.png
D000627,202-225-2176,Washington,20515-0910,2017/01/15/9hi5ubv687_Demings_DC_20515_0910.png,Demings_DC_20515-0910.png
F000465,202-225-5901,Washington,20515-1003,2017/01/15/6yicwppp28_Ferguson_DC_20515_1003.png,Ferguson_DC_20515-1003.png
M001198,202-225-2715,Washington,20515-1601,2017/01/15/9lyq1csad7_Marshall_DC_20515_1601.png,Marshall_DC_20515-1601.png
R000606,202-225-5341,Washington,20515-2008,2017/01/15/x7mhp40pi_Raskin_DC_20515_2008.png,Raskin_DC_20515-2008.png
L000587,202-225-2271,Washington,20515-2302,2017/01/15/83lmmxnw64_Lewis_DC_20515_2302.png,Lewis_DC_20515-2302.png
R000608,202-225-3252,Washington,20515-2803,2017/01/15/1xt5wcmuwg_Rosen_DC_20515_2803.png,Rosen_DC_20515-2803.png
E000297,202-225-4365,Washington,20515-3213,2017/01/15/5ubvfp9zat_Espaillat_DC_20515_3213.png,Espaillat_DC_20515-3213.png
S001199,202-225-2411,Washington,20515-3816,2017/01/15/21y9tx9ow2_Smucker_DC_20515_3816.png,Smucker_DC_20515-3816.png
A000375,202-225-4005,Washington,20515-4319,2017/01/15/8kjuxl0o1p_Arrington_DC_20515_4319.png,Arrington_DC_20515-4319.png
J000298,202-225-3106,Washington,20515-4707,2017/01/15/3j35pk6bl6_Jayapal_DC_20515_4707.png,Jayapal_DC_20515-4707.png
B000574,503-231-2300,Portland,97232,2017/01/15/1blq69l5rb_Blumenauer_OR_97232.png,Blumenauer_OR_97232.png
B000575,816-71-7141,Kansas City,64106,2017/01/15/1fje35virw_Blunt_MO_64106.png,Blunt_MO_64106.png
B000755,936-439-9532,Huntsville,77340,2017/01/15/5dyi4l7rjm_Brady_TX_77340.png,Brady_TX_77340.png
B000944,440-242-4100,Lorain,44052,2017/01/15/7qawxgdy1o_Brown_OH_44052.png,Brown_OH_44052.png
B001135,888-848-1833,Wilmington,28401,2017/01/15/2k41itpic3_Burr_NC_28401.png,Burr_NC_28401.png
B001227,215-426-4616,Philadelphia,19125,2017/01/15/7kqc0g6fda_Brady_PA_19125.png,Brady_PA_19125.png
B001230,920-498-2668,Green Bay,54303,2017/01/15/o6g1ma5f9_Baldwin_WI_54303.png,Baldwin_WI_54303.png
A000360,865-545-4253,Knoxville,37902,2017/01/15/ptj763axw_Alexander_TN_37902.png,Alexander_TN_37902.png
A000367,269-205-3823,Battle Creek,49017,2017/01/15/2zm1mhp465_Amash_MI_49017.png,Amash_MI_49017.png
A000369,775-686-5760,Reno,89511,2017/01/15/3tbwpj08qs_Amodei_NV_89511.png,Amodei_NV_89511.png
A000372,478-272-4030,Dublin,31021,2017/01/15/26n57cvcp9_Allen_GA_31021.png,Allen_GA_31021.png
A000374,318-445-0818,Alexandria,71301,2017/01/15/3s84notfds_Abraham_LA_71301.png,Abraham_LA_71301.png
A000375,"",Lubbock,79401,2017/01/15/3m2vg0oume_Arrington_TX_79401.png,Arrington_TX_79401.png
B001236,870-268-6925,Jonesboro,72401,2017/01/15/25tmhk5ghn_Boozman_AR_72401.png,Boozman_AR_72401.png
B001236,870-672-6941,Stuttgart,72160,2017/01/15/o5q5r8gb3_Boozman_AR_72160.png,Boozman_AR_72160.png
B001248,940-497-5031,Lake Dallas,75065,2017/01/15/4gs1leeirn_Burgess_TX_75065.png,Burgess_TX_75065.png
B001251,919-908-0164,Durham,27701,2017/01/15/8jhjvelwom_Butterfield_NC_27701.png,Butterfield_NC_27701.png
B001260,941-747-9081,Bradenton,34205,2017/01/15/808xyhto6s_Buchanan_FL_34205.png,Buchanan_FL_34205.png
B001261,307-362-5012,Rock Springs,82901,2017/01/15/8q9d48zyz4_Barrasso_WY_82901.png,Barrasso_WY_82901.png
B001267,719-328-1100,Colorado Springs,80903,2017/01/15/2yn8zwebou_Bennet_CO_80903.png,Bennet_CO_80903.png
B001267,970-241-6631,Grand Junction,81501,2017/01/15/jgtz6w5cj_Bennet_CO_81501.png,Bennet_CO_81501.png
B001269,717-525-7002,Harrisburg,17109,2017/01/15/35joex14s6_Barletta_PA_17109.png,Barletta_PA_17109.png
B001273,931-854-0069,Cookeville,38501,2017/01/15/7nk26b7btq_Black_TN_38501.png,Black_TN_38501.png
B001274,256-718-5155,Florence,35630,2017/01/15/996fc3e9vj_Brooks_AL_35630.png,Brooks_AL_35630.png
B001275,"",Jasper,47547,2017/01/15/54el7g87e9_Bucshon_IN_47547.png,Bucshon_IN_47547.png
B001277,860-258-6940,Hartford,06103,2017/01/15/5wvdnhwa0r_Blumenthal_CT_06103.png,Blumenthal_CT_06103.png
B001286,815-968-8011,Rockford,61101,2017/01/15/1su7lpah4i_Bustos_IL_61101.png,Bustos_IL_61101.png
B001289,251-690-2811,Mobile,36602,2017/01/15/3cheiyq8a2_Byrne_AL_36602.png,Byrne_AL_36602.png
B001290,540-507-7216,Spotsylvania,22553,2017/01/15/a87x6315o_Brat_VA_22553.png,Brat_VA_22553.png
B001291,844-303-8934,Woodville,75979,2017/01/15/8lforaparn_Babin_TX_75979.png,Babin_TX_75979.png
B001294,319-266-6925,Cedar Falls,50613,2017/01/15/8iw8i3vdnf_Blum_IA_50613.png,Blum_IA_50613.png
B001295,618-457-5787,Carbondale,62901,2017/01/15/1bcugxwhcr_Bost_IL_62901.png,Bost_IL_62901.png
B001296,215-517-6572,Glenside,19038,2017/01/15/89csuu7elg_Boyle_PA_19038.png,Boyle_PA_19038.png
B001296,215-335-3355,Philadelphia,19115,2017/01/15/7jw4blx065_Boyle_PA_19115.png,Boyle_PA_19115.png
B001298,"",Omaha,68144,2017/01/15/5p770xy7l9_Bacon_NE_68144.png,Bacon_NE_68144.png
B001302,"",Mesa,85209,2017/01/15/5m7mucq6jy_Biggs_AZ_85209.png,Biggs_AZ_85209.png
B001305,"",Advance,27006,2017/01/15/3amdcyfoz0_Budd_NC_27006.png,Budd_NC_27006.png
C000127,206-220-6400,Seattle,98174,2017/01/15/15o9ak6gba_Cantwell_WA_98174.png,Cantwell_WA_98174.png
C000141,410-962-4436,Baltimore,21201,2017/01/15/9s6dj7prkk_Cardin_MD_21201.png,Cardin_MD_21201.png
C000266,513-421-8704,Lebanon,45036,2017/01/15/48etbdln56_Chabot_OH_45036.png,Chabot_OH_45036.png
C000537,803-854-4700,Santee,29142,2017/01/15/7k9cjfxl23_Clyburn_SC_29142.png,Clyburn_SC_29142.png
C000714,313-961-5670,Detroit,48226,2017/01/15/6ffzxt2ohu_Conyers_MI_48226.png,Conyers_MI_48226.png
C000880,208-334-1776,Boise,83702,2017/01/15/wil9qhsi9_Crapo_ID_83702.png,Crapo_ID_83702.png
C000880,208-743-1492,Lewiston,83501,2017/01/15/7zzqyetb8q_Crapo_ID_83501.png,Crapo_ID_83501.png
C000984,410-719-8777,Catonsville,21228,2017/01/15/urz1mb6e2_Cummings_MD_21228.png,Cummings_MD_21228.png
C001035,207-283-1101,Biddeford,04005,2017/01/15/4agxcrtz07_Collins_ME_04005.png,Collins_ME_04005.png
C001037,617-621-6208,Cambridge,02141,2017/01/15/5ldvzpj428_Capuano_MA_02141.png,Capuano_MA_02141.png
C001038,718-931-1400,Bronx,10465,2017/01/15/6dfcpjvcu4_Crowley_NY_10465.png,Crowley_NY_10465.png
C001047,304-347-5372,Charleston,25301,2017/01/15/8849gwmas9_Capito_WV_25301.png,Capito_WV_25301.png
C001049,314-383-5240,Florissant,63031,2017/01/15/72cx4uw0yp_Clay_MO_63031.png,Clay_MO_63031.png
C001051,512-246-1600,Round Rock,78664,2017/01/15/8i3iwtx754_Carter_TX_78664.png,Carter_TX_78664.png
C001053,405-329-6500,"Norman,",73069,2017/01/15/9j28p5ew5f_Cole_OK_73069.png,Cole_OK_73069.png
C001056,210-224-7485,San Antonio,78205,2017/01/15/1pz8bhxvwo_Cornyn_TX_78205.png,Cornyn_TX_78205.png
C001059,209-384-1620,Merced,95340,2017/01/15/3hm3xqssmu_Costa_CA_95340.png,Costa_CA_95340.png
C001062,325-646-1950,Brownwood,76801,2017/01/15/24to141ruo_Conaway_TX_76801.png,Conaway_TX_76801.png
C001062,432-687-2390,Midland,79705,2017/01/15/8mc9qal8hp_Conaway_TX_79705.png,Conaway_TX_79705.png
C001063,956-424-3942,Mission,78572,2017/01/15/6vzlz1mqa3_Cuellar_TX_78572.png,Cuellar_TX_78572.png
C001066,813-871-2817,Tampa,33607,2017/01/15/4t8lcxkhq8_Castor_FL_33607.png,Castor_FL_33607.png
C001069,860-741-6011,Enfield,06082,2017/01/15/789lye5h2j_Courtney_CT_06082.png,Courtney_CT_06082.png
C001070,717-231-7540,Harrisburg,17101,2017/01/15/69fqebzg1k_Casey_PA_17101.png,Casey_PA_17101.png
C001071,865-637-4180,Chattanooga,37402,2017/01/15/5s80pkmkmj_Corker_TN_37402.png,Corker_TN_37402.png
C001071,901-683-1910,Memphis,38103,2017/01/15/32ip6uartz_Corker_TN_38103.png,Corker_TN_38103.png
C001075,318-448-7176,Alexandria,71303,2017/01/15/444h5ybkqp_Cassidy_LA_71303.png,Cassidy_LA_71303.png
C001075,337-261-1400,Lafayette,70508,2017/01/15/7m7cah58hl_Cassidy_LA_70508.png,Cassidy_LA_70508.png
C001076,801-851-2500,Provo,84601,2017/01/15/4q7r4xxbo8_Chaffetz_UT_84601.png,Chaffetz_UT_84601.png
C001087,870-424-2075,Mountain Home,72653,2017/01/15/7sp8em245o_Crawford_AR_72653.png,Crawford_AR_72653.png
C001090,484-546-0776,Easton,18042,2017/01/15/6sz4swr0hw_Cartwright_PA_18042.png,Cartwright_PA_18042.png
C001091,210-348-8216,San Antonio,78206,2017/01/15/5qkdkfxcl9_Castro_TX_78206.png,Castro_TX_78206.png
C001093,770-297-3388,Gainesville,30501,2017/01/15/7u702q27wl_Collins_GA_30501.png,Collins_GA_30501.png
C001095,870-864-8582,El Dorado,71730,2017/01/15/7g8asz0qfw_Cotton_AR_71730.png,Cotton_AR_71730.png
C001095,479-751-0879,Springdale,72764,2017/01/15/2n70rdrmpi_Cotton_AR_72764.png,Cotton_AR_72764.png
C001096,701-839-0255,Minot,58701,2017/01/15/1j1joio1kn_Cramer_ND_58701.png,Cramer_ND_58701.png
C001098,241-599-8749,Dallas,75219,2017/01/15/4t2tj3cuzp_Cruz_TX_75219.png,Cruz_TX_75219.png
C001098,903-593-5130,Tyler,75702,2017/01/15/3go01xkr5g_Cruz_TX_75702.png,Cruz_TX_75702.png
C001103,912-352-0101,Savannah,31405,2017/01/15/3kxnyb3njx_Carter_GA_31405.png,Carter_GA_31405.png
C001106,610-696-2982,West Chester,19382,2017/01/15/4fp04wt4xx_Costello_PA_19382.png,Costello_PA_19382.png
C001107,305-222-0160,Miami,33175,2017/01/15/m90h6j5nv_Curbelo_FL_33175.png,Curbelo_FL_33175.png
C001109,307-261-6595,Casper,82602,2017/01/15/6egvthts4w_Cheney_WY_82602.png,Cheney_WY_82602.png
C001111,"","","",2017/01/15/u9m06roxx_Crist_FL_.png,Crist_FL_.png
D000482,412-664-4049,McKeesport,15132,2017/01/15/16i8bjon9y_Doyle_PA_15132.png,Doyle_PA_15132.png
D000533,865-523-3772,Knoxville,37902,2017/01/15/ugmf7tohb_Duncan_TN_37902.png,Duncan_TN_37902.png
D000563,309-786-5173,Rock Island,61201,2017/01/15/57yf3oky6n_Durbin_IL_61201.png,Durbin_IL_61201.png
D000600,305-470-8555,Dora,33166,2017/01/15/2rbzuj2r6g_Diaz_Balart_FL_33166.png,Diaz-Balart_FL_33166.png
D000604,610-562-4281,Hamburg,19526,2017/01/15/8ruo0v8pzr_Dent_PA_19526.png,Dent_PA_19526.png
D000607,219-852-0089,Hammond,46320,2017/01/15/3e5dmwpnrs_Donnelly_IN_46320.png,Donnelly_IN_46320.png
D000607,574-288-2780,South Bend,46601,2017/01/15/8cqrtfmqmb_Donnelly_IN_46601.png,Donnelly_IN_46601.png
D000610,"",Margate,33063,2017/01/15/8uuu9b8ir0_Deutch_FL_33063.png,Deutch_FL_33063.png
D000614,715-808-8160,Hudson,54016,2017/01/15/2vhfpar3mc_Duffy_WI_54016.png,Duffy_WI_54016.png
D000616,423-472-7500,Cleveland,37311,2017/01/15/3kcrczj9i9_DesJarlais_TN_37311.png,DesJarlais_TN_37311.png
D000616,931-962-3180,Winchester,37398,2017/01/15/f3w87m0bl_DesJarlais_TN_37398.png,DesJarlais_TN_37398.png
D000618,406-245-6822,Billings,59101,2017/01/15/19rdcnvav3_Daines_MT_59101.png,Daines_MT_59101.png
D000618,406-665-4126,Hardin,59034,2017/01/15/5ri5ppm2e9_Daines_MT_59034.png,Daines_MT_59034.png
D000619,618-205-8660,Maryville,62062,2017/01/15/2bc4c2ga8n_Davis_IL_62062.png,Davis_IL_62062.png
D000620,301-926-0300,"",20878,2017/01/15/4tt660io1s_Delaney_MD_20878.png,Delaney_MD_20878.png
D000621,904-827-1101,St. Augustine,32084,2017/01/15/3mcsdea3u7_DeSantis_FL_32084.png,DeSantis_FL_32084.png
D000624,313-278-2936,Dearborn,48124,2017/01/15/1vvoakmcys_Dingell_MI_48124.png,Dingell_MI_48124.png
D000626,937-322-1120,Springfield,45502,2017/01/15/3vtqj36ov0_Davidson_OH_45502.png,Davidson_OH_45502.png
D000627,"",Orlando,32835,2017/01/15/53xuw9slsw_Demings_FL_32835.png,Demings_FL_32835.png
E000179,718-796-9700,Bronx,10463,2017/01/15/2atk31wg1s_Engel_NY_10463.png,Engel_NY_10463.png
E000285,307-527-9444,Cody,82414,2017/01/15/4hmorcczeo_Enzi_WY_82414.png,Enzi_WY_82414.png
E000288,612-522-1212,Minneapolis,55411,2017/01/15/1c99f86x07_Ellison_MN_55411.png,Ellison_MN_55411.png
E000294,763-241-6848,Otsego,55330,2017/01/15/6pcrr6wcaq_Emmer_MN_55330.png,Emmer_MN_55330.png
E000295,515-284-4574,Des Moines,50309,2017/01/15/7592ae8nph_Ernst_IA_50309.png,Ernst_IA_50309.png
F000062,619-231-9712,San Diego,92101,2017/01/15/5rviyjwhm2_Feinstein_CA_92101.png,Feinstein_CA_92101.png
F000444,602-840-1891,Phoenix,85016,2017/01/15/58gk818uf7_Flake_AZ_85016.png,Flake_AZ_85016.png
F000457,"","","",2017/01/15/4i0tga8i4w_Franken_MN_.png,Franken_MN_.png
F000457,651-221-1016,Saint Paul,55107,2017/01/15/7att1tm9gy_Franken_MN_55107.png,Franken_MN_55107.png
F000460,361-884-2222,Corpus Christi,78401,2017/01/15/4jby5vw896_Farenthold_TX_78401.png,Farenthold_TX_78401.png
F000461,512-373-3378,Austin,78728,2017/01/15/37broeiw31_Flores_TX_78728.png,Flores_TX_78728.png
F000463,402-441-4600,Lincoln,68508,2017/01/15/5b3fq9dg0z_Fischer_NE_68508.png,Fischer_NE_68508.png
F000464,607-746-9537,Delhi,13753,2017/01/15/2144tr2j50_Faso_NY_13753.png,Faso_NY_13753.png
F000465,770-683-2033,Newnan,30265,2017/01/15/4avm61esi6_Ferguson_GA_30265.png,Ferguson_GA_30265.png
G000289,540-857-2672,Roanoke,24011,2017/01/15/840z24da1g_Goodlatte_VA_24011.png,Goodlatte_VA_24011.png
G000359,843-849-3887,Mt. Pleasant,29464,2017/01/15/4czi5y40p_Graham_SC_29464.png,Graham_SC_29464.png
G000377,817-338-0909,Fort Worth,76107,2017/01/15/9ilry6ueap_Granger_TX_76107.png,Granger_TX_76107.png
G000386,563-322-4331,Davenport,52801,2017/01/15/8hr80kplrz_Grassley_IA_52801.png,Grassley_IA_52801.png
G000410,281-999-5879,Houston,77060,2017/01/15/655b0xtp4_Green_TX_77060.png,Green_TX_77060.png
G000546,573-221-3400,Hannibal,63401,2017/01/15/75en2i2yqy_Graves_MO_63401.png,Graves_MO_63401.png
G000552,936-632-3180,Lufkin,75901,2017/01/15/2p30benotq_Gohmert_TX_75901.png,Gohmert_TX_75901.png
G000552,903-561-6349,Tyler,75701,2017/01/15/60x4o6o7tx_Gohmert_TX_75701.png,Gohmert_TX_75701.png
G000555,315-376-6118,Lowville,13367,2017/01/15/898qgbis2w_Gillibrand_NY_13367.png,Gillibrand_NY_13367.png
G000555,315-448-0470,Syracuse,13261,2017/01/15/3yoz3f9ei9_Gillibrand_NY_13261.png,Gillibrand_NY_13261.png
G000558,"",Owensboro,42301,2017/01/15/45ze6ppglu_Guthrie_KY_42301.png,Guthrie_KY_42301.png
G000559,530-329-8865,"Yuba City,",95991,2017/01/15/53h7fei3f0_Garamendi_CA_95991.png,Garamendi_CA_95991.png
G000562,719-632-6706,Colorado Springs,80903,2017/01/15/7y6c97wo77_Gardner_CO_80903.png,Gardner_CO_80903.png
G000562,970-245-9553,Grand Junction,81501,2017/01/15/8mch6fysab_Gardner_CO_81501.png,Gardner_CO_81501.png
G000563,419-207-0650,Ashland,44805,2017/01/15/hm21gvzzo_Gibbs_OH_44805.png,Gibbs_OH_44805.png
G000565,"","",86401,2017/01/15/67ucnrpvfo_Gosar_AZ_86401.png,Gosar_AZ_86401.png
G000566,864-583-3264,Spartanburg,29306,2017/01/15/72nr5sn64r_Gowdy_SC_29306.png,Gowdy_SC_29306.png
G000568,540-381-5671,Christiansburg,24073,2017/01/15/6z40mckwwu_Griffith_VA_24073.png,Griffith_VA_24073.png
G000577,225-442-1731,Baton Rouge,70808,2017/01/15/3k1ynsy68b_Graves_LA_70808.png,Graves_LA_70808.png
G000578,"",Pensacola,32502,2017/01/15/52xn2fy36u_Gaetz_FL_32502.png,Gaetz_FL_32502.png
H000324,561-469-7048,Mangonia Park,33407,2017/01/15/84cas97ml3_Hastings_FL_33407.png,Hastings_FL_33407.png
H000338,435-634-1795,St. George,84770,2017/01/15/8eg247wj26_Hatch_UT_84770.png,Hatch_UT_84770.png
H000874,301-843-1577,Waldorf,20602,2017/01/15/p1bed838g_Hoyer_MD_20602.png,Hoyer_MD_20602.png
H001038,716-852-3501,Buffalo,14210,2017/01/15/5szta0rdq0_Higgins_NY_14210.png,Higgins_NY_14210.png
H001045,601-823-3400,Brookhaven,39601,2017/01/15/71bc1zsy4y_Harper_MS_39601.png,Harper_MS_39601.png
H001045,601-932-2410,Pearl,39208,2017/01/15/2le8qnzc6k_Harper_MS_39208.png,Harper_MS_39208.png
H001046,575-523-6561,Las Cruces,88001,2017/01/15/4x518eul6h_Heinrich_NM_88001.png,Heinrich_NM_88001.png
H001047,866-453-0028,Bridgeport,06604,2017/01/15/7s4efznp2v_Himes_CT_06604.png,Himes_CT_06604.png
H001048,951-695-5108,Temecula,92590,2017/01/15/28qew6iwtz_Hunter_CA_92590.png,Hunter_CA_92590.png
H001052,443-944-8624,Salisbury,21801,2017/01/15/6a3ov93odo_Harris_MD_21801.png,Harris_MD_21801.png
H001053,816-884-3411,Harrisonville,64701,2017/01/15/1ns2vu04vi_Hartzler_MO_64701.png,Hartzler_MO_64701.png
H001058,616-414-5516,Grand Haven,49417,2017/01/15/83tr1hfkij_Huizenga_MI_49417.png,Huizenga_MI_49417.png
H001061,701-250-4618,Bismarck,58501,2017/01/15/3g53xjkwmp_Hoeven_ND_58501.png,Hoeven_ND_58501.png
H001068,707-407-3585,Eureka,95501,2017/01/15/4t4ftbiz16_Huffman_CA_95501.png,Huffman_CA_95501.png
H001068,707-671-7449,Ukiah,95482,2017/01/15/p19cf7mp6_Huffman_CA_95482.png,Huffman_CA_95482.png
H001069,701-775-9601,Grand Forks,58201,2017/01/15/50wu6dvxvp_Heitkamp_ND_58201.png,Heitkamp_ND_58201.png
H001071,770-207-1776,Monroe,30655,2017/01/15/69jbaqes6u_Hice_GA_30655.png,Hice_GA_30655.png
H001073,830-422-2040,Del Rio,78840,2017/01/15/1oonyhpxm4_Hurd_TX_78840.png,Hurd_TX_78840.png
H001073,210-784-5023,San Antonio,78224,2017/01/15/7mlefstcge_Hurd_TX_78224.png,Hurd_TX_78224.png
I000024,918-426-0933,McAlester,74501,2017/01/15/6pthvtz9vv_Inhofe_OK_74501.png,Inhofe_OK_74501.png
I000056,949-281-2449,Dana Point,92629,2017/01/15/1si168s72q_Issa_CA_92629.png,Issa_CA_92629.png
J000032,713-655-0050,Houston,77002,2017/01/15/3p2e9eg2a6_Jackson_Lee_TX_77002.png,Jackson Lee_TX_77002.png
J000174,469-304-0382,Plano,75075,2017/01/15/6axt8dyqyu_Johnson_TX_75075.png,Johnson_TX_75075.png
J000255,252-565-6846,Jacksonville,28540,2017/01/15/96hi68trci_Jones_NC_28540.png,Jones_NC_28540.png
J000289,419-999-6455,Lima,45805,2017/01/15/9bzrbvr4l9_Jordan_OH_45805.png,Jordan_OH_45805.png
J000292,740-432-2366,"Cambridge, OH",43725,2017/01/15/7v6a37b1d4_Johnson_OH_43725.png,Johnson_OH_43725.png
J000294,718-237-2211,Brooklyn,11217,2017/01/15/8u9ptmtmaz_Jeffries_NY_11217.png,Jeffries_NY_11217.png
K000384,276-525-4790,Abingdon,24210,2017/01/15/axy0hqptz_Kaine_VA_24210.png,Kaine_VA_24210.png
J000297,304-325-6800,Bluefield,24701,2017/01/15/299xtlajmm_Jenkins_WV_24701.png,Jenkins_WV_24701.png
J000299,"",Bossier City,71111,2017/01/15/4hxss96y0f_Johnson_LA_71111.png,Johnson_LA_71111.png
K000188,715-831-9214,Eau Claire,54701,2017/01/15/20nnbdaumj_Kind_WI_54701.png,Kind_WI_54701.png
K000362,515-232-2885,Ames,50010,2017/01/15/9j8eb0gvrt_King_IA_50010.png,King_IA_50010.png
K000362,712-580-7754,Spencer,51301,2017/01/15/61t9csl011_King_IA_51301.png,King_IA_51301.png
K000367,218-741-9690,Virginia,55792,2017/01/15/2wqlkrhk5w_Klobuchar_MN_55792.png,Klobuchar_MN_55792.png
K000375,508-746-9000,Plymouth,02360,2017/01/15/5aob4lm79m_Keating_MA_02360.png,Keating_MA_02360.png
K000376,"",New Castle,16101,2017/01/15/8ariz5dhsc_Kelly_PA_16101.png,Kelly_PA_16101.png
K000378,815-432-0580,Wateska,60970,2017/01/15/665r6wrh0x_Kinzinger_IL_60970.png,Kinzinger_IL_60970.png
K000380,810-238-8627,Flint,48502,2017/01/15/6oxihtpit0_Kildee_MI_48502.png,Kildee_MI_48502.png
K000381,253-272-3515,Tacoma,98402,2017/01/15/5w4i9fsdtc_Kilmer_WA_98402.png,Kilmer_WA_98402.png
K000382,603-595-2006,Nashua,03060,2017/01/15/877654unkh_Kuster_NH_03060.png,Kuster_NH_03060.png
K000386,315-253-4068,Auburn,13021,2017/01/15/89ts0a5oa_Katko_NY_13021.png,Katko_NY_13021.png
K000387,661-441-0320,Palmdale,93551,2017/01/15/6yqdx6anvn_Knight_CA_93551.png,Knight_CA_93551.png
K000388,662-327-0748,Columbus,39701,2017/01/15/4fxdqq8ljx_Kelly_MS_39701.png,Kelly_MS_39701.png
K000388,662-841-8808,Tupelo,38804,2017/01/15/zojnovc8o_Kelly_MS_38804.png,Kelly_MS_38804.png
K000390,"","",89030,2017/01/15/71z8192sz6_Kihuen_NV_89030.png,Kihuen_NV_89030.png
K000392,"",Memphis,38119,2017/01/15/7ej82b8vva_Kustoff_TN_38119.png,Kustoff_TN_38119.png
L000287,404-659-0116,Atlanta,30303,2017/01/15/6zun7ns5ll_Lewis_GA_30303.png,Lewis_GA_30303.png
L000480,914-428-1707,White Plains,10605,2017/01/15/6iyp9c2hob_Lowey_NY_10605.png,Lowey_NY_10605.png
L000551,"",Albany,94706,2017/01/15/4876jdhvxj_Lee_CA_94706.png,Lee_CA_94706.png
L000551,"",San Leandro,94577,2017/01/15/91m9dwsetk_Lee_CA_94577.png,Lee_CA_94577.png
L000560,360-733-4500,Bellingham,98225,2017/01/15/5ijaspkxsx_Larsen_WA_98225.png,Larsen_WA_98225.png
L000562,508-586-5555,Brockton,02301,2017/01/15/3e5rred99u_Lynch_MA_02301.png,Lynch_MA_02301.png
L000563,815-838-1990,Lockport,60441,2017/01/15/38ex8dc2fa_Lipinski_IL_60441.png,Lipinski_IL_60441.png
L000564,719-520-0055,Buena Vista,81211,2017/01/15/25ug472vrx_Lamborn_CO_81211.png,Lamborn_CO_81211.png
L000566,419-422-7791,Findlay,45840,2017/01/15/6lkuy603nq_Latta_OH_45840.png,Latta_OH_45840.png
L000569,636-239-2276,Washington,63090,2017/01/15/1a4m4jwj06_Luetkemeyer_MO_63090.png,Luetkemeyer_MO_63090.png
L000570,505-863-0582,Gallup,87301,2017/01/15/77p5kft628_Luj_n_NM_87301.png,Luján_NM_87301.png
L000570,575-461-3029,Tucumcari,88401,2017/01/15/1zir482ykl_Luj_n_NM_88401.png,Luján_NM_88401.png
L000575,405-231-4941,Oklahoma City,73102,2017/01/15/ivrmubrw1_Lankford_OK_73102.png,Lankford_OK_73102.png
L000576,417-781-1041,Joplin,64804,2017/01/15/2xecbfxe5i_Long_MO_64804.png,Long_MO_64804.png
L000577,435-628-5514,St. George,84770,2017/01/15/697etgsevx_Lee_UT_84770.png,Lee_UT_84770.png
L000578,530-223-5898,Redding,96002,2017/01/15/33fy4l4q7r_LaMalfa_CA_96002.png,LaMalfa_CA_96002.png
L000581,248-356-2052,Southfield,48033,2017/01/15/5arkzhaso6_Lawrence_MI_48033.png,Lawrence_MI_48033.png
L000583,770-429-1776,Atlanta,30339,2017/01/15/6x8vxaoyfq_Loudermilk_GA_30339.png,Loudermilk_GA_30339.png
L000585,309-205-9556,Bloomington,61704,2017/01/15/8r2o72h3en_LaHood_IL_61704.png,LaHood_IL_61704.png
L000585,217-670-1653,Springfield,62701,2017/01/15/1z9upyypbe_LaHood_IL_62701.png,LaHood_IL_62701.png
M000087,718-349-5972,"Brooklyn, NY",11211-222,2017/01/15/5tph0rla8l_Maloney_NY_11211_222.png,Maloney_NY_11211-222.png
M000133,413-785-461,Springfield,01101,2017/01/15/36w4wo1veo_Markey_MA_01101.png,Markey_MA_01101.png
M000355,"",Paducah,42001,2017/01/15/6impg483n4_McConnell_KY_42001.png,McConnell_KY_42001.png
M000934,785-628-6401,Hays,67601,2017/01/15/8p7kspiua6_Moran_KS_67601.png,Moran_KS_67601.png
M000934,620-232-2286,Pittsburg,66762,2017/01/15/seaq6hisx_Moran_KS_66762.png,Moran_KS_66762.png
M001111,509-624-9515,Spokane,99201,2017/01/15/90in2prwm2_Murray_WA_99201.png,Murray_WA_99201.png
M001111,509-453-7462,Yakima,98901,2017/01/15/5ku33mpqiq_Murray_WA_98901.png,Murray_WA_98901.png
M001143,651-224-9191,St. Paul,55102,2017/01/15/9n3xkiznl0_McCollum_MN_55102.png,McCollum_MN_55102.png
M001153,907-271-3735,Anchorage,99501,2017/01/15/3ga13vgbxt_Murkowski_AK_99501.png,Murkowski_AK_99501.png
M001153,907-225-6880,Ketchikan,99901,2017/01/15/9azcc9jg9g_Murkowski_AK_99901.png,Murkowski_AK_99901.png
M001156,704-833-0096,Gastonia,28053,2017/01/15/3z48pdi7i4_McHenry_NC_28053.png,McHenry_NC_28053.png
M001157,281-398-1247,Katy,77449,2017/01/15/48xynpryfp_McCaul_TX_77449.png,McCaul_TX_77449.png
M001159,509-684-3481,Colville,99114,2017/01/15/8aiw6uyfcj_McMorris_Rodgers_WA_99114.png,McMorris Rodgers_WA_99114.png
M001160,414-297-1140,Milwaukee,53202,2017/01/15/8gn15ddjqk_Moore_WI_53202.png,Moore_WI_53202.png
M001166,925-754-0716,Antioch,94531,2017/01/15/4a3mh43y1j_McNerney_CA_94531.png,McNerney_CA_94531.png
V000132,956-520-8273,Weslaco,78596,2017/01/15/5rp4ys0ojc_Vela_TX_78596.png,Vela_TX_78596.png
M001182,803-774-0186,Sumter,29150,2017/01/15/3qjazamoi9_Mulvaney_SC_29150.png,Mulvaney_SC_29150.png
M001176,541-278-1129,"Pendleton,",97801,2017/01/15/6ozgn1mhqi_Merkley_OR_97801.png,Merkley_OR_97801.png
M001179,570-689-6024,Lake Ariel,18436,2017/01/15/2lru6ca1i8_Marino_PA_18436.png,Marino_PA_18436.png
M001180,304-284-8506,Morgantown,26505,2017/01/15/3i3pno7kdr_McKinley_WV_26505.png,McKinley_WV_26505.png
M001181,"",Blue Bell,19422,2017/01/15/2lsmfsyhu2_Meehan_PA_19422.png,Meehan_PA_19422.png
M001181,"",Paradise,17562,2017/01/15/2kmdiajz63_Meehan_PA_17562.png,Meehan_PA_17562.png
M001184,606-324-9898,Ashland,41101,2017/01/15/50tifgdhdt_Massie_KY_41101.png,Massie_KY_41101.png
M001184,502-265-9119,LaGrange,40031,2017/01/15/5kwyt6h6sf_Massie_KY_40031.png,Massie_KY_40031.png
M001187,828-452-6022,Bryson City,28713,2017/01/15/wmuf6016l_Meadows_NC_28713.png,Meadows_NC_28713.png
M001187,828-452-6022,Franklin,28734,2017/01/15/8w5ok007k0_Meadows_NC_28734.png,Meadows_NC_28734.png
M001187,828-426-8701,Lenoir,28645,2017/01/15/go4rxrqjt_Meadows_NC_28645.png,Meadows_NC_28645.png
M001187,828-426-8701,Morganton,28655,2017/01/15/44vaiq0bbs_Meadows_NC_28655.png,Meadows_NC_28655.png
M001188,"",Forest Hills,11375,2017/01/15/4tsgt8d0vz_Meng_NY_11375.png,Meng_NY_11375.png
M001189,317-421-0704,Shelbyville,46176,2017/01/15/2z1fwpegy0_Messer_IN_46176.png,Messer_IN_46176.png
M001193,856-267-5182,Marlton,08053,2017/01/15/4j3e2v58y6_MacArthur_NJ_08053.png,MacArthur_NJ_08053.png
M001195,304-925-5964,Charleston,25301,2017/01/15/75trtm8qfe_Mooney_WV_25301.png,Mooney_WV_25301.png
M001197,520-459-3115,Sierra Vista,85635,2017/01/15/2yr78nw29a_McSally_AZ_85635.png,McSally_AZ_85635.png
M001199,"",Port St Lucie,34984,2017/01/15/8kykhaipx5_Mast_FL_34984.png,Mast_FL_34984.png
M001202,888-205-5421,Orlando,32801,2017/01/15/6n83uft16k_Murphy_FL_32801.png,Murphy_FL_32801.png
N000015,413-442-0946,Pittsfield,01201,2017/01/15/94x5w96rkv_Neal_MA_01201.png,Neal_MA_01201.png
N000032,904-346-4500,Jacksonville,32207,2017/01/15/5zavbvvgnk_Nelson_FL_32207.png,Nelson_FL_32207.png
N000032,561-514-0189,West Palm Beach,33401,2017/01/15/4ty15vgki9_Nelson_FL_33401.png,Nelson_FL_33401.png
N000127,218-491-3114,Chisholm,55719,2017/01/15/1gjhpextzc_Nolan_MN_55719.png,Nolan_MN_55719.png
N000147,202-225-8050,Washington,20515,2017/01/15/67sao801o8_Norton_DC_20515.png,Norton_DC_20515.png
N000181,559-323-5235,Clovis,93612,2017/01/15/9kivrsza3q_Nunes_CA_93612.png,Nunes_CA_93612.png
N000184,605-878-2868,"","",2017/01/15/359t1k4kpi_Noem_SD_.png,Noem_SD_.png
O000168,281-889-7134,Katy,77494,2017/01/15/32zno8xckk_Olson_TX_77494.png,Olson_TX_77494.png
O000171,"",Casa Grande,85122,2017/01/15/5utuz7pukz_O_Halleran_AZ_85122.png,O'Halleran_AZ_85122.png
P000096,201-935-2248,Englewood,07631,2017/01/15/1ejt25sjuw_Pascrell_NJ_07631.png,Pascrell_NJ_07631.png
P000197,415-556-4862,San Francisco,94103,2017/01/15/3py696v9ep_Pelosi_CA_94103.png,Pelosi_CA_94103.png
P000258,320-235-1061,Montevideo,56265,2017/01/15/2xxzll0o58_Peterson_MN_56265.png,Peterson_MN_56265.png
P000449,513-684-3265,Cincinnati,45202,2017/01/15/7z7sd8gxhl_Portman_OH_45202.png,Portman_OH_45202.png
P000523,919-967-7924,Chapel Hill,27514,2017/01/15/9o39v7zauq_Price_NC_27514.png,Price_NC_27514.png
P000588,855-473-2723,Alamogordo,88310,2017/01/15/8cy7cblogb_Pearce_NM_88310.png,Pearce_NM_88310.png
P000588,855-4-PEARCE (732723),Roswell,88201,2017/01/15/7i7fuc5rla_Pearce_NM_88201.png,Pearce_NM_88201.png
P000593,303-274-7944,Lakewood,80215,2017/01/15/2xnc2qzcc2_Perlmutter_CO_80215.png,Perlmutter_CO_80215.png
P000595,616-233-9150,Grand Rapids,49503,2017/01/15/8ypn6n9x9f_Peters_MI_49503.png,Peters_MI_49503.png
P000595,989-754-0112,Saginaw,48607,2017/01/15/67ai2xdpvs_Peters_MI_48607.png,Peters_MI_48607.png
P000597,207-873-5713,Waterville,04901,2017/01/15/4gh38zt7kb_Pingree_ME_04901.png,Pingree_ME_04901.png
P000599,321-632-1776,Melbourne,32940,2017/01/15/4ko36n8d57_Posey_FL_32940.png,Posey_FL_32940.png
P000603,270-885-1212,Hopkinsville,42240,2017/01/15/5xtcxbr0kn_Paul_KY_42240.png,Paul_KY_42240.png
P000604,862-229-2994,Hillside,07205,2017/01/15/4samvywys1_Payne_NJ_07205.png,Payne_NJ_07205.png
P000605,717-635-9504,Wormleysburg,17043,2017/01/15/hjgl90med_Perry_PA_17043.png,Perry_PA_17043.png
P000606,910-303-0669,Fayetteville,28301,2017/01/15/8oywtc02wt_Pittenger_NC_28301.png,Pittenger_NC_28301.png
P000607,608-258-0377,Madison,53703,2017/01/15/nn0il6b1l_Pocan_WI_53703.png,Pocan_WI_53703.png
P000609,205-280-6846,Clanton,35045,2017/01/15/22jm09l773_Palmer_AL_35045.png,Palmer_AL_35045.png
P000611,207-942-0583,Bangor,04401,2017/01/15/1edner2lx1_Poliquin_ME_04401.png,Poliquin_ME_04401.png
P000613,831-424-2229,Salinas,93901,2017/01/15/9jmpju2597_Panetta_CA_93901.png,Panetta_CA_93901.png
Q000023,773-267-5926,Lakeview,60657,2017/01/15/74czal5fxg_Quigley_IL_60657.png,Quigley_IL_60657.png
R000395,606-439-0794,Hazard,41701,2017/01/15/8uc7sasoee_Rogers_KY_41701.png,Rogers_KY_41701.png
R000435,305-668-2285,Miami,33155,2017/01/15/4adknw4ji9_Ros_Lehtinen_FL_33155.png,Ros-Lehtinen_FL_33155.png
R000487,626-964-5123,Rowland Heights,91748,2017/01/15/3dmf63j29l_Royce_CA_91748.png,Royce_CA_91748.png
R000570,262-654-1901,Kenosha,53140,2017/01/15/382csq5jw8_Ryan_WI_53140.png,Ryan_WI_53140.png
R000577,800-856-4152,Warren,44481,2017/01/15/5m43y6892w_Ryan_OH_44481.png,Ryan_OH_44481.png
R000580,630-232-0006,Barrington,60010,2017/01/15/3ksuq3rb5w_Roskam_IL_60010.png,Roskam_IL_60010.png
R000582,423-254-1400,Morristown,37813,2017/01/15/9ilc4ojip3_Roe_TN_37813.png,Roe_TN_37813.png
R000583,863-402-9082,Sebring,33875,2017/01/15/9b365qvl2w_Rooney_FL_33875.png,Rooney_FL_33875.png
R000584,208-236-6817,Pocatello,83201,2017/01/15/4ptj2pan2y_Risch_ID_83201.png,Risch_ID_83201.png
R000585,315-759-5229,Geneva,14456,2017/01/15/6oj6en6ky5_Reed_NY_14456.png,Reed_NY_14456.png
R000585,716-379-8434,Olean,14760,2017/01/15/5vsmgzbouj_Reed_NY_14760.png,Reed_NY_14760.png
R000588,"",Gretna,70053,2017/01/15/4yhok3jmm_Richmond_LA_70053.png,Richmond_LA_70053.png
R000591,334-794-9680,Dothan,36305,2017/01/15/9st8w3nn4o_Roby_AL_36305.png,Roby_AL_36305.png
R000592,765-838-3930,Lafayette,47901,2017/01/15/93a7xdij4g_Rokita_IN_47901.png,Rokita_IN_47901.png
R000595,305-418-8553,Doral,33166,2017/01/15/7f9a7q8jn2_Rubio_FL_33166.png,Rubio_FL_33166.png
R000595,407-254-2573,Orlando,32801,2017/01/15/6zdumvcxgs_Rubio_FL_32801.png,Rubio_FL_32801.png
R000595,813-287-5035,Tampa,33609,2017/01/15/47vj2ppdmo_Rubio_FL_33609.png,Rubio_FL_33609.png
R000598,724-359-1626,"",15009,2017/01/15/9m8m20xusm_Rothfus_PA_15009.png,Rothfus_PA_15009.png
R000601,903-823-3173,Texarkana,75599,2017/01/15/29kj60prsz_Ratcliffe_TX_75599.png,Ratcliffe_TX_75599.png
R000603,910-395-0202,Wilmington,28403,2017/01/15/1titjwidgm_Rouzer_NC_28403.png,Rouzer_NC_28403.png
R000605,605-343-5035,Rapid City,57701,2017/01/15/7iwvbpmavu_Rounds_SD_57701.png,Rounds_SD_57701.png
R000606,"",Rockville,20850,2017/01/15/35u7x6tek8_Raskin_MD_20850.png,Raskin_MD_20850.png
R000609,"",Jacksonville,32216,2017/01/15/5ofnlcamps_Rutherford_FL_32216.png,Rutherford_FL_32216.png
S000051,843-352-7572,Mount Pleasant,29464-3083,2017/01/15/3ddu8x4for_Sanford_SC_29464_3083.png,Sanford_SC_29464-3083.png
S000148,607-772-6792,Binghamton,13901,2017/01/15/1kdswer3uc_Schumer_NY_13901.png,Schumer_NY_13901.png
S000148,914-734-1532,Peekskill,10566,2017/01/15/9p46p57ce6_Schumer_NY_10566.png,Schumer_NY_10566.png
S000248,718-620-0084,Bronx,10474,2017/01/15/5z8ftb6gpz_Serrano_NY_10474.png,Serrano_NY_10474.png
S000320,256-772-0460,Huntsville,35824,2017/01/15/6xnzmtmpim_Shelby_AL_35824.png,Shelby_AL_35824.png
S000320,205-759-5047,Tuscaloosa,35401,2017/01/15/3fvziahr67_Shelby_AL_35401.png,Shelby_AL_35401.png
S000364,217-347-7947,Effingham,62401,2017/01/15/26jearc2o6_Shimkus_IL_62401.png,Shimkus_IL_62401.png
S000480,585-232-4850,Rochester,14614,2017/01/15/62nie6zmah_Slaughter_NY_14614.png,Slaughter_NY_14614.png
S000510,"",Kent,98032,2017/01/15/4v53gh4jq5_Smith_WA_98032.png,Smith_WA_98032.png
S000522,609-585-7878,Hamilton,08620,2017/01/15/179zt6ovab_Smith_NJ_08620.png,Smith_NJ_08620.png
S000583,830-896-0154,Kerrville,78028,2017/01/15/9kmgk2yrkk_Smith_TX_78028.png,Smith_TX_78028.png
S000770,810-720-4172,Flint,48502,2017/01/15/2gkw5ys9vo_Stabenow_MI_48502.png,Stabenow_MI_48502.png
S001141,205-731-1500,Birmingham,35203,2017/01/15/5c48t3v2c2_Sessions_AL_35203.png,Sessions_AL_35203.png
S001141,334-230-0698,Montgomery,36104,2017/01/15/12wxjct1ts_Sessions_AL_36104.png,Sessions_AL_36104.png
S001145,60201,Evanston,"",2017/01/15/6a5a7nlkmr_Schakowsky_IL_.png,Schakowsky_IL_.png
S001148,208-734-7219,Twin Falls,83301,2017/01/15/3vwdwjq74g_Simpson_ID_83301.png,Simpson_ID_83301.png
S001154,814-696-6318,Hollidaysburg,16648,2017/01/15/2oclzrqpew_Shuster_PA_16648.png,Shuster_PA_16648.png
S001157,770-210-5073,Jonesboro,30236,2017/01/15/91y8cngi79_Scott_GA_30236.png,Scott_GA_30236.png
S001165,201-558-0800,West New York,07093,2017/01/15/4qot82de9_Sires_NJ_07093.png,Sires_NJ_07093.png
S001168,410-832-8890,Towson,21204,2017/01/15/500uem7l5f_Sarbanes_MD_21204.png,Sarbanes_MD_21204.png
S001172,308-633-6333,Scottsbluff,69361,2017/01/15/6624t97ht7_Smith_NE_69361.png,Smith_NE_69361.png
S001176,985-879-2300,Houma,70360,2017/01/15/1lxv54zw5g_Scalise_LA_70360.png,Scalise_LA_70360.png
S001181,603-647-7500,Manchester,03101,2017/01/15/7c0fx0f9g1_Shaheen_NH_03101.png,Shaheen_NH_03101.png
S001184,864-233-5366,Greenville,29601,2017/01/15/6epb3ywflf_Scott_SC_29601.png,Scott_SC_29601.png
S001185,205-254-1960,Birmingham,35203,2017/01/15/69ge2vrwvp_Sewell_AL_35203.png,Sewell_AL_35203.png
S001187,614-771-4968,Hilliard,43026,2017/01/15/7k3nvwud42_Stivers_OH_43026.png,Stivers_OH_43026.png
S001189,478-971-1776,Warner Robins,31088,2017/01/15/4wyu9mk8ut_Scott_GA_31088.png,Scott_GA_31088.png
S001192,801-364-5550,Salt Lake City,84111,2017/01/15/90wkzdbrhk_Stewart_UT_84111.png,Stewart_UT_84111.png
S001195,573-335-0101,Cape Girardeau,63703,2017/01/15/1cqjpjbq22_Smith_MO_63703.png,Smith_MO_63703.png
S001195,573-364-2455,Rolla,65401,2017/01/15/97nxe57zoj_Smith_MO_65401.png,Smith_MO_65401.png
S001196,315-782-3150,Watertown,13601,2017/01/15/60stzbob54_Stefanik_NY_13601.png,Stefanik_NY_13601.png
S001197,402-550-8040,Omaha,68118,2017/01/15/5u9402u40s_Sasse_NE_68118.png,Sasse_NE_68118.png
S001198,907-586-7277,Juneau,99801,2017/01/15/6bh6ctkgxq_Sullivan_AK_99801.png,Sullivan_AK_99801.png
S001199,"",Lancaster,17602,2017/01/15/2a5tiszjfj_Smucker_PA_17602.png,Smucker_PA_17602.png
S001201,"",Huntington,11743,2017/01/15/2teclcbqe3_Suozzi_NY_11743.png,Suozzi_NY_11743.png
T000193,662-326-9003,Marks,38646,2017/01/15/qgfk0q5xs_Thompson_MS_38646.png,Thompson_MS_38646.png
T000462,614-523-2555,Worthington,43085,2017/01/15/1y06k6x9uz_Tiberi_OH_43085.png,Tiberi_OH_43085.png
T000464,406-365-2391,Glendive,59330,2017/01/15/89vkv3jyik_Tester_MT_59330.png,Tester_MT_59330.png
T000464,406-257-3360,Kalispell,59901,2017/01/15/8kdaiqv7gy_Tester_MT_59901.png,Tester_MT_59901.png
T000465,978-459-0101,Haverhill,01830,2017/01/15/b97uwrhz8_Tsongas_MA_01830.png,Tsongas_MA_01830.png
T000465,978-459-0101,Marlborough,01752,2017/01/15/7shhiepgs9_Tsongas_MA_01752.png,Tsongas_MA_01752.png
T000468,702-220-9823,Las Vegas,89104,2017/01/15/855hu7y76o_Titus_NV_89104.png,Titus_NV_89104.png
T000470,719-587-5105,Alamosa,81101,2017/01/15/5nfwp2bg0j_Tipton_CO_81101.png,Tipton_CO_81101.png
T000470,719-542-1073,Pueblo,81003,2017/01/15/3y1u484xyb_Tipton_CO_81003.png,Tipton_CO_81003.png
T000475,248-528-0711,Troy,48083,2017/01/15/2y2q1ie81o_Trott_MI_48083.png,Trott_MI_48083.png
T000476,336-885-0685,High Point,27265,2017/01/15/34okdeu65p_Tillis_NC_27265.png,Tillis_NC_27265.png
T000478,"",New Hartford,13413,2017/01/15/2wj0w7y0za_Tenney_NY_13413.png,Tenney_NY_13413.png
U000039,575-526-5475,Las Cruces,88001,2017/01/15/1lo4hv5rmh_Udall_NM_88001.png,Udall_NM_88001.png
V000081,718-599-3658,Brooklyn,11211,2017/01/15/3qqhl0z3er_Vel_zquez_NY_11211.png,Velázquez_NY_11211.png
V000131,214-741-1387,Dallas,75208,2017/01/15/4oginqolrq_Veasey_TX_75208.png,Veasey_TX_75208.png
V000132,361-230-9776,Alice,78332,2017/01/15/8ryw2itr7h_Vela_TX_78332.png,Vela_TX_78332.png
W000437,662-429-1002,Hernando,38632,2017/01/15/6zq7uwbz3v_Wicker_MS_38632.png,Wicker_MS_38632.png
W000779,541-330-9142,Bend,97701,2017/01/15/6errl0n00q_Wyden_OR_97701.png,Wyden_OR_97701.png
W000779,541-858-5122,Medford,97501,2017/01/15/5i9azm63ye_Wyden_OR_97501.png,Wyden_OR_97501.png
W000791,541-389-4408,Bend,97701,2017/01/15/82fgt1qran_Walden_OR_97701.png,Walden_OR_97701.png
W000795,803-939-0041,"West Columbia,",29169,2017/01/15/956vhz61lm_Wilson_SC_29169.png,Wilson_SC_29169.png
W000799,507-388-2149,Mankato,56001,2017/01/15/7ojc9b862a_Walz_MN_56001.png,Walz_MN_56001.png
W000804,540-659-2734,Stafford,22556,2017/01/15/1mc5ej9f3g_Wittman_VA_22556.png,Wittman_VA_22556.png
W000804,757-874-6687,Yorktown,23690,2017/01/15/4qunreho35_Wittman_VA_23690.png,Wittman_VA_23690.png
W000806,"",Inverness,34450,2017/01/15/32g9xdcauz_Webster_FL_34450.png,Webster_FL_34450.png
W000806,352-383-3552,Minneola,34715,2017/01/15/9iox6f3xep_Webster_FL_34715.png,Webster_FL_34715.png
W000808,954-989-2688,West Park,33023,2017/01/15/1gfta898db_Wilson_FL_33023.png,Wilson_FL_33023.png
W000809,479-464-0446,Rogers,72758,2017/01/15/1ehsortl7p_Womack_AR_72758.png,Womack_AR_72758.png
C000127,202-224-3441,Washington,20510,2017/01/15/52wr1vba30_Cantwell_DC_20510.png,Cantwell_DC_20510.png
C000141,202-224-4524,Washington,20510,2017/01/15/390c3mmdq1_Cardin_DC_20510.png,Cardin_DC_20510.png
C000174,202-224-2441,Washington,20510,2017/01/15/9pevbgw0n_Carper_DC_20510.png,Carper_DC_20510.png
B000944,202-224-2315,Washington,20510,2017/01/15/9icve6jo12_Brown_DC_20510.png,Brown_DC_20510.png
W000815,513-605-1380,Peebles,45660,2017/01/15/6bu7cq8v3l_Wenstrup_OH_45660.png,Wenstrup_OH_45660.png
W000819,336-229-0159,Graham,27253,2017/01/15/4wg6h4wzqy_Walker_NC_27253.png,Walker_NC_27253.png
W000820,949-263-8703,Irvine,92612,2017/01/15/7pj0rgur7e_Walters_CA_92612.png,Walters_CA_92612.png
W000821,870-536-8178,Pine Bluff,71601,2017/01/15/43dapuw7hz_Westerman_AR_71601.png,Westerman_AR_71601.png
Y000033,907-456-0210,Fairbanks,99707,2017/01/15/3a5mlznelz_Young_AK_99707.png,Young_AK_99707.png
Y000065,904-276-9626,Orange Park,32065,2017/01/15/639y1wq9rw_Yoho_FL_32065.png,Yoho_FL_32065.png
Y000066,515-282-1909,Des Moines,50309,2017/01/15/6mjxi661ww_Young_IA_50309.png,Young_IA_50309.png
Z000018,406-952-1210,Great Falls,59401,2017/01/15/8qubmim600_Zinke_MT_59401.png,Zinke_MT_59401.png
W000814,281-316-0231,League City,77573,2017/01/15/673dqx3gmu_Weber_TX_77573.png,Weber_TX_77573.png
K000367,202-224-3244,Washington,20510,2017/01/15/7rgzhvizw1_Klobuchar_DC_20510.png,Klobuchar_DC_20510.png
C001071,202-224-3344,Washington,20510,2017/01/15/7qzb68paw0_Corker_DC_20510.png,Corker_DC_20510.png
H000338,202-224-5251,Washington,20510,2017/01/15/11umzskdab_Hatch_DC_20510.png,Hatch_DC_20510.png
M001170,202-224-6154,Washington,20510,2017/01/15/952j8dirr6_McCaskill_DC_20510.png,McCaskill_DC_20510.png
N000032,202-224-5274,Washington,20510,2017/01/15/69kqg0u05l_Nelson_DC_20510.png,Nelson_DC_20510.png
S000033,202-224-5141,Washington,20510,2017/01/15/6wh469qwtc_Sanders_DC_20510.png,Sanders_DC_20510.png
S000770,202-224-4822,Washington,20510,2017/01/15/534109l9bo_Stabenow_DC_20510.png,Stabenow_DC_20510.png
W000802,202-224-2921,Washington,20510,2017/01/15/kg1ozqxb2_Whitehouse_DC_20510.png,Whitehouse_DC_20510.png
B001261,202-224-6441,Washington,20510,2017/01/15/6gwfzfzloj_Barrasso_DC_20510.png,Barrasso_DC_20510.png
W000437,202-224-6253,Washington,20510,2017/01/15/7zwc8fogav_Wicker_DC_20510.png,Wicker_DC_20510.png
C000567,202-224-5054,Washington,20510,2017/01/15/13lbdwt0as_Cochran_DC_20510.png,Cochran_DC_20510.png
C001035,202-224-2523,Washington,20510,2017/01/15/8h3fe688yb_Collins_DC_20510.png,Collins_DC_20510.png
G000359,202-224-5972,Washington,20510,2017/01/15/9ivfdypcna_Graham_DC_20510.png,Graham_DC_20510.png
E000285,202-224-3424,Washington,20510,2017/01/15/5xww0scmp1_Enzi_DC_20510.png,Enzi_DC_20510.png
I000024,202-224-4721,Washington,20510,2017/01/15/94iw4i1uch_Inhofe_DC_20510.png,Inhofe_DC_20510.png
M000355,202-224-2541,Washington,20510,2017/01/15/1ufmgvaq8m_McConnell_DC_20510.png,McConnell_DC_20510.png
R000122,202-224-4642,Washington,20510,2017/01/15/9d6azzxwoz_Reed_DC_20510.png,Reed_DC_20510.png
R000584,202-224-2752,Washington,20510,2017/01/15/8uk9qigwmk_Risch_DC_20510.png,Risch_DC_20510.png
S001141,202-224-4124,Washington,20510,2017/01/15/4aduxaowij_Sessions_DC_20510.png,Sessions_DC_20510.png
S001181,202-224-2841,Washington,20510,2017/01/15/42qrkem481_Shaheen_DC_20510.png,Shaheen_DC_20510.png
U000039,202-224-6621,Washington,20510,2017/01/15/2u43t4vf2k_Udall_DC_20510.png,Udall_DC_20510.png
W000805,202-224-2023,Washington,20510,2017/01/15/9glcbkzj42_Warner_DC_20510.png,Warner_DC_20510.png
F000457,202-224-5641,Washington,20510,2017/01/15/1d5sn8p1mu_Franken_DC_20510.png,Franken_DC_20510.png
C001088,202-224-5042,Washington,20510,2017/01/15/6m7bq4cclt_Coons_DC_20510.png,Coons_DC_20510.png
B001273,202-225-4231,Washington,20515-4206,2017/01/15/4wnz53vhnf_Black_DC_20515_4206.png,Black_DC_20515-4206.png
B001236,202-224-4843,Washington,20510,2017/01/15/9lrabpqjta_Boozman_DC_20510.png,Boozman_DC_20510.png
B001245,202-225-1188,Washington,20515-5301,2017/01/15/1eb7uh5mat_Bordallo_DC_20515_5301.png,Bordallo_DC_20515-5301.png
B000755,202-225-4901,Washington,20515-4308,2017/01/15/87e1nlhckx_Brady_DC_20515_4308.png,Brady_DC_20515-4308.png
A000367,202-225-3831,Washington,20515-2203,2017/01/15/5sdvw0jkg1_Amash_DC_20515_2203.png,Amash_DC_20515-2203.png
B001269,202-225-6511,Washington,20515-3811,2017/01/15/3uv0nl1srv_Barletta_DC_20515_3811.png,Barletta_DC_20515-3811.png
B000213,202-225-2002,Washington,20515-4306,2017/01/15/7y3c5c3ewc_Barton_DC_20515_4306.png,Barton_DC_20515-4306.png
B001270,202-225-7084,Washington,20515-0537,2017/01/15/3kh6hhands_Bass_DC_20515_0537.png,Bass_DC_20515-0537.png
B001267,202-224-5852,Washington,20510,2017/01/15/hm7plkf1c_Bennet_DC_20510.png,Bennet_DC_20510.png
B001257,202-225-5755,Washington,20515-0912,2017/01/15/5bxnk1xe18_Bilirakis_DC_20515_0912.png,Bilirakis_DC_20515-0912.png
B000490,202-225-3631,Washington,20515-1002,2017/01/15/75laftyz3s_Bishop_DC_20515_1002.png,Bishop_DC_20515-1002.png
B001243,202-225-2811,Washington,20515-4207,2017/01/15/3g44mip2w3_Blackburn_DC_20515_4207.png,Blackburn_DC_20515-4207.png
B000574,202-225-4811,Washington,20515-3703,2017/01/15/5a9nqe4lo4_Blumenauer_DC_20515_3703.png,Blumenauer_DC_20515-3703.png
B000575,202-224-5721,Washington,20510,2017/01/15/7wkaxn4uki_Blunt_DC_20510.png,Blunt_DC_20510.png
B001274,202-225-4801,Washington,20515-0105,2017/01/15/2xq4ap11m_Brooks_DC_20515_0105.png,Brooks_DC_20515-0105.png
B001275,202-225-4636,Washington,20515-1408,2017/01/15/63sczrf6an_Bucshon_DC_20515_1408.png,Bucshon_DC_20515-1408.png
B001248,202-225-7772,Washington,20515-4326,2017/01/15/2pkaawvs79_Burgess_DC_20515_4326.png,Burgess_DC_20515-4326.png
B001135,202-224-3154,Washington,20510,2017/01/15/8l9v9vg7xb_Burr_DC_20510.png,Burr_DC_20510.png
B001251,202-225-3101,Washington,20515-3301,2017/01/15/3nqlef5c9d_Butterfield_DC_20515_3301.png,Butterfield_DC_20515-3301.png
C001047,202-224-6472,Washington,20510,2017/01/15/7e9glr9v4c_Capito_DC_20510.png,Capito_DC_20510.png
C001037,202-225-5111,Washington,20515-2107,2017/01/15/xrszka4p8_Capuano_DC_20515_2107.png,Capuano_DC_20515-2107.png
C001072,202-225-4011,Washington,20515-1407,2017/01/15/6f6w11x2ty_Carson_DC_20515_1407.png,Carson_DC_20515-1407.png
C001075,202-224-5824,Washington,20510,2017/01/15/ahind28jg_Cassidy_DC_20510.png,Cassidy_DC_20510.png
C001066,202-225-3376,Washington,20515-0914,2017/01/15/2mc3s3orp1_Castor_DC_20515_0914.png,Castor_DC_20515-0914.png
C001076,202-225-7751,Washington,20515-4403,2017/01/15/w8ns2ijjw_Chaffetz_DC_20515_4403.png,Chaffetz_DC_20515-4403.png
C001080,202-225-5464,Washington,20515-0527,2017/01/15/2jnq091311_Chu_DC_20515_0527.png,Chu_DC_20515-0527.png
C001084,202-225-4911,Washington,20515-3901,2017/01/15/862ac58th_Cicilline_DC_20515_3901.png,Cicilline_DC_20515-3901.png
C001049,202-225-2406,Washington,20515-2501,2017/01/15/7mj3wbfxkl_Clay_DC_20515_2501.png,Clay_DC_20515-2501.png
C000537,202-225-3315,Washington,20515-4006,2017/01/15/1qlsyzjdb0_Clyburn_DC_20515_4006.png,Clyburn_DC_20515-4006.png
C001068,202-225-3265,Washington,20515-4209,2017/01/15/83msapa3qi_Cohen_DC_20515_4209.png,Cohen_DC_20515-4209.png
C001053,202-225-6165,Washington,20515-3604,2017/01/15/94r55qg0cb_Cole_DC_20515_3604.png,Cole_DC_20515-3604.png
C001062,202-225-3605,Washington,20515-4311,2017/01/15/8p9t72gmd_Conaway_DC_20515_4311.png,Conaway_DC_20515-4311.png
C000714,202-225-5126,Washington,20515-2213,2017/01/15/7n5ip72w99_Conyers_DC_20515_2213.png,Conyers_DC_20515-2213.png
C000754,202-225-4311,Washington,20515-4205,2017/01/15/4ps97poiiq_Cooper_DC_20515_4205.png,Cooper_DC_20515-4205.png
C001059,202-225-3341,Washington,20515-0516,2017/01/15/1jjrscqz8d_Costa_DC_20515_0516.png,Costa_DC_20515-0516.png
C000880,202-224-6142,Washington,20510,2017/01/15/es4jkjp17_Crapo_DC_20510.png,Crapo_DC_20510.png
C001087,202-225-4076,Washington,20515-0401,2017/01/15/7ovm263j5r_Crawford_DC_20515_0401.png,Crawford_DC_20515-0401.png
C001048,202-225-2571,Washington,20515-4307,2017/01/15/ot0thjomo_Culberson_DC_20515_4307.png,Culberson_DC_20515-4307.png
C000984,202-225-4741,Washington,20515-2007,2017/01/15/8a0e31xrb0_Cummings_DC_20515_2007.png,Cummings_DC_20515-2007.png
D000096,202-225-5006,Washington,20515-1307,2017/01/15/2heluu0foh_Davis_DC_20515_1307.png,Davis_DC_20515-1307.png
D000191,202-225-6416,Washington,20515-3704,2017/01/15/2l8dsxra8i_DeFazio_DC_20515_3704.png,DeFazio_DC_20515-3704.png
B001300,"",San Pedro,90731,2017/01/15/73ezb2mwds_Barrag_n_CA_90731.png,Barragán_CA_90731.png
B000755,936-441-5700,Conroe,77304,2017/01/15/3sfxfqqg56_Brady_TX_77304.png,Brady_TX_77304.png
D000216,202-225-3661,Washington,20515-0703,2017/01/15/8mq6igdd5b_DeLauro_DC_20515_0703.png,DeLauro_DC_20515-0703.png
D000604,202-225-6411,Washington,20515-3815,2017/01/15/6souksnacs_Dent_DC_20515_3815.png,Dent_DC_20515-3815.png
D000616,202-225-6831,Washington,20515-4204,2017/01/15/95j04ewj9c_DesJarlais_DC_20515_4204.png,DesJarlais_DC_20515-4204.png
D000610,202-225-9890,Washington,20515-0922,2017/01/15/5dh0pzg1uo_Deutch_DC_20515_0922.png,Deutch_DC_20515-0922.png
D000399,202-225-4865,Washington,20515-4335,2017/01/15/9dolgzos4w_Doggett_DC_20515_4335.png,Doggett_DC_20515-4335.png
D000607,202-224-4814,Washington,20510,2017/01/15/252kc4tvpn_Donnelly_DC_20510.png,Donnelly_DC_20510.png
D000482,202-225-2135,Washington,20515-3814,2017/01/15/8va1m1r3ts_Doyle_DC_20515_3814.png,Doyle_DC_20515-3814.png
D000615,202-225-5301,Washington,20515-4003,2017/01/15/2mh3mbao3q_Duncan_DC_20515_4003.png,Duncan_DC_20515-4003.png
D000533,202-225-5435,Washington,20515-4202,2017/01/15/8ok7rhnix1_Duncan_DC_20515_4202.png,Duncan_DC_20515-4202.png
E000288,202-225-4755,Washington,20515-2305,2017/01/15/5yhtr76ymn_Ellison_DC_20515_2305.png,Ellison_DC_20515-2305.png
E000215,202-225-8104,Washington,20515-0518,2017/01/15/749pe91cdo_Eshoo_DC_20515_0518.png,Eshoo_DC_20515-0518.png
F000460,202-225-7742,Washington,20515-4327,2017/01/15/2ahaf93wb6_Farenthold_DC_20515_4327.png,Farenthold_DC_20515-4327.png
F000444,202-224-4521,Washington,20510,2017/01/15/9hx1ae6n2k_Flake_DC_20510.png,Flake_DC_20510.png
F000449,202-225-4806,Washington,20515-2701,2017/01/15/46xq0snkr3_Fortenberry_DC_20515_2701.png,Fortenberry_DC_20515-2701.png
F000450,202-225-2071,Washington,20515-3305,2017/01/15/6oxvjv6rcw_Foxx_DC_20515_3305.png,Foxx_DC_20515-3305.png
F000461,202-225-6105,Washington,20515-4317,2017/01/15/dr1a9jj82_Flores_DC_20515_4317.png,Flores_DC_20515-4317.png
F000448,202-225-4576,Washington,20515-0308,2017/01/15/7v9j84047n_Franks_DC_20515_0308.png,Franks_DC_20515-0308.png
G000559,202-225-1880,Washington,20515-0503,2017/01/15/41uv3v9ahx_Garamendi_DC_20515_0503.png,Garamendi_DC_20515-0503.png
G000562,202-224-5941,Washington,20510,2017/01/15/99q9d2ttme_Gardner_DC_20510.png,Gardner_DC_20510.png
G000552,202-225-3035,Washington,20515-4301,2017/01/15/2dl475ahdw_Gohmert_DC_20515_4301.png,Gohmert_DC_20515-4301.png
G000289,202-225-5431,Washington,20515-4606,2017/01/15/37b7vdqgf6_Goodlatte_DC_20515_4606.png,Goodlatte_DC_20515-4606.png
G000565,202-225-2315,Washington,20515-0304,2017/01/15/1i39wmym02_Gosar_DC_20515_0304.png,Gosar_DC_20515-0304.png
G000377,202-225-5071,Washington,20515-4312,2017/01/15/9124ioofes_Granger_DC_20515_4312.png,Granger_DC_20515-4312.png
G000386,202-224-3744,Washington,20510,2017/01/15/3fem84clrw_Grassley_DC_20510.png,Grassley_DC_20510.png
G000546,202-225-7041,Washington,20515-2506,2017/01/15/62wgzcp2yx_Graves_DC_20515_2506.png,Graves_DC_20515-2506.png
G000553,202-225-7508,Washington,20515-4309,2017/01/15/12b0n6k68l_Green_DC_20515_4309.png,Green_DC_20515-4309.png
R000607,"",Naples,34112,2017/01/15/5wdmxi8xkg_Rooney_FL_34112.png,Rooney_FL_34112.png
G000568,202-225-3861,Washington,20515-4609,2017/01/15/9j31sqob55_Griffith_DC_20515_4609.png,Griffith_DC_20515-4609.png
G000558,202-225-3501,Washington,20515-1702,2017/01/15/5942q3ugb9_Guthrie_DC_20515_1702.png,Guthrie_DC_20515-1702.png
G000535,202-225-8203,Washington,20515-1304,2017/01/15/7rhj7jfi3n_Guti_rrez_DC_20515_1304.png,Gutiérrez_DC_20515-1304.png
H001045,202-225-5031,Washington,20515-2403,2017/01/15/5xvqszmfln_Harper_DC_20515_2403.png,Harper_DC_20515-2403.png
H001053,202-225-2876,Washington,20515-2504,2017/01/15/57l1klphji_Hartzler_DC_20515_2504.png,Hartzler_DC_20515-2504.png
H000324,202-225-1313,Washington,20515-0920,2017/01/15/5zilyxu9gn_Hastings_DC_20515_0920.png,Hastings_DC_20515-0920.png
H001046,202-224-5521,Washington,20510,2017/01/15/7lvl05or7n_Heinrich_DC_20510.png,Heinrich_DC_20510.png
H001056,202-225-3536,Washington,20515-4703,2017/01/15/40wruf3qg9_Herrera_Beutler_DC_20515_4703.png,Herrera Beutler_DC_20515-4703.png
H001038,202-225-3306,Washington,20515-3226,2017/01/15/3945mpl7a5_Higgins_DC_20515_3226.png,Higgins_DC_20515-3226.png
H001047,202-225-5541,Washington,20515-0704,2017/01/15/68cy2ezvbo_Himes_DC_20515_0704.png,Himes_DC_20515-0704.png
H001042,202-224-6361,Washington,20510,2017/01/15/9ho5s7dldc_Hirono_DC_20510.png,Hirono_DC_20510.png
H000874,202-225-4131,Washington,20515-2005,2017/01/15/6qu0ep6i6h_Hoyer_DC_20515_2005.png,Hoyer_DC_20515-2005.png
H001058,202-225-4401,Washington,20515-2202,2017/01/15/74ayv64bia_Huizenga_DC_20515_2202.png,Huizenga_DC_20515-2202.png
H001048,202-225-5672,Washington,20515-0550,2017/01/15/8lu7vfvw83_Hunter_DC_20515_0550.png,Hunter_DC_20515-0550.png
I000056,202-225-3906,Washington,20515-0549,2017/01/15/5rqaxvltn9_Issa_DC_20515_0549.png,Issa_DC_20515-0549.png
J000290,202-225-6601,Washington,20515-1602,2017/01/15/9sq453td82_Jenkins_DC_20515_1602.png,Jenkins_DC_20515-1602.png
J000292,202-225-5705,Washington,20515-3506,2017/01/15/20rlcazowk_Johnson_DC_20515_3506.png,Johnson_DC_20515-3506.png
J000126,202-225-8885,Washington,20515-4330,2017/01/15/4wfcpnkwtz_Johnson_DC_20515_4330.png,Johnson_DC_20515-4330.png
J000293,202-224-5323,Washington,20510,2017/01/15/3msaji9qqc_Johnson_DC_20510.png,Johnson_DC_20510.png
J000174,202-225-4201,Washington,20515-4303,2017/01/15/7ft2ieismv_Johnson_DC_20515_4303.png,Johnson_DC_20515-4303.png
J000255,202-225-3415,Washington,20515-3303,2017/01/15/nyegt50jf_Jones_DC_20515_3303.png,Jones_DC_20515-3303.png
K000009,202-225-4146,Washington,20515-3509,2017/01/15/5k4939htqk_Kaptur_DC_20515_3509.png,Kaptur_DC_20515-3509.png
K000376,202-225-5406,Washington,20515-3803,2017/01/15/6w991n93ce_Kelly_DC_20515_3803.png,Kelly_DC_20515-3803.png
K000210,202-225-7896,Washington,20515-3202,2017/01/15/7lvnjuuk6w_King_DC_20515_3202.png,King_DC_20515-3202.png
K000362,202-225-4426,Washington,20515-1504,2017/01/15/8e6laf9nwb_King_DC_20515_1504.png,King_DC_20515-1504.png
K000378,202-225-3635,Washington,20515-1316,2017/01/15/86s46cs5ag_Kinzinger_DC_20515_1316.png,Kinzinger_DC_20515-1316.png
L000564,202-225-4422,Washington,20515-0605,2017/01/15/7k0gs4w8xn_Lamborn_DC_20515_0605.png,Lamborn_DC_20515-0605.png
K000392,"",Dyersburg,38024,2017/01/15/36olus6ec8_Kustoff_TN_38024.png,Kustoff_TN_38024.png
L000575,202-224-5754,Washington,20510,2017/01/15/8fi686mthy_Lankford_DC_20510.png,Lankford_DC_20510.png
L000560,202-225-2605,Washington,20515-4702,2017/01/15/3g53njd728_Larsen_DC_20515_4702.png,Larsen_DC_20515-4702.png
L000557,202-225-2265,Washington,20515-0701,2017/01/15/90u8t15ji0_Larson_DC_20515_0701.png,Larson_DC_20515-0701.png
L000566,202-225-6405,Washington,20515-3505,2017/01/15/3tpmb3vao7_Latta_DC_20515_3505.png,Latta_DC_20515-3505.png
L000263,202-225-4961,Washington,20515-2209,2017/01/15/8tkhnv1h0u_Levin_DC_20515_2209.png,Levin_DC_20515-2209.png
L000559,202-225-2735,Washington,20515-3902,2017/01/15/15ej11i2vw_Langevin_DC_20515_3902.png,Langevin_DC_20515-3902.png
L000174,202-224-4242,Washington,20510,2017/01/15/6in990a1xn_Leahy_DC_20510.png,Leahy_DC_20510.png
L000577,202-224-5444,Washington,20510,2017/01/15/7khiwy6dsw_Lee_DC_20510.png,Lee_DC_20510.png
L000287,202-225-3801,Washington,20515-1005,2017/01/15/3298ztsz79_Lewis_DC_20515_1005.png,Lewis_DC_20515-1005.png
L000554,202-225-6572,Washington,20515-3002,2017/01/15/90phxfd5st_LoBiondo_DC_20515_3002.png,LoBiondo_DC_20515-3002.png
L000565,202-225-6576,Washington,20515-1502,2017/01/15/8yp9jgwl9g_Loebsack_DC_20515_1502.png,Loebsack_DC_20515-1502.png
L000397,202-225-3072,Washington,20515-0519,2017/01/15/5uoexxkxbx_Lofgren_DC_20515_0519.png,Lofgren_DC_20515-0519.png
L000480,202-225-6506,Washington,20515-3217,2017/01/15/4alhv0t9tg_Lowey_DC_20515_3217.png,Lowey_DC_20515-3217.png
L000491,202-225-5565,Washington,20515-3603,2017/01/15/msia26qmt_Lucas_DC_20515_3603.png,Lucas_DC_20515-3603.png
M001163,202-225-7163,Washington,20515-0506,2017/01/15/97nbso5is4_Matsui_DC_20515_0506.png,Matsui_DC_20515-0506.png
L000562,202-225-8273,Washington,20515-2108,2017/01/15/1xb6zf7bfn_Lynch_DC_20515_2108.png,Lynch_DC_20515-2108.png
M000087,202-225-7944,Washington,20515-3212,2017/01/15/1bnapp8ia7_Maloney_DC_20515_3212.png,Maloney_DC_20515-3212.png
M001158,202-225-6605,Washington,20515-4324,2017/01/15/2s92xb831a_Marchant_DC_20515_4324.png,Marchant_DC_20515-4324.png
M000133,202-224-2742,Washington,20510,2017/01/15/6ku3ziovg4_Markey_DC_20510.png,Markey_DC_20510.png
M000303,202-224-2235,Washington,20510,2017/01/15/uffna5fi_McCain_DC_20510.png,McCain_DC_20510.png
M001157,202-225-2401,Washington,20515-4310,2017/01/15/1kjobpyc9n_McCaul_DC_20515_4310.png,McCaul_DC_20515-4310.png
M001177,202-225-2511,Washington,20515-0504,2017/01/15/6l39ffk886_McClintock_DC_20515_0504.png,McClintock_DC_20515-0504.png
M001143,202-225-6631,Washington,20515-2304,2017/01/15/23yyjks52p_McCollum_DC_20515_2304.png,McCollum_DC_20515-2304.png
M001156,202-225-2576,Washington,20515-3310,2017/01/15/6akf68gct0_McHenry_DC_20515_3310.png,McHenry_DC_20515-3310.png
M001180,202-225-4172,Washington,20515-4801,2017/01/15/8mipk4og7s_McKinley_DC_20515_4801.png,McKinley_DC_20515-4801.png
M001159,202-225-2006,Washington,20515-4705,2017/01/15/8bnsf30ze9_McMorris_Rodgers_DC_20515_4705.png,McMorris Rodgers_DC_20515-4705.png
M001181,202-225-2011,Washington,20515-3807,2017/01/15/6sor48teu6_Meehan_DC_20515_3807.png,Meehan_DC_20515-3807.png
M001137,202-225-3461,Washington,20515-3205,2017/01/15/3jlbl36bbm_Meeks_DC_20515_3205.png,Meeks_DC_20515-3205.png
M001182,202-225-5501,Washington,20515-4005,2017/01/15/5sjxd35ybf_Mulvaney_DC_20515_4005.png,Mulvaney_DC_20515-4005.png
M001153,202-224-6665,Washington,20510,2017/01/15/629bb78jx_Murkowski_DC_20510.png,Murkowski_DC_20510.png
M001169,202-224-4041,Washington,20510,2017/01/15/q7sph0z2q_Murphy_DC_20510.png,Murphy_DC_20510.png
M001111,202-224-2621,Washington,20510,2017/01/15/9f81njwh1r_Murray_DC_20510.png,Murray_DC_20510.png
N000002,202-225-5635,Washington,20515-3210,2017/01/15/2xtfgb2tj2_Nadler_DC_20515_3210.png,Nadler_DC_20515-3210.png
N000179,202-225-5256,Washington,20515-0532,2017/01/15/1t3taerzz6_Napolitano_DC_20515_0532.png,Napolitano_DC_20515-0532.png
N000184,202-225-2801,Washington,20515-4100,2017/01/15/3tege6juti_Noem_DC_20515_4100.png,Noem_DC_20515-4100.png
N000147,202-225-8050,Washington,20515-5101,2017/01/15/3y73i4hyae_Norton_DC_20515_5101.png,Norton_DC_20515-5101.png
N000181,202-225-2523,Washington,20515-0522,2017/01/15/67vckep250_Nunes_DC_20515_0522.png,Nunes_DC_20515-0522.png
P000601,202-225-5772,Washington,20515-2404,2017/01/15/49yyzejxpi_Palazzo_DC_20515_2404.png,Palazzo_DC_20515-2404.png
P000034,202-225-4671,Washington,20515-3006,2017/01/15/ti933uwfe_Pallone_DC_20515_3006.png,Pallone_DC_20515-3006.png
P000096,202-225-5751,Washington,20515-3009,2017/01/15/2b2wimmfgj_Pascrell_DC_20515_3009.png,Pascrell_DC_20515-3009.png
P000594,202-225-2871,Washington,20515-2303,2017/01/15/79w30o04nr_Paulsen_DC_20515_2303.png,Paulsen_DC_20515-2303.png
P000588,202-225-2365,Washington,20515-3102,2017/01/15/8mc932suij_Pearce_DC_20515_3102.png,Pearce_DC_20515-3102.png
P000592,202-225-6565,Washington,20515-4302,2017/01/15/2rtmzaozth_Poe_DC_20515_4302.png,Poe_DC_20515-4302.png
P000598,202-225-2161,Washington,20515-0602,2017/01/15/8njklaal5t_Polis_DC_20515_0602.png,Polis_DC_20515-0602.png
P000602,202-225-6216,Washington,20515-1604,2017/01/15/1ubkandsz_Pompeo_DC_20515_1604.png,Pompeo_DC_20515-1604.png
P000595,202-224-6221,Washington,20510,2017/01/15/1hei47frdq_Peters_DC_20510.png,Peters_DC_20510.png
P000258,202-225-2165,Washington,20515-2307,2017/01/15/3x6j42s1kl_Peterson_DC_20515_2307.png,Peterson_DC_20515-2307.png
P000597,202-225-6116,Washington,20515-1901,2017/01/15/6opf6o5ffa_Pingree_DC_20515_1901.png,Pingree_DC_20515-1901.png
P000449,202-224-3353,Washington,20510,2017/01/15/7remzcasxa_Portman_DC_20510.png,Portman_DC_20510.png
P000599,202-225-3671,Washington,20515-0908,2017/01/15/94jrjbizfj_Posey_DC_20515_0908.png,Posey_DC_20515-0908.png
P000591,202-225-4501,Washington,20515-1006,2017/01/15/6rxmnc3g9r_Price_DC_20515_1006.png,Price_DC_20515-1006.png
Q000023,202-225-4061,Washington,20515-1305,2017/01/15/7tr8k4owa0_Quigley_DC_20515_1305.png,Quigley_DC_20515-1305.png
R000585,202-225-3161,Washington,20515-3223,2017/01/15/6tz6tqjjzn_Reed_DC_20515_3223.png,Reed_DC_20515-3223.png
R000578,202-225-7761,Washington,20515-4708,2017/01/15/7w9jnhd6vr_Reichert_DC_20515_4708.png,Reichert_DC_20515-4708.png
R000588,202-225-6636,Washington,20515-1802,2017/01/15/8vke3couzu_Richmond_DC_20515_1802.png,Richmond_DC_20515-1802.png
R000591,202-225-2901,Washington,20515-0102,2017/01/15/2vpjsz9spj_Roby_DC_20515_0102.png,Roby_DC_20515-0102.png
R000575,202-225-3261,Washington,20515-0103,2017/01/15/1z1psc8ce1_Rogers_DC_20515_0103.png,Rogers_DC_20515-0103.png
R000409,202-225-2415,Washington,20515-0548,2017/01/15/3sz0e1meps_Rohrabacher_DC_20515_0548.png,Rohrabacher_DC_20515-0548.png
R000583,202-225-5792,Washington,20515-0917,2017/01/15/70zytqkhbt_Rooney_DC_20515_0917.png,Rooney_DC_20515-0917.png
R000435,202-225-3931,Washington,20515-0927,2017/01/15/5d3qo5fjtw_Ros_Lehtinen_DC_20515_0927.png,Ros-Lehtinen_DC_20515-0927.png
R000580,202-225-4561,Washington,20515-1306,2017/01/15/7pnj4nq6ub_Roskam_DC_20515_1306.png,Roskam_DC_20515-1306.png
R000486,202-225-1766,Washington,20515-0540,2017/01/15/7e3ky5t37v_Roybal_Allard_DC_20515_0540.png,Roybal-Allard_DC_20515-0540.png
R000487,202-225-4111,Washington,20515-0539,2017/01/15/1eyoisr9cd_Royce_DC_20515_0539.png,Royce_DC_20515-0539.png
R000595,202-224-3041,Washington,20510,2017/01/15/8ugxec6l2t_Rubio_DC_20510.png,Rubio_DC_20510.png
R000515,202-225-4372,Washington,20515-1301,2017/01/15/7e5xlcwool_Rush_DC_20515_1301.png,Rush_DC_20515-1301.png
R000570,202-225-3031,Washington,20515-4901,2017/01/15/45xnhidl08_Ryan_DC_20515_4901.png,Ryan_DC_20515-4901.png
R000577,202-225-5261,Washington,20515-3513,2017/01/15/4hylitmkls_Ryan_DC_20515_3513.png,Ryan_DC_20515-3513.png
S001168,202-225-4016,Washington,20515-2003,2017/01/15/55kg1tt16k_Sarbanes_DC_20515_2003.png,Sarbanes_DC_20515-2003.png
S001176,202-225-3015,Washington,20515-1801,2017/01/15/18tukejx3p_Scalise_DC_20515_1801.png,Scalise_DC_20515-1801.png
S001145,202-225-2111,Washington,20515-1309,2017/01/15/7rtq4iopui_Schakowsky_DC_20515_1309.png,Schakowsky_DC_20515-1309.png
S000148,202-224-6542,Washington,20510,2017/01/15/6lbxt14axk_Schumer_DC_20510.png,Schumer_DC_20510.png
S001183,202-225-2190,Washington,20515-0306,2017/01/15/206a5k0sty_Schweikert_DC_20515_0306.png,Schweikert_DC_20515-0306.png
S001157,202-225-2939,Washington,20515-1013,2017/01/15/44ecrxj845_Scott_DC_20515_1013.png,Scott_DC_20515-1013.png
S000185,202-225-8351,Washington,20515-4603,2017/01/15/9s8o8ui5j8_Scott_DC_20515_4603.png,Scott_DC_20515-4603.png
S001184,202-224-6121,Washington,20510,2017/01/15/70h03mb5cg_Scott_DC_20510.png,Scott_DC_20510.png
S000244,202-225-5101,Washington,20515-4905,2017/01/15/ciq1vqcri_Sensenbrenner_DC_20515_4905.png,Sensenbrenner_DC_20515-4905.png
S000250,202-225-2231,Washington,20515-4332,2017/01/15/6x5575kz5r_Sessions_DC_20515_4332.png,Sessions_DC_20515-4332.png
S001185,202-225-2665,Washington,20515-0107,2017/01/15/1xqzt63r2a_Sewell_DC_20515_0107.png,Sewell_DC_20515-0107.png
S000344,202-225-5911,Washington,20515-0530,2017/01/15/8y4lmlxys3_Sherman_DC_20515_0530.png,Sherman_DC_20515-0530.png
S000364,202-225-5271,Washington,20515-1315,2017/01/15/leby61xoy_Shimkus_DC_20515_1315.png,Shimkus_DC_20515-1315.png
S001154,202-225-2431,Washington,20515-3809,2017/01/15/q9dnclkmd_Shuster_DC_20515_3809.png,Shuster_DC_20515-3809.png
S001165,202-225-7919,Washington,20515-3008,2017/01/15/3w0ul6pz71_Sires_DC_20515_3008.png,Sires_DC_20515-3008.png
S000480,202-225-3615,Washington,20515-3225,2017/01/15/9aesru8z4p_Slaughter_DC_20515_3225.png,Slaughter_DC_20515-3225.png
S000510,202-225-8901,Washington,20515-4709,2017/01/15/317eguaq1k_Smith_DC_20515_4709.png,Smith_DC_20515-4709.png
T000467,202-225-5121,Washington,20515-3805,2017/01/15/4xhw6pdiyq_Thompson_DC_20515_3805.png,Thompson_DC_20515-3805.png
T000238,202-225-3706,Washington,20515-4313,2017/01/15/5hqvfhfq08_Thornberry_DC_20515_4313.png,Thornberry_DC_20515-4313.png
T000250,202-224-2321,Washington,20510,2017/01/15/2uj6nrb83v_Thune_DC_20510.png,Thune_DC_20510.png
T000462,202-225-5355,Washington,20515-3512,2017/01/15/1h6jjz8zmv_Tiberi_DC_20515_3512.png,Tiberi_DC_20515-3512.png
T000465,202-225-3411,Washington,20515-2103,2017/01/15/7szeer85wr_Tsongas_DC_20515_2103.png,Tsongas_DC_20515-2103.png
S000583,202-225-4236,Washington,20515-4321,2017/01/15/67ezuimbir_Smith_DC_20515_4321.png,Smith_DC_20515-4321.png
S001175,202-225-3531,Washington,20515-0514,2017/01/15/4dsc06b077_Speier_DC_20515_0514.png,Speier_DC_20515-0514.png
S001156,202-225-6676,Washington,20515-0538,2017/01/15/2kimfpqsk9_S_nchez_DC_20515_0538.png,Sánchez_DC_20515-0538.png
T000193,202-225-5876,Washington,20515-2402,2017/01/15/4b295co2o_Thompson_DC_20515_2402.png,Thompson_DC_20515-2402.png
T000460,202-225-3311,Washington,20515-0505,2017/01/15/79k3ccnmuf_Thompson_DC_20515_0505.png,Thompson_DC_20515-0505.png
T000470,202-225-4761,Washington,20515-0603,2017/01/15/8wtiwznndf_Tipton_DC_20515_0603.png,Tipton_DC_20515-0603.png
T000461,202-224-4254,Washington,20510,2017/01/15/2uj90ljeb1_Toomey_DC_20510.png,Toomey_DC_20510.png
T000463,202-225-6465,Washington,20515-3510,2017/01/15/5hnlssn4uv_Turner_DC_20515_3510.png,Turner_DC_20515-3510.png
U000031,202-225-3761,Washington,20515-2206,2017/01/15/50wb6jcyy1_Upton_DC_20515_2206.png,Upton_DC_20515-2206.png
V000108,202-225-2461,Washington,20515-1401,2017/01/15/606jb0m7b_Visclosky_DC_20515_1401.png,Visclosky_DC_20515-1401.png
W000791,202-225-6730,Washington,20515-3702,2017/01/15/2j1v6yxvik_Walden_DC_20515_3702.png,Walden_DC_20515-3702.png
W000799,202-225-2472,Washington,20515-2301,2017/01/15/56te7lqk9a_Walz_DC_20515_2301.png,Walz_DC_20515-2301.png
W000797,202-225-7931,Washington,20515-0923,2017/01/15/1efa1i3892_Wasserman_Schultz_DC_20515_0923.png,Wasserman Schultz_DC_20515-0923.png
W000806,202-225-1002,Washington,20515-0911,2017/01/15/3gqmzubeuk_Webster_DC_20515_0911.png,Webster_DC_20515-0911.png
W000800,202-225-4115,Washington,20515-4500,2017/01/15/2n6t5vtoq8_Welch_DC_20515_4500.png,Welch_DC_20515-4500.png
W000795,202-225-2452,Washington,20515-4002,2017/01/15/7mioo87h5l_Wilson_DC_20515_4002.png,Wilson_DC_20515-4002.png
W000804,202-225-4261,Washington,20515-4601,2017/01/15/8tynhp1zkf_Wittman_DC_20515_4601.png,Wittman_DC_20515-4601.png
W000809,202-225-4301,Washington,20515-0403,2017/01/15/9t9wb4degv_Womack_DC_20515_0403.png,Womack_DC_20515-0403.png
W000810,202-225-4272,Washington,20515-1007,2017/01/15/okvoj65iy_Woodall_DC_20515_1007.png,Woodall_DC_20515-1007.png
Y000062,202-225-5401,Washington,20515-1703,2017/01/15/1eab7p7txy_Yarmuth_DC_20515_1703.png,Yarmuth_DC_20515-1703.png
Y000063,202-225-2865,Washington,20515-1603,2017/01/15/3l4h2mqceb_Yoder_DC_20515_1603.png,Yoder_DC_20515-1603.png
Y000033,202-225-5765,Washington,20515-0200,2017/01/15/3q8dpavxyr_Young_DC_20515_0200.png,Young_DC_20515-0200.png
H001041,202-224-6244,Washington,20510,2017/01/15/7g0y9037h6_Heller_DC_20510.png,Heller_DC_20510.png
D000617,202-225-6311,Washington,20515-4701,2017/01/15/69vfsohjbn_DelBene_DC_20515_4701.png,DelBene_DC_20515-4701.png
M001184,202-225-3465,Washington,20515-1704,2017/01/15/6vwm6yhy4g_Massie_DC_20515_1704.png,Massie_DC_20515-1704.png
P000604,202-225-3436,Washington,20515-3010,2017/01/15/924atcbl5x_Payne_DC_20515_3010.png,Payne_DC_20515-3010.png
F000454,202-225-3515,Washington,20515-1311,2017/01/15/14qwl783bw_Foster_DC_20515_1311.png,Foster_DC_20515-1311.png
T000468,202-225-5965,Washington,20515-2801,2017/01/15/42vmdy6ude_Titus_DC_20515_2801.png,Titus_DC_20515-2801.png
C001095,202-224-2353,Washington,20510,2017/01/15/313gbcr7wn_Cotton_DC_20510.png,Cotton_DC_20510.png
L000578,202-225-3076,Washington,20515-0501,2017/01/15/21r2tk04q3_LaMalfa_DC_20515_0501.png,LaMalfa_DC_20515-0501.png
H001068,202-225-5161,Washington,20515-0502,2017/01/15/8lnqhon0us_Huffman_DC_20515_0502.png,Huffman_DC_20515-0502.png
B001287,202-225-5716,Washington,20515-0507,2017/01/15/690a2um6o7_Bera_DC_20515_0507.png,Bera_DC_20515-0507.png
S001193,202-225-5065,Washington,20515-0515,2017/01/15/5xrmwccjf1_Swalwell_DC_20515_0515.png,Swalwell_DC_20515-0515.png
V000129,202-225-4695,Washington,20515-0521,2017/01/15/3gnk5ol12e_Valadao_DC_20515_0521.png,Valadao_DC_20515-0521.png
B001285,202-225-5811,Washington,20515-0526,2017/01/15/6m0ij5cg1q_Brownley_DC_20515_0526.png,Brownley_DC_20515-0526.png
R000599,202-225-5330,Washington,20515-0536,2017/01/15/82r6mygyar_Ruiz_DC_20515_0536.png,Ruiz_DC_20515-0536.png
T000472,202-225-2305,Washington,20515-0541,2017/01/15/4iwk1erblv_Takano_DC_20515_0541.png,Takano_DC_20515-0541.png
D000619,202-225-2371,Washington,20515-1313,2017/01/15/qm9s5vpzs_Davis_DC_20515_1313.png,Davis_DC_20515-1313.png
B001286,202-225-5905,Washington,20515-1317,2017/01/15/4lgkpl12q1_Bustos_DC_20515_1317.png,Bustos_DC_20515-1317.png
W000813,202-225-3915,Washington,20515-1402,2017/01/15/7em9nitowa_Walorski_DC_20515_1402.png,Walorski_DC_20515-1402.png
K000379,202-225-5931,Washington,20515-2104,2017/01/15/76a8voezwt_Kennedy_DC_20515_2104.png,Kennedy_DC_20515-2104.png
P000608,202-225-0508,Washington,20515-0552,2017/01/15/2c2zuw7bfk_Peters_DC_20515_0552.png,Peters_DC_20515-0552.png
E000293,202-225-4476,Washington,20515-0705,2017/01/15/49s9rccfsg_Esty_DC_20515_0705.png,Esty_DC_20515-0705.png
Y000065,202-225-5744,Washington,20515-0903,2017/01/15/30110uclgm_Yoho_DC_20515_0903.png,Yoho_DC_20515-0903.png
F000462,202-225-3001,Washington,20515-0921,2017/01/15/39ysfoq9np_Frankel_DC_20515_0921.png,Frankel_DC_20515-0921.png
C001093,202-225-9893,Washington,20515-1009,2017/01/15/40nks54tpz_Collins_DC_20515_1009.png,Collins_DC_20515-1009.png
G000571,202-225-4906,Washington,20515-1102,2017/01/15/8jjifbb7so_Gabbard_DC_20515_1102.png,Gabbard_DC_20515-1102.png
D000622,202-224-2854,Washington,20510,2017/01/15/94veagy2o7_Duckworth_DC_20510.png,Duckworth_DC_20510.png
B001284,202-225-2276,Washington,20515-1405,2017/01/15/7da5demhp2_Brooks_DC_20515_1405.png,Brooks_DC_20515-1405.png
M001189,202-225-3021,Washington,20515-1406,2017/01/15/78vt1xuol9_Messer_DC_20515_1406.png,Messer_DC_20515-1406.png
W000817,202-224-4543,Washington,20510,2017/01/15/9s8fjdx3dp_Warren_DC_20510.png,Warren_DC_20510.png
C001096,202-225-2611,Washington,20515-3400,2017/01/15/94vv94hs6z_Cramer_DC_20515_3400.png,Cramer_DC_20515-3400.png
K000383,202-224-5344,Washington,20510,2017/01/15/4796wiahs3_King_DC_20510.png,King_DC_20510.png
N000127,202-225-6211,Washington,20515-2308,2017/01/15/12j4g6d3g_Nolan_DC_20515_2308.png,Nolan_DC_20515-2308.png
W000812,202-225-1621,Washington,20515-2502,2017/01/15/5uwqgpn9g1_Wagner_DC_20515_2502.png,Wagner_DC_20515-2502.png
H001067,202-225-3715,Washington,20515-3308,2017/01/15/4upvjyiwnq_Hudson_DC_20515_3308.png,Hudson_DC_20515-3308.png
P000606,202-225-1976,Washington,20515-3309,2017/01/15/46m4zsmjxt_Pittenger_DC_20515_3309.png,Pittenger_DC_20515-3309.png
M001187,202-225-6401,Washington,20515-3311,2017/01/15/8y31857dni_Meadows_DC_20515_3311.png,Meadows_DC_20515-3311.png
H001069,202-224-2043,Washington,20510,2017/01/15/6e97tqq4s9_Heitkamp_DC_20510.png,Heitkamp_DC_20510.png
F000463,202-224-6551,Washington,20510,2017/01/15/73lcymxn6p_Fischer_DC_20510.png,Fischer_DC_20510.png
L000580,202-225-6316,Washington,20515-3101,2017/01/15/43hg1yksr9_Lujan_Grisham_DC_20515_3101.png,Lujan Grisham_DC_20515-3101.png
M001188,202-225-2601,Washington,20515-3206,2017/01/15/4f8l65s40g_Meng_DC_20515_3206.png,Meng_DC_20515-3206.png
J000294,202-225-5936,Washington,20515-3208,2017/01/15/6y6mnuz8wn_Jeffries_DC_20515_3208.png,Jeffries_DC_20515-3208.png
C001092,202-225-5265,Washington,20515-3227,2017/01/15/2awgn9j9p0_Collins_DC_20515_3227.png,Collins_DC_20515-3227.png
W000815,202-225-3164,Washington,20515-3502,2017/01/15/4fu03osjac_Wenstrup_DC_20515_3502.png,Wenstrup_DC_20515-3502.png
B001283,202-225-2211,Washington,20515-3601,2017/01/15/8z3j2770jv_Bridenstine_DC_20515_3601.png,Bridenstine_DC_20515-3601.png
M001190,202-225-2701,Washington,20515-3602,2017/01/15/3jdyjkemol_Mullin_DC_20515_3602.png,Mullin_DC_20515-3602.png
R000598,202-225-2065,Washington,20515-3812,2017/01/15/7zy51xscri_Rothfus_DC_20515_3812.png,Rothfus_DC_20515-3812.png
C001090,202-225-5546,Washington,20515-3817,2017/01/15/4z4z1ki4ym_Cartwright_DC_20515_3817.png,Cartwright_DC_20515-3817.png
R000597,202-225-9895,Washington,20515-4007,2017/01/15/2fr2dr5trt_Rice_DC_20515_4007.png,Rice_DC_20515-4007.png
C001098,202-224-5922,Washington,20510,2017/01/15/2k7wcjtpt5_Cruz_DC_20510.png,Cruz_DC_20510.png
O000170,202-225-4831,Washington,20515-4316,2017/01/15/61z5shd7bj_O_Rourke_DC_20515_4316.png,O'Rourke_DC_20515-4316.png
C001091,202-225-3236,Washington,20515-4320,2017/01/15/75r5zma7d0_Castro_DC_20515_4320.png,Castro_DC_20515-4320.png
V000131,202-225-9897,Washington,20515-4333,2017/01/15/61wsznsulv_Veasey_DC_20515_4333.png,Veasey_DC_20515-4333.png
V000132,202-225-9901,Washington,20515-4334,2017/01/15/6kuik1sipn_Vela_DC_20515_4334.png,Vela_DC_20515-4334.png
S001192,202-225-9730,Washington,20515-4402,2017/01/15/2uoc4qwvx7_Stewart_DC_20515_4402.png,Stewart_DC_20515-4402.png
K000384,202-224-4024,Washington,20510,2017/01/15/9s3pmxmvqa_Kaine_DC_20510.png,Kaine_DC_20510.png
H001064,202-225-9740,Washington,20515-4710,2017/01/15/9mr5boltcz_Heck_DC_20515_4710.png,Heck_DC_20515-4710.png
P000607,202-225-2906,Washington,20515-4902,2017/01/15/8u5q9t68vj_Pocan_DC_20515_4902.png,Pocan_DC_20515-4902.png
M001197,202-225-2542,Washington,20515-0302,2017/01/15/2ivy09rhv4_McSally_DC_20515_0302.png,McSally_DC_20515-0302.png
G000574,202-225-4065,Washington,20515-0307,2017/01/15/8gprxbmto4_Gallego_DC_20515_0307.png,Gallego_DC_20515-0307.png
D000623,202-225-2095,Washington,20515-0511,2017/01/15/e6vrzkdur_DeSaulnier_DC_20515_0511.png,DeSaulnier_DC_20515-0511.png
S001195,202-225-4404,Washington,20515-2508,2017/01/15/602vopfw26_Smith_DC_20515_2508.png,Smith_DC_20515-2508.png
B001288,202-224-3224,Washington,20510,2017/01/15/5a8kvvxyyo_Booker_DC_20510.png,Booker_DC_20510.png
B001289,202-225-4931,Washington,20515-0101,2017/01/15/4r3ex9gbzd_Byrne_DC_20515_0101.png,Byrne_DC_20515-0101.png
B001290,202-225-2815,Washington,20515-4607,2017/01/15/3owx5yc2ed_Brat_DC_20515_4607.png,Brat_DC_20515-4607.png
N000188,202-225-6501,Washington,20515-3001,2017/01/15/1c0pb4o0mk_Norcross_DC_20515_3001.png,Norcross_DC_20515-3001.png
P000609,202-225-4921,Washington,20515-0106,2017/01/15/msursfqel_Palmer_DC_20515_0106.png,Palmer_DC_20515-0106.png
H001072,202-225-2506,Washington,20515-0402,2017/01/15/6nvs3hv6a6_Hill_DC_20515_0402.png,Hill_DC_20515-0402.png
W000821,202-225-3772,Washington,20515-0404,2017/01/15/6duwb64z1e_Westerman_DC_20515_0404.png,Westerman_DC_20515-0404.png
K000387,202-225-1956,Washington,20515-0525,2017/01/15/9i3c0s5ot8_Knight_DC_20515_0525.png,Knight_DC_20515-0525.png
A000371,202-225-3201,Washington,20515-0531,2017/01/15/5c8xfxt5pq_Aguilar_DC_20515_0531.png,Aguilar_DC_20515-0531.png
T000474,202-225-6161,Washington,20515-0535,2017/01/15/2k8lto3dem_Torres_DC_20515_0535.png,Torres_DC_20515-0535.png
H001071,202-225-4101,Washington,20515-1010,2017/01/15/2m10dx3lqy_Hice_DC_20515_1010.png,Hice_DC_20515-1010.png
M001196,202-225-8020,Washington,20515-2106,2017/01/15/5bb6ldvw6x_Moulton_DC_20515_2106.png,Moulton_DC_20515-2106.png
B001297,202-225-4676,Washington,20515-0604,2017/01/15/5t5haub1l8_Buck_DC_20515_0604.png,Buck_DC_20515-0604.png
C001103,202-225-5831,Washington,20515-1001,2017/01/15/sttdbstuv_Carter_DC_20515_1001.png,Carter_DC_20515-1001.png
L000583,202-225-2931,Washington,20515-1011,2017/01/15/8ktg34uwk3_Loudermilk_DC_20515_1011.png,Loudermilk_DC_20515-1011.png
B001294,202-225-2911,Washington,20515-1501,2017/01/15/7y6vaqzthe_Blum_DC_20515_1501.png,Blum_DC_20515-1501.png
Y000066,202-225-5476,Washington,20515-1503,2017/01/15/6rnz9lcqqv_Young_DC_20515_1503.png,Young_DC_20515-1503.png
B001295,202-225-5661,Washington,20515-1312,2017/01/15/4tqk1w8m5s_Bost_DC_20515_1312.png,Bost_DC_20515-1312.png
G000577,202-225-3901,Washington,20515-1806,2017/01/15/xkn22p7sg_Graves_DC_20515_1806.png,Graves_DC_20515-1806.png
P000611,202-225-6306,Washington,20515-1902,2017/01/15/75zsgos4we_Poliquin_DC_20515_1902.png,Poliquin_DC_20515-1902.png
M001194,202-225-3561,Washington,20515-2204,2017/01/15/7l3kiri996_Moolenaar_DC_20515_2204.png,Moolenaar_DC_20515-2204.png
T000475,202-225-8171,Washington,20515-2211,2017/01/15/8663ih1pnz_Trott_DC_20515_2211.png,Trott_DC_20515-2211.png
D000624,202-225-4071,Washington,20515-2212,2017/01/15/330z25jhty_Dingell_DC_20515_2212.png,Dingell_DC_20515-2212.png
L000581,202-225-5802,Washington,20515-2214,2017/01/15/4ltvz8338z_Lawrence_DC_20515_2214.png,Lawrence_DC_20515-2214.png
Z000017,202-225-3826,Washington,20515-3201,2017/01/15/3kqnhhneqb_Zeldin_DC_20515_3201.png,Zeldin_DC_20515-3201.png
R000603,202-225-2731,Washington,20515-3307,2017/01/15/3kaymtnzf2_Rouzer_DC_20515_3307.png,Rouzer_DC_20515-3307.png
W000822,202-225-5801,Washington,20515-3012,2017/01/15/23j9i6s2lx_Watson_Coleman_DC_20515_3012.png,Watson Coleman_DC_20515-3012.png
R000602,202-225-5516,Washington,20515-3204,2017/01/15/77191rfzjv_Rice_DC_20515_3204.png,Rice_DC_20515-3204.png
K000386,202-225-3701,Washington,20515-3224,2017/01/15/hu2eyfw86_Katko_DC_20515_3224.png,Katko_DC_20515-3224.png
R000604,202-225-2132,Washington,20515-3605,2017/01/15/7vyfp84zi1_Russell_DC_20515_3605.png,Russell_DC_20515-3605.png
C001106,202-225-4315,Washington,20515-3806,2017/01/15/4pcu593uvf_Costello_DC_20515_3806.png,Costello_DC_20515-3806.png
R000601,202-225-6673,Washington,20515-4304,2017/01/15/7u6rvbpsnh_Ratcliffe_DC_20515_4304.png,Ratcliffe_DC_20515-4304.png
H001073,202-225-4511,Washington,20515-4323,2017/01/15/4t0hegvaft_Hurd_DC_20515_4323.png,Hurd_DC_20515-4323.png
B001291,202-225-1555,Washington,20515-4336,2017/01/15/22ul2lnzwn_Babin_DC_20515_4336.png,Babin_DC_20515-4336.png
B001292,202-225-4376,Washington,20515-4608,2017/01/15/1zkzfzxxbm_Beyer_DC_20515_4608.png,Beyer_DC_20515-4608.png
C001105,202-225-5136,Washington,20515-4610,2017/01/15/524r5hncgk_Comstock_DC_20515_4610.png,Comstock_DC_20515-4610.png
P000610,202-225-1790,Washington,20515-5500,2017/01/15/2kxcpauu6c_Plaskett_DC_20515_5500.png,Plaskett_DC_20515-5500.png
G000576,202-225-2476,Washington,20515-4906,2017/01/15/2tdakpr4nl_Grothman_DC_20515_4906.png,Grothman_DC_20515-4906.png
H001050,202-225-2726,Washington,20515-1101,2017/01/15/q1c696feb_Hanabusa_DC_20515_1101.png,Hanabusa_DC_20515-1101.png
C001108,202-225-3115,Washington,20515-1701,2017/01/15/8vge2n0t3x_Comer_DC_20515_1701.png,Comer_DC_20515-1701.png
E000296,202-225-4001,Washington,20515-3802,2017/01/15/1sot2lk0dm_Evans_DC_20515_3802.png,Evans_DC_20515-3802.png
J000297,202-225-3452,Washington,20515-4803,2017/01/15/4fmb17yqht_Jenkins_DC_20515_4803.png,Jenkins_DC_20515-4803.png
S001198,202-224-3004,Washington,20510,2017/01/15/2jqr6skkjd_Sullivan_DC_20510.png,Sullivan_DC_20510.png
P000612,202-224-3521,Washington,20510,2017/01/15/adke2kgmx_Perdue_DC_20510.png,Perdue_DC_20510.png
E000295,202-224-3254,Washington,20510,2017/01/15/z2jgq3nqp_Ernst_DC_20510.png,Ernst_DC_20510.png
R000605,202-224-5842,Washington,20510,2017/01/15/9ix9g82lho_Rounds_DC_20510.png,Rounds_DC_20510.png
W000819,202-225-3065,Washington,20515-3306,2017/01/15/39y65o6t3g_Walker_DC_20515_3306.png,Walker_DC_20515-3306.png
S001197,202-224-4224,Washington,20510,2017/01/15/92ebxgoehj_Sasse_DC_20510.png,Sasse_DC_20510.png
K000388,202-225-4306,Washington,20515-2401,2017/01/15/5wwdb5vho7_Kelly_DC_20515_2401.png,Kelly_DC_20515-2401.png
L000585,202-225-6201,Washington,20515-1318,2017/01/15/1g9kr448fz_LaHood_DC_20515_1318.png,LaHood_DC_20515-1318.png
D000626,202-225-6205,Washington,20515-3508,2017/01/15/34vpolhasg_Davidson_DC_20515_3508.png,Davidson_DC_20515-3508.png
H001075,202-224-3553,Washington,20510,2017/01/15/2cw4pl1mkw_Harris_DC_20510.png,Harris_DC_20510.png
H001076,202-224-3324,Washington,20510,2017/01/15/tl0uvx0cm_Hassan_DC_20510.png,Hassan_DC_20510.png
G000578,202-225-4136,Washington,20515-0901,2017/01/15/7ctwwkr2yj_Gaetz_DC_20515_0901.png,Gaetz_DC_20515-0901.png
S001190,202-225-4835,Washington,20515-1310,2017/01/15/qgpfl5ewv_Schneider_DC_20515_1310.png,Schneider_DC_20515-1310.png
O000171,202-225-3361,Washington,20515-0301,2017/01/15/6l24qixyc4_O_Halleran_DC_20515_0301.png,O'Halleran_DC_20515-0301.png
B001302,202-225-2635,Washington,20515-0305,2017/01/15/42j0dnovjy_Biggs_DC_20515_0305.png,Biggs_DC_20515-0305.png
K000389,202-225-2631,Washington,20515-0517,2017/01/15/7s6nod4ypo_Khanna_DC_20515_0517.png,Khanna_DC_20515-0517.png
C001112,202-225-3601,Washington,20515-0524,2017/01/15/30rxwc46cs_Carbajal_DC_20515_0524.png,Carbajal_DC_20515-0524.png
B001300,202-225-8220,Washington,20515-0544,2017/01/15/8oym15jp24_Barrag_n_DC_20515_0544.png,Barragán_DC_20515-0544.png
B001303,202-225-4165,Washington,20515-0800,2017/01/15/76xi61elio_Blunt_Rochester_DC_20515_0800.png,Blunt Rochester_DC_20515-0800.png
D000628,202-225-5235,Washington,20515-0902,2017/01/15/3i3huwfefc_Dunn_DC_20515_0902.png,Dunn_DC_20515-0902.png
L000586,202-225-0123,Washington,20515-0905,2017/01/15/4tk2mjf3aw_Lawson_DC_20515_0905.png,Lawson_DC_20515-0905.png
M001202,202-225-4035,Washington,20515-0907,2017/01/15/1e091065vz_Murphy_DC_20515_0907.png,Murphy_DC_20515-0907.png
S001200,202-225-9889,Washington,20515-0909,2017/01/15/5z0eool3m_Soto_DC_20515_0909.png,Soto_DC_20515-0909.png
C001111,202-225-5961,Washington,20515-0913,2017/01/15/91c5uu0ph8_Crist_DC_20515_0913.png,Crist_DC_20515-0913.png
M001199,202-225-3026,Washington,20515-0918,2017/01/15/7qcb6wwca8_Mast_DC_20515_0918.png,Mast_DC_20515-0918.png
R000607,202-225-2536,Washington,20515-0919,2017/01/15/51l1s6bju4_Rooney_DC_20515_0919.png,Rooney_DC_20515-0919.png
T000478,202-225-3665,Washington,20515-3222,2017/01/15/26wdxlumbz_Tenney_DC_20515_3222.png,Tenney_DC_20515-3222.png
B001299,202-225-4436,Washington,20515-1403,2017/01/15/7r3xhetpwk_Banks_DC_20515_1403.png,Banks_DC_20515-1403.png
H001074,202-225-5315,Washington,20515-1409,2017/01/15/3o0fxhpvrq_Hollingsworth_DC_20515_1409.png,Hollingsworth_DC_20515-1409.png
H001077,202-225-2031,Washington,20515-1803,2017/01/15/6ohkuq9k4b_Higgins_DC_20515_1803.png,Higgins_DC_20515-1803.png
J000299,202-225-2777,Washington,20515-1804,2017/01/15/915cymok6f_Johnson_DC_20515_1804.png,Johnson_DC_20515-1804.png
B001304,202-225-8699,Washington,20515-2004,2017/01/15/21chejk779_Brown_DC_20515_2004.png,Brown_DC_20515-2004.png
B001301,202-225-4735,Washington,20515-2201,2017/01/15/1lw2jhhejq_Bergman_DC_20515_2201.png,Bergman_DC_20515-2201.png
M001201,202-225-2106,Washington,20515-2210,2017/01/15/3a4hobihtb_Mitchell_DC_20515_2210.png,Mitchell_DC_20515-2210.png
B001305,202-225-4531,Washington,20515-3313,2017/01/15/6keizvdcij_Budd_DC_20515_3313.png,Budd_DC_20515-3313.png
B001298,202-225-4155,Washington,20515-2702,2017/01/15/9suujkehbb_Bacon_DC_20515_2702.png,Bacon_DC_20515-2702.png
G000583,202-225-4465,Washington,20515-3005,2017/01/15/2qvzigd27z_Gottheimer_DC_20515_3005.png,Gottheimer_DC_20515-3005.png
K000390,202-225-9894,Washington,20515-2804,2017/01/15/6ujmmvz99o_Kihuen_DC_20515_2804.png,Kihuen_DC_20515-2804.png
S001201,202-225-3335,Washington,20515-3203,2017/01/15/6swdgb6bck_Suozzi_DC_20515_3203.png,Suozzi_DC_20515-3203.png
F000464,202-225-5614,Washington,20515-3219,2017/01/15/1y8880uf7a_Faso_DC_20515_3219.png,Faso_DC_20515-3219.png
F000466,202-225-4276,Washington,20515-3808,2017/01/15/8q7kyt86ks_Fitzpatrick_DC_20515_3808.png,Fitzpatrick_DC_20515-3808.png
A000055,256-546-0201,Gadsden,35901,2017/01/15/2t42g9drme_Aderholt_AL_35901.png,Aderholt_AL_35901.png
A000055,205-221-2310,Jasper,"",2017/01/15/9lgne37s3a_Aderholt_AL_.png,Aderholt_AL_.png
A000055,256-381-3450,Tuscumbia,35674,2017/01/15/8wyds61dxu_Aderholt_AL_35674.png,Aderholt_AL_35674.png
A000360,423-325-6240,Blountville,37617,2017/01/15/wvdaotsds_Alexander_TN_37617.png,Alexander_TN_37617.png
A000360,"",Chattanooga,37402,2017/01/15/28opb7azw5_Alexander_TN_37402.png,Alexander_TN_37402.png
K000392,202-225-4714,Washington,20515-4208,2017/01/15/21kq3pjjxz_Kustoff_DC_20515_4208.png,Kustoff_DC_20515-4208.png
G000581,202-225-2531,Washington,20515-4315,2017/01/15/61w0z234f3_Gonzalez_DC_20515_4315.png,Gonzalez_DC_20515-4315.png
T000477,202-225-4215,Washington,20515-4602,2017/01/15/5jqymxvase_Taylor_DC_20515_4602.png,Taylor_DC_20515-4602.png
M001200,202-225-6365,Washington,20515-4604,2017/01/15/8n14v50boz_McEachin_DC_20515_4604.png,McEachin_DC_20515-4604.png
G000580,202-225-4711,Washington,20515-4605,2017/01/15/5qs4vpn6h9_Garrett_DC_20515_4605.png,Garrett_DC_20515-4605.png
G000579,202-225-5665,Washington,20515-4908,2017/01/15/4d7cf3qjru_Gallagher_DC_20515_4908.png,Gallagher_DC_20515-4908.png
C001109,202-225-2311,Washington,20515-5000,2017/01/15/3boz6th1wh_Cheney_DC_20515_5000.png,Cheney_DC_20515-5000.png
A000055,256-734-6043,"","",2017/01/15/9ldkqcjald_Aderholt_AL_.png,Aderholt_AL_.png
A000360,731-664-0289,Jackson,38305,2017/01/15/6cuwvqrzx8_Alexander_TN_38305.png,Alexander_TN_38305.png
B000213,972-875-8488,Ennis,75119,2017/01/15/6t16iwj55l_Barton_TX_75119.png,Barton_TX_75119.png
B000944,216-522-7272,Cleveland,44113,2017/01/15/62gtda8rr2_Brown_OH_44113.png,Brown_OH_44113.png
A000360,615-736-5129,Nashville,37203,2017/01/15/5eaedkeldg_Alexander_TN_37203.png,Alexander_TN_37203.png
A000367,616-451-8383,Grand Rapids,49503,2017/01/15/riepp1l6v_Amash_MI_49503.png,Amash_MI_49503.png
A000369,775-777-7705,Elko,89801,2017/01/15/3kdeuslopb_Amodei_NV_89801.png,Amodei_NV_89801.png
A000370,704-344-9950,Charlotte,28202,2017/01/15/vki13dvzo_Adams_NC_28202.png,Adams_NC_28202.png
A000371,909-890-4445,San Bernardino,92408,2017/01/15/2vuyyklb4z_Aguilar_CA_92408.png,Aguilar_CA_92408.png
A000372,706-228-1980,Augusta,30909,2017/01/15/5prvlm3qov_Allen_GA_30909.png,Allen_GA_30909.png
A000372,912-243-9452,"Statesboro, GA",30458,2017/01/15/76s67wifrz_Allen_GA_30458.png,Allen_GA_30458.png
A000372,912-403-3311,Vidalia,30475,2017/01/15/2aaaz0vyq_Allen_GA_30475.png,Allen_GA_30475.png
A000374,318-322-3500,Monroe,71201,2017/01/15/5vnrp62aih_Abraham_LA_71201.png,Abraham_LA_71201.png
A000375,"",Abilene,79602,2017/01/15/2932ic0eid_Arrington_TX_79602.png,Arrington_TX_79602.png
B000213,817-543-1000,Arlington,76017,2017/01/15/8r5avh3rxy_Barton_TX_76017.png,Barton_TX_76017.png
B000944,513-684-1021,Cincinnati,45202,2017/01/15/n936rm6a3_Brown_OH_45202.png,Brown_OH_45202.png
B001230,608-264-5338,MADISON,53703,2017/01/15/et8rylx8g_Baldwin_WI_53703.png,Baldwin_WI_53703.png
B001230,414-297-4451,Milwaukee,53203,2017/01/15/348r6zwiji_Baldwin_WI_53203.png,Baldwin_WI_53203.png
B001230,715-261-2611,Wausau,54401,2017/01/15/9kz5mrcckt_Baldwin_WI_54401.png,Baldwin_WI_54401.png
B001236,870-863-4641,El Dorado,71730,2017/01/15/4iyfma5x3w_Boozman_AR_71730.png,Boozman_AR_71730.png
B001135,252-977-9522,Rocky Mount,27804,2017/01/15/7e2ox2czt4_Burr_NC_27804.png,Burr_NC_27804.png
B001135,336-631-5125,Winston-Salem,27104,2017/01/15/2ijavtkwvw_Burr_NC_27104.png,Burr_NC_27104.png
B001227,610-874-7094,Chester,19013,2017/01/15/3sp3alv0yy_Brady_PA_19013.png,Brady_PA_19013.png
B001227,267-519-2252,Philadelphia,19134,2017/01/15/3powmgyyd9_Brady_PA_19134.png,Brady_PA_19134.png
B001227,215-389-4627,"Philadelphia, PA",19148,2017/01/15/833ek3ylbk_Brady_PA_19148.png,Brady_PA_19148.png
B001230,715-832-8424,Eau Claire,54701,2017/01/15/76za0y84uc_Baldwin_WI_54701.png,Baldwin_WI_54701.png
B001230,608-796-0045,La Crosse,54601,2017/01/15/56kecu4wlo_Baldwin_WI_54601.png,Baldwin_WI_54601.png
B001236,479-573-0189,Fort Smith,72901,2017/01/15/2g1zioyqfy_Boozman_AR_72901.png,Boozman_AR_72901.png
B001236,501-372-7153,Little Rock,72201,2017/01/15/1zbymvka7j_Boozman_AR_72201.png,Boozman_AR_72201.png
B001236,479-725-0400,Lowell,72745,2017/01/15/c2kiagnnu_Boozman_AR_72745.png,Boozman_AR_72745.png
B001243,931-503-0391,Clarksville,37040,2017/01/15/4g02q7247p_Blackburn_TN_37040.png,Blackburn_TN_37040.png
B001243,615-591-5161,Franklin,37064,2017/01/15/8meduel3cv_Blackburn_TN_37064.png,Blackburn_TN_37064.png
B001245,671-477-4272,Hagåtña,96910,2017/01/15/13iv72w1bw_Bordallo_GU_96910.png,Bordallo_GU_96910.png
B001250,"",Brigham City,84302,2017/01/15/35eg9y6vy2_Bishop_UT_84302.png,Bishop_UT_84302.png
B001250,801-625-0107,Ogden,84401,2017/01/15/6efhe7rjaz_Bishop_UT_84401.png,Bishop_UT_84401.png
B001251,252-237-9816,Wilson,27893,2017/01/15/1y427h0st5_Butterfield_NC_27893.png,Butterfield_NC_27893.png
B001257,727-232-2921,New Port Richey,34654,2017/01/15/78w2dyxeu1_Bilirakis_FL_34654.png,Bilirakis_FL_34654.png
B001257,727-940-5860,Tarpon Springs,34689,2017/01/15/76tynddx4n_Bilirakis_FL_34689.png,Bilirakis_FL_34689.png
B001260,941-951-6643,Sarasota,34236,2017/01/15/5eqzocdwmj_Buchanan_FL_34236.png,Buchanan_FL_34236.png
B001261,307-261-6413,Casper,82601,2017/01/15/963pp621ev_Barrasso_WY_82601.png,Barrasso_WY_82601.png
B001261,307-772-2451,Cheyenne,82001,2017/01/15/69u2ycwgkl_Barrasso_WY_82001.png,Barrasso_WY_82001.png
B001261,307-856-6642,Riverton,82501,2017/01/15/2epgg0u389_Barrasso_WY_82501.png,Barrasso_WY_82501.png
B001261,307-672-6456,Sheridan,82801,2017/01/15/8taf8vfbpk_Barrasso_WY_82801.png,Barrasso_WY_82801.png
B001267,303-455-7600,Denver,80203,2017/01/15/550m6qpznc_Bennet_CO_80203.png,Bennet_CO_80203.png
B001267,970-259-1710,Durango,81301,2017/01/15/1rfnvtcibw_Bennet_CO_81301.png,Bennet_CO_81301.png
B001267,970-224-2200,Fort Collins,80524,2017/01/15/5yzk5w2y3x_Bennet_CO_80524.png,Bennet_CO_80524.png
B001267,719-542-7550,Pueblo,81003,2017/01/15/4g70f0l8y0_Bennet_CO_81003.png,Bennet_CO_81003.png
B001269,717-249-0190,Carlisle,17013,2017/01/15/wea6a9dgw_Barletta_PA_17013.png,Barletta_PA_17013.png
B001269,570-751-0050,Hazleton,18201,2017/01/15/9h5cru3yc9_Barletta_PA_18201.png,Barletta_PA_18201.png
B001269,570-988-7801,Sunbury,17801,2017/01/15/55aue39rkd_Barletta_PA_17801.png,Barletta_PA_17801.png
B001270,323-965-1422,"Los Angeles,",90010,2017/01/15/6bfsw4psfn_Bass_CA_90010.png,Bass_CA_90010.png
B001273,615-206-8204,"Gallatin ,",37066,2017/01/15/83c71mxydb_Black_TN_37066.png,Black_TN_37066.png
B001274,256-355-9400,Decatur,35601,2017/01/15/5jzfbznzwr_Brooks_AL_35601.png,Brooks_AL_35601.png
B001274,256-551-0190,Huntsville,35805,2017/01/15/j3wd4ximu_Brooks_AL_35805.png,Brooks_AL_35805.png
B001275,812-465-6484,Evansville,47708,2017/01/15/17qmq80q7n_Bucshon_IN_47708.png,Bucshon_IN_47708.png
B001275,812-232-0523,Terre Haute,47807,2017/01/15/3fkcsjjwje_Bucshon_IN_47807.png,Bucshon_IN_47807.png
B001275,"",Vincennes,47591,2017/01/15/9szm9a7ah9_Bucshon_IN_47591.png,Bucshon_IN_47591.png
B001283,918-935-3222,Tulsa,74137,2017/01/15/3h2yv1tjq1_Bridenstine_OK_74137.png,Bridenstine_OK_74137.png
B001284,765-640-5115,Anderson,46016,2017/01/15/8a2153a173_Brooks_IN_46016.png,Brooks_IN_46016.png
B001285,805-379-1779,Oxnard,93036,2017/01/15/6k311v0r35_Brownley_CA_93036.png,Brownley_CA_93036.png
B001288,856-338-8922,Camden,08101,2017/01/15/6ksig60l9_Booker_NJ_08101.png,Booker_NJ_08101.png
B001278,503-469-6010,Beaverton,97005,2017/01/15/42isc5qx31_Bonamici_OR_97005.png,Bonamici_OR_97005.png
B001281,614-220-0003,Columbus,43215,2017/01/15/5164kpa4v2_Beatty_OH_43215.png,Beatty_OH_43215.png
B001282,859-219-1366,Lexington,40509,2017/01/15/1c5j3jfjzb_Barr_KY_40509.png,Barr_KY_40509.png
B001286,309-966-1813,Peoria,61603,2017/01/15/9jwgdaxoz6_Bustos_IL_61603.png,Bustos_IL_61603.png
B001286,309-786-3406,Rock Island,61201,2017/01/15/8kdm5i3jop_Bustos_IL_61201.png,Bustos_IL_61201.png
B001287,916-635-0505,Sacramento,95826,2017/01/15/4874jttbej_Bera_CA_95826.png,Bera_CA_95826.png
B001288,973-639-8700,Newark,07102,2017/01/15/7d0satann4_Booker_NJ_07102.png,Booker_NJ_07102.png
B001289,251-989-2664,Summerdale,36580,2017/01/15/2llopfh70h_Byrne_AL_36580.png,Byrne_AL_36580.png
G000558,"",Radcliff,40160,2017/01/15/4jtr9yecvb_Guthrie_KY_40160.png,Guthrie_KY_40160.png
B001293,810-227-8600,Brighton,48116,2017/01/15/2k72a1hh24_Bishop_MI_48116.png,Bishop_MI_48116.png
B001291,832-780-0966,Deer Park,77536,2017/01/15/321eajv4n2_Babin_TX_77536.png,Babin_TX_77536.png
B001291,409-883-8075,Orange,77630,2017/01/15/78ky5j0lbq_Babin_TX_77630.png,Babin_TX_77630.png
B001292,703-658-5403,Alexandria,22312,2017/01/15/6cmncna5k6_Beyer_VA_22312.png,Beyer_VA_22312.png
B001294,319-266-6925,Cedar Falls,50613,2017/01/15/6y83p29c2x_Blum_IA_50613.png,Blum_IA_50613.png
B001294,563-557-7789,Dubuque,52001,2017/01/15/2p16tr0s0y_Blum_IA_52001.png,Blum_IA_52001.png
B001295,618-233-8026,Alton,62002,2017/01/15/9iaz8737nk_Bost_IL_62002.png,Bost_IL_62002.png
B001295,618-233-8026,Belleville,62220,2017/01/15/92iicy5ps8_Bost__62220.png,Bost__62220.png
B001295,618-513-5294,Mt. Vernon,62864,2017/01/15/71mjg70845_Bost_IL_62864.png,Bost_IL_62864.png
B001296,610-270-8081,Norristown,19401,2017/01/15/8niokyzifc_Boyle_PA_19401.png,Boyle_PA_19401.png
B001296,267-335-5643,Philadelphia,19120,2017/01/15/5djehmzq8r_Boyle_PA_19120.png,Boyle_PA_19120.png
B001297,720-639-9165,Castle Rock,80109,2017/01/15/7fhaygu21v_Buck_CO_80109.png,Buck_CO_80109.png
B001297,970-702-2136,Greeley,80634,2017/01/15/3cy5pj4dv9_Buck_CO_80634.png,Buck_CO_80634.png
B001299,"",Fort Wayne,46802,2017/01/15/9q2fbttv5_Banks_IN_46802.png,Banks_IN_46802.png
C000141,301-777-2957,Cumberland,21502,2017/01/15/xo9qymv2p_Cardin_MD_21502.png,Cardin_MD_21502.png
C000141,301-762-2974,Rockville,20850,2017/01/15/206njcvmv9_Cardin_MD_20850.png,Cardin_MD_20850.png
B001303,"","Wilmington, DE",19801,2017/01/15/575lve1v4v_Blunt_Rochester_DE_19801.png,Blunt Rochester_DE_19801.png
B001304,"",Upper Marlboro,20774,2017/01/15/xnryu0w4e_Brown_MD_20774.png,Brown_MD_20774.png
B001305,"",Mooresville,28117,2017/01/15/9jwi1yhoh6_Budd_NC_28117.png,Budd_NC_28117.png
C000059,951-277-0042,Corona,92882,2017/01/15/60wwm3gw04_Calvert_CA_92882.png,Calvert_CA_92882.png
C000127,425-303-0114,Everett,98201,2017/01/15/5wmxb8oihb_Cantwell_WA_98201.png,Cantwell_WA_98201.png
C000127,509-946-8106,Richland,99352,2017/01/15/7t4010vmdp_Cantwell_WA_99352.png,Cantwell_WA_99352.png
C000127,509-353-2507,Spokane,99201,2017/01/15/4dka66yuz2_Cantwell_WA_99201.png,Cantwell_WA_99201.png
C000127,253-572-2281,Tacoma,98402,2017/01/15/66slklnw1o_Cantwell_WA_98402.png,Cantwell_WA_98402.png
C000127,360-696-7838,Vancouver,98661,2017/01/15/4oj2fm83rc_Cantwell_WA_98661.png,Cantwell_WA_98661.png
C000141,202-870-1164,Bowie,20720,2017/01/15/7nxtpdsche_Cardin_MD_20720.png,Cardin_MD_20720.png
C000174,302-674-3308,Dover,19904,2017/01/15/24d3sd4wgt_Carper_DE_19904.png,Carper_DE_19904.png
C000174,302-573-6291,Wilmington,19801-3974,2017/01/15/3nczdytk3l_Carper_DE_19801_3974.png,Carper_DE_19801-3974.png
C000266,513-684-2723,Cincinnati,45202,2017/01/15/31oa5p8fp2_Chabot_OH_45202.png,Chabot_OH_45202.png
C000537,803-799-1100,Columbia,29201,2017/01/15/5fym59s8hk_Clyburn_SC_29201.png,Clyburn_SC_29201.png
C000537,843-355-1211,Kingstree,29556,2017/01/15/259f1e4gx6_Clyburn_SC_29556.png,Clyburn_SC_29556.png
C000567,228-867-9710,Gulfport,39501,2017/01/15/513crgcuun_Cochran_MS_39501.png,Cochran_MS_39501.png
C000567,601-965-4459,Jackson,39201,2017/01/15/7646x3n5yy_Cochran_MS_39201.png,Cochran_MS_39201.png
C000567,662-236-1018,Oxford,38655,2017/01/15/1zsb9fci1v_Cochran_MS_38655.png,Cochran_MS_38655.png
C000714,734-675-4084,Westland,48185,2017/01/15/9ff82ehknu_Conyers_MI_48185.png,Conyers_MI_48185.png
C000754,615-736-5295,Nashville,37219,2017/01/15/9qjgs7f9by_Cooper_TN_37219.png,Cooper_TN_37219.png
C000880,208-664-5490,Coeur d' Alene,83814,2017/01/15/7u0j6jdw9r_Crapo_ID_83814.png,Crapo_ID_83814.png
C000880,208-522-9779,Idaho Falls,83402,2017/01/15/8dshezbu5c_Crapo_ID_83402.png,Crapo_ID_83402.png
C000880,208-236-6775,Pocatello,83201,2017/01/15/7ryihzr3ty_Crapo_ID_83201.png,Crapo_ID_83201.png
C001047,304-292-2310,Morgantown,26501,2017/01/15/sh8beupia_Capito_WV_26501.png,Capito_WV_26501.png
C000984,410-685-9199,Baltimore,21201,2017/01/15/2qtfll7xcl_Cummings_MD_21201.png,Cummings_MD_21201.png
C000984,410-465-8259,Ellicott,21043,2017/01/15/71h3vvjami_Cummings_MD_21043.png,Cummings_MD_21043.png
C001035,207-622-8414,Augusta,04330,2017/01/15/6fstkj7ptm_Collins_ME_04330.png,Collins_ME_04330.png
C001035,207-945-0417,Bangor,04401,2017/01/15/18bhcv6klo_Collins_ME_04401.png,Collins_ME_04401.png
C001035,207-493-7873,Caribou,04736,2017/01/15/8roslyyy5j_Collins_ME_04736.png,Collins_ME_04736.png
C001035,207-784-6969,Lewiston,04240,2017/01/15/82et96b9sp_Collins_ME_04240.png,Collins_ME_04240.png
C001035,207-780-3575,Portland,04101,2017/01/15/f6ant5lhl_Collins_ME_04101.png,Collins_ME_04101.png
C001037,"",Randolph,02368,2017/01/15/1s7mjae9e6_Capuano_MA_02368.png,Capuano_MA_02368.png
C001037,617-621-6208,Roxbury,02120,2017/01/15/9s5ow042zu_Capuano_MA_02120.png,Capuano_MA_02120.png
C001038,718-779-1400,Queens,11372,2017/01/15/9lzcchhs3e_Crowley_NY_11372.png,Crowley_NY_11372.png
C001047,304-347-5372,Beckley,25801,2017/01/15/1udc670mdu_Capito_WV_25801.png,Capito_WV_25801.png
C001047,304-262-9285,Martinsburg,25401,2017/01/15/2pkpmzszbi_Capito_WV_25401.png,Capito_WV_25401.png
C001051,254-933-1392,Temple,76502,2017/01/15/1tr7flg1c5_Carter_TX_76502.png,Carter_TX_76502.png
C001056,512-469-6034,Austin,78701,2017/01/15/4ta9gfkb6u_Cornyn_TX_78701.png,Cornyn_TX_78701.png
C001056,972-239-1310,Dallas,75244,2017/01/15/4jx956j5bl_Cornyn_TX_75244.png,Cornyn_TX_75244.png
C001056,956-423-0162,Harlingen,78550,2017/01/15/6hwaqpbwjy_Cornyn_TX_78550.png,Cornyn_TX_78550.png
C001059,559-495-1620,Fresno,93721,2017/01/15/6u5ov5pdod_Costa_CA_93721.png,Costa_CA_93721.png
C001049,314-367-1970,St. Louis,63102,2017/01/15/1hzaykcfcw_Clay_MO_63102.png,Clay_MO_63102.png
C001049,314-367-1970,St. Louis,63102,2017/01/15/2mz4pzxgc_Clay_MO_63102.png,Clay_MO_63102.png
C001051,254-933-1392,Temple,76502,2017/01/15/7tn8dfpd17_Carter_TX_76502.png,Carter_TX_76502.png
C001053,580-357-2131,Lawton,73501,2017/01/15/4sehw30a39_Cole_OK_73501.png,Cole_OK_73501.png
C001053,580-436-5375,ada,74820,2017/01/15/1s9id8cnq5_Cole_OK_74820.png,Cole_OK_74820.png
C001056,713-572-3337,Houston,77007,2017/01/15/9es92ggcxe_Cornyn_TX_77007.png,Cornyn_TX_77007.png
C001056,806-472-7533,Lubbock,79401,2017/01/15/2af6d5mpmm_Cornyn_TX_79401.png,Cornyn_TX_79401.png
C001056,903-593-0902,Tyler,75702,2017/01/15/3o3xg7x81i_Cornyn_TX_75702.png,Cornyn_TX_75702.png
C001061,816-833-4545,Independence,64050,2017/01/15/82a5q9f6sq_Cleaver_MO_64050.png,Cleaver_MO_64050.png
C001061,816-842-4545,Kansas City,64108,2017/01/15/9adzusxp5h_Cleaver_MO_64108.png,Cleaver_MO_64108.png
C001062,682-936-2577,Granbury,76048,2017/01/15/3cogxtvljk_Conaway_TX_76048.png,Conaway_TX_76048.png
C001062,325-247-2826,Llano,78643,2017/01/15/2nj79v9zts_Conaway_TX_78643.png,Conaway_TX_78643.png
C001062,432-331-9667,Odessa,79761,2017/01/15/9q1ouf50jd_Conaway_TX_79761.png,Conaway_TX_79761.png
C001062,325-659-4010,San Angelo,76903,2017/01/15/7teoh9t50a_Conaway_TX_76903.png,Conaway_TX_76903.png
C001063,956-725-0639,Laredo,78041,2017/01/15/2u2ccoyuyc_Cuellar_TX_78041.png,Cuellar_TX_78041.png
C001063,956-487-5603,Rio Grande City,78582,2017/01/15/40fw9a0rtj_Cuellar_TX_78582.png,Cuellar_TX_78582.png
C001063,210-271-2851,San Antonio,78205,2017/01/15/30k47zxjmt_Cuellar_TX_78205.png,Cuellar_TX_78205.png
C001067,718-287-1142,Brooklyn,11226,2017/01/15/k93vtmlyd_Clarke_NY_11226.png,Clarke_NY_11226.png
C001068,901-544-4131,Memphis,38103,2017/01/15/5v78c15xq7_Cohen_TN_38103.png,Cohen_TN_38103.png
C001069,860-886-0139,Norwich,06360,2017/01/15/bnu2rkgm8_Courtney_CT_06360.png,Courtney_CT_06360.png
C001070,610-782-9470,Allentown,18101,2017/01/15/d9mbwnnt_Casey_PA_18101.png,Casey_PA_18101.png
C001070,814-357-0314,Bellefonte,16823,2017/01/15/ftcs7qmto_Casey_PA_16823.png,Casey_PA_16823.png
C001070,215-405-9660,Philadelphia,19103,2017/01/15/t8qklyoqb_Casey_PA_19103.png,Casey_PA_19103.png
C001070,412-803-7370,Pittsburgh,15219,2017/01/15/4f8oolasa8_Casey_PA_15219.png,Casey_PA_15219.png
C001070,570-941-0930,Scranton,18503,2017/01/15/2rxg06b0gm_Casey_PA_18503.png,Casey_PA_18503.png
C001071,731-664-2294,Jackson,38305,2017/01/15/441ippz2pp_Corker_TN_38305.png,Corker_TN_38305.png
C001071,423-753-2263,Jonesborough,37659,2017/01/15/6wzgdvkibn_Corker_TN_37659.png,Corker_TN_37659.png
C001071,865-637-4180,Knoxville,37902,2017/01/15/7xp278qqod_Corker_TN_37902.png,Corker_TN_37902.png
C001071,615-279-8125,Nashville,37203,2017/01/15/rpqopgkz6_Corker_TN_37203.png,Corker_TN_37203.png
C001072,317-283-6516,Indianapolis,46205,2017/01/15/3icbmsz06q_Carson_IN_46205.png,Carson_IN_46205.png
C001075,225-929-7711,Baton Rouge,70808,2017/01/15/439idx2430_Cassidy_LA_70808.png,Cassidy_LA_70808.png
C001075,337-493-5398,LAKE CHARLES,70629,2017/01/15/32rry4aucl_Cassidy_LA_70629.png,Cassidy_LA_70629.png
C001075,504-838-0130,Metairie,70002,2017/01/15/9ng0v1w0c5_Cassidy_LA_70002.png,Cassidy_LA_70002.png
C001075,318-324-2111,Monroe,70201,2017/01/15/32joyn9st5_Cassidy_LA_70201.png,Cassidy_LA_70201.png
C001075,318-798-3215,Sherveport,71105,2017/01/15/4997j7eudp_Cassidy_LA_71105.png,Cassidy_LA_71105.png
C001080,909-625-5394,Claremont,91711,2017/01/15/loamctkdd_Chu_CA_91711.png,Chu_CA_91711.png
C001080,626-304-0110,Pasadena,91101,2017/01/15/83j96gkxma_Chu_CA_91101.png,Chu_CA_91101.png
C001084,401-729-5600,Pawtucket,02860,2017/01/15/392y4bu50z_Cicilline_RI_02860.png,Cicilline_RI_02860.png
C001078,703-256-3071,Annandale,22003,2017/01/15/2mfond5d64_Connolly_VA_22003.png,Connolly_VA_22003.png
C001078,571-408-4407,Woodbridge,22192,2017/01/15/40g70z4uen_Connolly_VA_22192.png,Connolly_VA_22192.png
C001087,501-843-3043,Cabot,72023,2017/01/15/7ak8x76mrw_Crawford_AR_72023.png,Crawford_AR_72023.png
C001087,870-203-0540,Jonesboro,72401,2017/01/15/43c581r6m6_Crawford_AR_72401.png,Crawford_AR_72401.png
C001088,302-736-5601,Dover,19904,2017/01/15/5dw2eyob18_Coons_DE_19904.png,Coons_DE_19904.png
C001088,302-573-6345,Wilmington,19801-1233,2017/01/15/2ly76p6djo_Coons_DE_19801_1233.png,Coons_DE_19801-1233.png
C001090,570-624-0140,Pottsville,17901,2017/01/15/2g5mpf42lb_Cartwright_PA_17901.png,Cartwright_PA_17901.png
C001090,570-341-1050,Scranton,18503,2017/01/15/9o8nljlbsy_Cartwright_PA_18503.png,Cartwright_PA_18503.png
C001090,570-371-0317,Wilkes-Barre,18711,2017/01/15/7m2ailxmh5_Cartwright_PA_18711.png,Cartwright_PA_18711.png
C001092,585-519-4002,Geneseo,14454,2017/01/15/5ieob6suy1_Collins_NY_14454.png,Collins_NY_14454.png
C001096,701-356-2216,Fargo,58103,2017/01/15/8xc18alogq_Cramer_ND_58103.png,Cramer_ND_58103.png
C001094,760-247-1815,Apple Valley Town Hall,92307,2017/01/15/5srb4pts30_Cook_CA_92307.png,Cook_CA_92307.png
C001094,909-797-4900,Yucaipa,92399,2017/01/15/96rtwlhni7_Cook_CA_92399.png,Cook_CA_92399.png
C001095,870-933-6223,Jonesboro,72401,2017/01/15/5anrsmu2p8_Cotton_AR_72401.png,Cotton_AR_72401.png
C001095,501-223-9081,Little Rock,72201,2017/01/15/7fmizrys2o_Cotton_AR_72201.png,Cotton_AR_72201.png
C001096,701-224-0355,Bismarck,58501,2017/01/15/50jsbfce8y_Cramer_ND_58501.png,Cramer_ND_58501.png
C001096,701-738-4880,Grand Forks,58202,2017/01/15/2gmhinzwhm_Cramer_ND_58202.png,Cramer_ND_58202.png
C001097,818-221-3718,Panorama City,91402,2017/01/15/8epfrkxr2d_C_rdenas_CA_91402.png,Cárdenas_CA_91402.png
C001098,512-916-5834,Austin,78701,2017/01/15/18ba2xzmd8_Cruz_TX_78701.png,Cruz_TX_78701.png
C001098,512-916-5834,Austin,78701,2017/01/15/9622c16p3f_Cruz_TX_78701.png,Cruz_TX_78701.png
C001098,713-718-3057,Houston,77002,2017/01/15/8it4a0mjd_Cruz_TX_77002.png,Cruz_TX_77002.png
C001098,956-686-7339,McAllen,78501,2017/01/15/4zro49w4ih_Cruz_TX_78501.png,Cruz_TX_78501.png
C001098,210-340-2885,San Antonio,78230,2017/01/15/j5453fyww_Cruz_TX_78230.png,Cruz_TX_78230.png
C001101,617-354-0292,"",02138,2017/01/15/7ijqukvxmn_Clark_MA_02138.png,Clark_MA_02138.png
D000191,541-269-2609,Coos Bay,97420,2017/01/15/44gxzdqzsq_DeFazio_OR_97420.png,DeFazio_OR_97420.png
D000191,541-465-6732,Eugene,97401,2017/01/15/2ffcbm42mt_DeFazio_OR_97401.png,DeFazio_OR_97401.png
R000608,"",Las Vegas,89123,2017/01/15/5zke943v3y_Rosen_NV_89123.png,Rosen_NV_89123.png
C001103,912-265-9010,Brunswick,31520,2017/01/15/2437jhjo3j_Carter_GA_31520.png,Carter_GA_31520.png
C001105,540-773-3600,Winchester,22601,2017/01/15/9a8fh8y3c1_Comstock_VA_22601.png,Comstock_VA_22601.png
C001106,610-376-7630,Wyomissing,19610,2017/01/15/1kt08ihhod_Costello_PA_19610.png,Costello_PA_19610.png
C001107,305-247-1234,Florida City,33034,2017/01/15/2ngpdoiswe_Curbelo_FL_33034.png,Curbelo_FL_33034.png
C001107,305-292-4485,Key West,33040,2017/01/15/zzo7ucj12_Curbelo_FL_33040.png,Curbelo_FL_33040.png
C001108,"",Paducah,42003,2017/01/15/wlz94z4t1_Comer_KY_42003.png,Comer_KY_42003.png
C001108,270-487-9509,Tompkinsville,42167,2017/01/15/8098qk41ri_Comer_KY_42167.png,Comer_KY_42167.png
C001109,307-772-2595,Cheyenne,82001,2017/01/15/3mmzbwowmr_Cheney_WY_82001.png,Cheney_WY_82001.png
C001109,307-673-4608,Sheridan,82801,2017/01/15/1d2ttapr8l_Cheney_WY_82801.png,Cheney_WY_82801.png
C001112,888-202-8934,San Luis Obispo,93401,2017/01/15/56v3q8yanx_Carbajal_CA_93401.png,Carbajal_CA_93401.png
D000096,773-533-7520,Chicago,"",2017/01/15/21uy17s9m9_Davis_IL_.png,Davis_IL_.png
D000604,610-770-3490,Allentown,18103,2017/01/15/5n5nrz2lng_Dent_PA_18103.png,Dent_PA_18103.png
D000197,303-844-4988,Denver,80203,2017/01/15/1sujjotrmx_DeGette_CO_80203.png,DeGette_CO_80203.png
D000399,512-916-5921,Austin,78701,2017/01/15/7ery3qsnyb_Doggett_TX_78701.png,Doggett_TX_78701.png
D000399,210-704-1080,San Antonio,78205,2017/01/15/4yyh3ow0n9_Doggett_TX_78205.png,Doggett_TX_78205.png
D000482,412-264-3460,Coraopolis,15108,2017/01/15/flwsnbhlt_Doyle_PA_15108.png,Doyle_PA_15108.png
D000482,412-241-6055,Penn Hills,15235,2017/01/15/oo99gfm93_Doyle_PA_15235.png,Doyle_PA_15235.png
D000482,412-390-1499,Pittsburgh,15203,2017/01/15/3xqfu4tjj1_Doyle_PA_15203.png,Doyle_PA_15203.png
D000533,865-984-5464,Maryville,37804,2017/01/15/30l345wngo_Duncan_TN_37804.png,Duncan_TN_37804.png
D000563,618-351-1122,Carbondale,62901,2017/01/15/8v52jxnbo6_Durbin_IL_62901.png,Durbin_IL_62901.png
D000563,312-353-4952,Chicago,60604,2017/01/15/ek79xhgxx_Durbin_IL_60604.png,Durbin_IL_60604.png
D000563,217-492-4062,Springfield,62703,2017/01/15/4okvckl8l2_Durbin_IL_62703.png,Durbin_IL_62703.png
D000598,619-280-5353,San Diego,92116,2017/01/15/8fb254w5i6_Davis_CA_92116.png,Davis_CA_92116.png
D000600,239-348-1620,Naples,34116,2017/01/15/4rsy9bm2sg_Diaz_Balart_FL_34116.png,Diaz-Balart_FL_34116.png
D000604,717-533-3959,Hershey,17033,2017/01/15/73ht2lgsd6_Dent_PA_17033.png,Dent_PA_17033.png
D000607,812-425-5813,Evansville,47708,2017/01/15/4nuakhjbke_Donnelly_IN_47708.png,Donnelly_IN_47708.png
D000607,260-420-4955,Fort Wayne,46802,2017/01/15/7z7dd44ch0_Donnelly_IN_46802.png,Donnelly_IN_46802.png
D000607,317-226-5555,Indianapolis,46204,2017/01/15/2su4uuq8q8_Donnelly_IN_46204.png,Donnelly_IN_46204.png
D000607,812-284-2027,Jeffersonville,47130,2017/01/15/877c1tasav_Donnelly_IN_47130.png,Donnelly_IN_47130.png
D000610,561-470-5440,Boca Raton,33434,2017/01/15/62btfmae04_Deutch_FL_33434.png,Deutch_FL_33434.png
D000610,954-255-8336,Coral Springs,33071,2017/01/15/2wjggqzdf9_Deutch_FL_33071.png,Deutch_FL_33071.png
D000612,209-579-5458,Modesto,95356,2017/01/15/2epxjjhmw9_Denham_CA_95356.png,Denham_CA_95356.png
D000614,715-392-3984,Hayward,54843,2017/01/15/488u5cgaij_Duffy_WI_54843.png,Duffy_WI_54843.png
D000614,715-298-9344,Wausau,54403,2017/01/15/9qu7ft6zpz_Duffy_WI_54403.png,Duffy_WI_54403.png
D000615,864-224-7401,"",29625,2017/01/15/u8nqkq37g_Duncan_SC_29625.png,Duncan_SC_29625.png
D000615,864-681-1028,"Laurens, SC",29360,2017/01/15/8ofkbg44di_Duncan_SC_29360.png,Duncan_SC_29360.png
D000616,931-381-9920,Columbia,38401,2017/01/15/77bge0p4j6_DesJarlais_TN_38401.png,DesJarlais_TN_38401.png
D000618,406-257-3765,Kalispell,59901,2017/01/15/3x3d8wh0iu_Daines_MT_59901.png,Daines_MT_59901.png
D000618,406-549-8198,Missoula,59802,2017/01/15/5gpzwysx6k_Daines_MT_59802.png,Daines_MT_59802.png
D000618,406-482-9010,Sidney,59270,2017/01/15/4u8vc72gcq_Daines_MT_59270.png,Daines_MT_59270.png
D000619,217-403-4690,Champaign,61280,2017/01/15/1m87k6vc4_Davis_IL_61280.png,Davis_IL_61280.png
D000617,425-485-0085,Bothell,98021,2017/01/15/82uduiep9y_DelBene_WA_98021.png,DelBene_WA_98021.png
D000617,360-416-7879,Mount Vernon,98273,2017/01/15/4n2cmjdi8n_DelBene_WA_98273.png,DelBene_WA_98273.png
D000618,406-587-3446,Bozeman,59718,2017/01/15/25ou7fhjca_Daines_MT_59718.png,Daines_MT_59718.png
D000618,406-453-0148,Great Falls,59401,2017/01/15/8czgsxts0y_Daines_MT_59401.png,Daines_MT_59401.png
D000618,406-443-3189,Helena,59601,2017/01/15/8zqg8q57gp_Daines_MT_59601.png,Daines_MT_59601.png
D000619,217-791-6224,Decatur,62523,2017/01/15/3j24c697a_Davis_IL_62523.png,Davis_IL_62523.png
D000619,309-252-8834,Normal,61761,2017/01/15/5rfd3yobop_Davis_IL_61761.png,Davis_IL_61761.png
D000619,217-791-6224,Springfield,62703,2017/01/15/8ppcw7o0vp_Davis_IL_62703.png,Davis_IL_62703.png
D000619,217-824-5117,Taylorville,62568,2017/01/15/2tw7hqd286_Davis_IL_62568.png,Davis_IL_62568.png
D000620,301-733-2900,Hagerstown,21740,2017/01/15/8po7xtx17x_Delaney_MD_21740.png,Delaney_MD_21740.png
D000623,510-620-1000,"Richmond, CA",94804,2017/01/15/6jjwd9vhf8_DeSaulnier_CA_94804.png,DeSaulnier_CA_94804.png
D000623,925-933-2660,Walnut Creek,94596,2017/01/15/4s6iobyctg_DeSaulnier_CA_94596.png,DeSaulnier_CA_94596.png
D000624,734-481-1100,Ypsilanti,48197,2017/01/15/6y2fbcfq23_Dingell_MI_48197.png,Dingell_MI_48197.png
D000625,718-630-5277,Brooklyn,11228,2017/01/15/7zdingnhpy_Donovan_NY_11228.png,Donovan_NY_11228.png
D000625,718-351-1062,Staten Island,10306,2017/01/15/6nviq0sbha_Donovan_NY_10306.png,Donovan_NY_10306.png
D000626,937-339-1524,Troy,45373,2017/01/15/2db5n1fthd_Davidson_OH_45373.png,Davidson_OH_45373.png
D000626,513-779-5400,West Chester,45069,2017/01/15/1llx1cfhlf_Davidson_OH_45069.png,Davidson_OH_45069.png
D000628,850-785-0812,Panama City,32401,2017/01/15/6wqxowl2tg_Dunn_FL_32401.png,Dunn_FL_32401.png
D000628,850-891-8610,Tallahassee,32301,2017/01/15/6j9ms6pbhe_Dunn_FL_32301.png,Dunn_FL_32301.png
E000179,718-320-2314,"","",2017/01/15/gnk2o0ept_Engel_NY_.png,Engel_NY_.png
E000179,914-699-4100,Mt. Vernon,10550,2017/01/15/38epeksarc_Engel_NY_10550.png,Engel_NY_10550.png
E000215,650-323-2984,Palo Alto,94301,2017/01/15/54sr922pcl_Eshoo_CA_94301.png,Eshoo_CA_94301.png
E000285,307-772-2477,Cheyenne,82001,2017/01/15/1p1od7rqcv_Enzi_WY_82001.png,Enzi_WY_82001.png
E000295,712-352-1167,Council Bluffs,51501,2017/01/15/5yk8c2ja06_Ernst_IA_51501.png,Ernst_IA_51501.png
E000285,307-739-9507,Jaskson,83002,2017/01/15/9k0sps26pp_Enzi_WY_83002.png,Enzi_WY_83002.png
E000293,860-223-8412,New Britain,06053,2017/01/15/m8g3wlzxe_Esty_CT_06053.png,Esty_CT_06053.png
E000295,319-365-4504,Cedar Rapids,52401,2017/01/15/332o6nm8pq_Ernst_IA_52401.png,Ernst_IA_52401.png
E000295,563-322-0677,Davenport,52801,2017/01/15/27xm5ebwef_Ernst_IA_52801.png,Ernst_IA_52801.png
E000295,712-252-1550,Sioux City,51101,2017/01/15/55y6o0p0ik_Ernst_IA_51101.png,Ernst_IA_51101.png
E000296,215-276-0340,Philadelphia,19138,2017/01/15/86lijkrl5b_Evans_PA_19138.png,Evans_PA_19138.png
F000062,559-485-7430,Fresno,93721,2017/01/15/2l3u4p2s0g_Feinstein_CA_93721.png,Feinstein_CA_93721.png
F000062,310-914-7300,Los Angeles,90025,2017/01/15/6bbtdwst8r_Feinstein_CA_90025.png,Feinstein_CA_90025.png
F000062,415-393-0707,San Francisco,94104,2017/01/15/9fu2jmpbaa_Feinstein_CA_94104.png,Feinstein_CA_94104.png
F000372,973-984-0711,Morristown,07960,2017/01/15/9eyxsoolss_Frelinghuysen_NJ_07960.png,Frelinghuysen_NJ_07960.png
F000444,520-575-8633,Tucson,85704,2017/01/15/omclydq1v_Flake_AZ_85704.png,Flake_AZ_85704.png
F000448,623-776-7911,Glendale,85308,2017/01/15/3yfjmllcw1_Franks_AZ_85308.png,Franks_AZ_85308.png
F000449,402-379-2064,Norfolk,68701,2017/01/15/7rhxzo61rb_Fortenberry_NE_68701.png,Fortenberry_NE_68701.png
F000450,828-265-0240,Boone,28607,2017/01/15/3gjotdewep_Foxx_NC_28607.png,Foxx_NC_28607.png
F000449,402-438-1598,Lincoln,68508,2017/01/15/60sb5l8uft_Fortenberry_NE_68508.png,Fortenberry_NE_68508.png
F000450,336-778-0211,Clemmons,27012,2017/01/15/32cwlf6y8j_Foxx_NC_27012.png,Foxx_NC_27012.png
F000454,630-585-7672,Aurora,60502,2017/01/15/3olz0cph56_Foster_IL_60502.png,Foster_IL_60502.png
F000455,330-835-4758,Akron,44320,2017/01/15/67s1bbjdyc_Fudge_OH_44320.png,Fudge_OH_44320.png
F000455,216-522-4900,Warrensville Heights,44128,2017/01/15/8wtm2hto4u_Fudge_OH_44128.png,Fudge_OH_44128.png
F000457,218-722-2390,Duluth,55802,2017/01/15/9qe5iq6f2l_Franken_MN_55802.png,Franken_MN_55802.png
F000457,218-284-8721,Moorhead,56560,2017/01/15/8vhmwzagb9_Franken_MN_56560.png,Franken_MN_56560.png
F000457,507-288-2003,Rochester,55901,2017/01/15/1muehda2sa_Franken_MN_55901.png,Franken_MN_55901.png
F000459,423-745-4671,Athens,37303,2017/01/15/71ddo4lfo9_Fleischmann_TN_37303.png,Fleischmann_TN_37303.png
F000459,423-756-2342,Chattanooga,37402,2017/01/15/7luh1p4gtq_Fleischmann_TN_37402.png,Fleischmann_TN_37402.png
F000459,865-576-1976,Oak Ridge,37830,2017/01/15/3n0jy9n2i8_Fleischmann_TN_37830.png,Fleischmann_TN_37830.png
G000289,540-432-2391,Harrisonburg,22802,2017/01/15/2v6iact3rs_Goodlatte_VA_22802.png,Goodlatte_VA_22802.png
F000461,979-703-4037,Bryan,77802,2017/01/15/3zi4nrq1m1_Flores_TX_77802.png,Flores_TX_77802.png
F000461,254-732-0748,Waco,76701,2017/01/15/6o8oytcifq_Flores_TX_76701.png,Flores_TX_76701.png
F000462,561-998-9045,Boca Raton,33431,2017/01/15/60xk56djr4_Frankel_FL_33431.png,Frankel_FL_33431.png
F000463,308-630-2329,Omaha,69361,2017/01/15/444b61eno_Fischer_NE_69361.png,Fischer_NE_69361.png
F000463,308-630-2329,Scottsbluff,69361,2017/01/15/shv4ur0cp_Fischer_NE_69361.png,Fischer_NE_69361.png
F000464,518-610-8133,Kinderhook,12106,2017/01/15/25xsp0xrc4_Faso_NY_12106.png,Faso_NY_12106.png
F000464,845-514-2322,Kingston,12401,2017/01/15/918lraw6er_Faso_NY_12401.png,Faso_NY_12401.png
F000466,215-579-8102,"Langhorne,",19047,2017/01/15/26hzvfjfeu_Fitzpatrick_PA_19047.png,Fitzpatrick_PA_19047.png
G000289,434-845-8306,Lynchburg,24504,2017/01/15/2lxewmeeg1_Goodlatte_VA_24504.png,Goodlatte_VA_24504.png
G000289,540-885-3861,Staunton,24401,2017/01/15/3i400l6qqi_Goodlatte_VA_24401.png,Goodlatte_VA_24401.png
G000359,803-933-0112,"Columbia,",29201,2017/01/15/2h0xmb4aja_Graham_SC_29201.png,Graham_SC_29201.png
G000559,530-753-5301,Davis,95616,2017/01/15/4lq97775mv_Garamendi_CA_95616.png,Garamendi_CA_95616.png
G000546,816-749-0800,St. Joseph,64501,2017/01/15/qwxxdjzy_Graves_MO_64501.png,Graves_MO_64501.png
W000779,541-962-7691,La Grande,97850,2017/01/15/50ytb6kujg_Wyden_OR_97850.png,Wyden_OR_97850.png
G000359,864-250-1417,Greenville,29601,2017/01/15/lpbnubaok_Graham_SC_29601.png,Graham_SC_29601.png
G000359,864-646-4090,Pendleton,29670,2017/01/15/2qvdzyjs2h_Graham_SC_29670.png,Graham_SC_29670.png
G000359,803-366-2828,Rock Hill,29730,2017/01/15/3nxmqpccu1_Graham_SC_29730.png,Graham_SC_29730.png
G000386,319-363-6832,Cedar Rapids,52401,2017/01/15/36jirmt7eq_Grassley_IA_52401.png,Grassley_IA_52401.png
G000386,712-322-7103,Council Bluffs,51501,2017/01/15/4i5c8j7s98_Grassley_IA_51501.png,Grassley_IA_51501.png
G000386,515-288-1145,Des Moines,50309,2017/01/15/9ep92txyz3_Grassley_IA_50309.png,Grassley_IA_50309.png
G000386,712-233-1860,Sioux City,51101,2017/01/15/8ilemctvlr_Grassley_IA_51101.png,Grassley_IA_51101.png
G000386,319-232-6657,Waterloo,50701,2017/01/15/4ydg8yvqf8_Grassley_IA_50701.png,Grassley_IA_50701.png
G000410,713-330-0761,Houston,77029,2017/01/15/62h68g31ny_Green_TX_77029.png,Green_TX_77029.png
G000535,773-342-0774,Chicago,60647,2017/01/15/4j9bcp28qz_Guti_rrez_IL_60647.png,Gutiérrez_IL_60647.png
G000546,816-792-3976,Kansas City,64153,2017/01/15/85s0tls5cc_Graves_MO_64153.png,Graves_MO_64153.png
G000551,928-343-7933,Somerton,85350,2017/01/15/557cqjqnai_Grijalva_AZ_85350.png,Grijalva_AZ_85350.png
G000551,520-662-2788,Tucson,85705,2017/01/15/4zs7kgq4g4_Grijalva_AZ_85705.png,Grijalva_AZ_85705.png
G000552,903-236-8597,Longview,75601,2017/01/15/2z44b1znf2_Gohmert_TX_75601.png,Gohmert_TX_75601.png
G000552,903-938-8386,Marshall,75670,2017/01/15/4s8h3awj6q_Gohmert_TX_75670.png,Gohmert_TX_75670.png
G000552,936-715-9514,Nacogdoches,75961,2017/01/15/73qtghgom9_Gohmert_TX_75961.png,Gohmert_TX_75961.png
G000553,713-383-9234,Houston,77054,2017/01/15/75fk4npbp3_Green_TX_77054.png,Green_TX_77054.png
G000555,518-431-0120,Albany,12207,2017/01/15/8xhqz7gy9e_Gillibrand_NY_12207.png,Gillibrand_NY_12207.png
G000555,716-854-9725,Buffalo,14210,2017/01/15/7pzkkar8zv_Gillibrand_NY_14210.png,Gillibrand_NY_14210.png
G000555,845-875-4585,Mahopac,10541,2017/01/15/4buhtz6m3a_Gillibrand_NY_10541.png,Gillibrand_NY_10541.png
G000555,212-688-6262,"New York,",10017,2017/01/15/3nsm1meccx_Gillibrand_NY_10017.png,Gillibrand_NY_10017.png
G000555,631-249-2825,"North Melville, NY",11747,2017/01/15/6zqkqpvzbe_Gillibrand_NY_11747.png,Gillibrand_NY_11747.png
G000555,585-263-6250,Rochester,14614,2017/01/15/6gl3zynq6x_Gillibrand_NY_14614.png,Gillibrand_NY_14614.png
G000558,270-842-9896,Bowling Green,42103,2017/01/15/m4nxld1g5_Guthrie_KY_42103.png,Guthrie_KY_42103.png
G000560,706-226-5320,Dalton,30720,2017/01/15/21l0mef7yp_Graves_GA_30720.png,Graves_GA_30720.png
G000560,706-290-1776,Rome,30161,2017/01/15/1yz3ikqmrn_Graves_GA_30161.png,Graves_GA_30161.png
G000562,303-391-5777,Denver,80202,2017/01/15/4ig44t24q0_Gardner_CO_80202.png,Gardner_CO_80202.png
G000562,970-259-1231,Durango,81303,2017/01/15/729p0d1enl_Gardner_CO_81303.png,Gardner_CO_81303.png
G000562,970-484-3502,Fort Collins,80526,2017/01/15/48b1bfvkvy_Gardner_CO_80526.png,Gardner_CO_80526.png
G000562,970-352-5546,Greeley,80631,2017/01/15/6fmg2vmyos_Gardner_CO_80631.png,Gardner_CO_80631.png
G000562,719-543-1324,Pueblo,81003,2017/01/15/2d9qk0yeq_Gardner_CO_81003.png,Gardner_CO_81003.png
G000562,970-848-3095,Yuma,80759,2017/01/15/7d7aq4kr35_Gardner_CO_80759.png,Gardner_CO_80759.png
G000563,330-737-1631,Canton,44702,2017/01/15/8j8f2287dr_Gibbs_OH_44702.png,Gibbs_OH_44702.png
G000565,480-882-2697,Gold Canyon,85118,2017/01/15/4l9v0cah4k_Gosar_AZ_85118.png,Gosar_AZ_85118.png
G000565,928-445-1683,Prescott,86301,2017/01/15/1n6z47jgni_Gosar_AZ_86301.png,Gosar_AZ_86301.png
G000566,864-241-0175,Greenville,29601,2017/01/15/1a54s27m81_Gowdy_SC_29601.png,Gowdy_SC_29601.png
G000568,276-525-1405,Abingdon,24210,2017/01/15/bvywmeo05_Griffith_VA_24210.png,Griffith_VA_24210.png
G000568,276-525-1405,Big Stone Gap,24219,2017/01/15/ouwebfktx_Griffith_VA_24219.png,Griffith_VA_24219.png
G000580,434-791-2596,Danville,24541,2017/01/15/63bkihrrao_Garrett_VA_24541.png,Garrett_VA_24541.png
G000581,956-682-5545,Edinburg,78539,2017/01/15/1o1n02fyhn_Gonzalez_TX_78539.png,Gonzalez_TX_78539.png
G000582,"",San Juan,00901,2017/01/15/6u975eejlq_Gonz_lez_Col_n_PR_00901.png,González-Colón_PR_00901.png
G000583,888-216-5646,"Glen Rock, NJ",07452,2017/01/15/432ajklurc_Gottheimer_NJ_07452.png,Gottheimer_NJ_07452.png
H000338,801-625-5672,Ogden,84401,2017/01/15/2xc7u10nty_Hatch_UT_84401.png,Hatch_UT_84401.png
G000574,602-256-0551,Phoenix,85004,2017/01/15/t3doznxmn_Gallego_AZ_85004.png,Gallego_AZ_85004.png
G000576,920-907-0624,Fond du Lac,54935,2017/01/15/8irwugfwa4_Grothman_WI_54935.png,Grothman_WI_54935.png
G000577,225-686-4413,Livingston,70754,2017/01/15/67f68f7a67_Graves_LA_70754.png,Graves_LA_70754.png
G000577,985-448-4103,Thibodaux,70301,2017/01/15/1kjnjzmqhm_Graves_LA_70301.png,Graves_LA_70301.png
G000579,"",Appleton,54911,2017/01/15/3vibjjoehp_Gallagher_WI_54911.png,Gallagher_WI_54911.png
G000580,434-973-9631,Charlottesville,22901,2017/01/15/295onvxeqt_Garrett_VA_22901.png,Garrett_VA_22901.png
H000324,954-733-2800,Fort Lauderdale,33311,2017/01/15/4zly2h4aw5_Hastings_FL_33311.png,Hastings_FL_33311.png
V000081,718-222-5819,Brooklyn,11241,2017/01/15/6q1ifq47n_Vel_zquez_NY_11241.png,Velázquez_NY_11241.png
H000874,301-474-0119,Greenbelt,20770,2017/01/15/9bvxfv2omr_Hoyer_MD_20770.png,Hoyer_MD_20770.png
H001036,903-675-8288,Athens,75751,2017/01/15/4gv0slw8px_Hensarling_TX_75751.png,Hensarling_TX_75751.png
H001036,214-349-9996,Dallas,75231,2017/01/15/72g0fqsfly_Hensarling_TX_75231.png,Hensarling_TX_75231.png
H001038,716-282-1274,Niagara Falls,14301,2017/01/15/24niv8rp9g_Higgins_NY_14301.png,Higgins_NY_14301.png
H001041,702-388-6605,Las Vegas,89148,2017/01/15/4tx0qe9uw9_Heller_NV_89148.png,Heller_NV_89148.png
H001041,775-686-5770,Reno,89501,2017/01/15/8j7vz8eeh4_Heller_NV_89501.png,Heller_NV_89501.png
H001042,808-522-8970,Honolulu,96850,2017/01/15/4237a2r589_Hirono_HI_96850.png,Hirono_HI_96850.png
H001045,601-693-6681,Meridian,39301,2017/01/15/u5a2nikhp_Harper_MS_39301.png,Harper_MS_39301.png
H001045,662-324-0007,Starkville,39759,2017/01/15/5e1gzyn8xw_Harper_MS_39759.png,Harper_MS_39759.png
H001046,505-346-6601,Albuquerque,87102,2017/01/15/15lciw6xmu_Heinrich_NM_87102.png,Heinrich_NM_87102.png
H001046,505-325-5030,Farmington,87402,2017/01/15/4n12aur5n3_Heinrich_NM_87402.png,Heinrich_NM_87402.png
K000391,847-413-1959,Schaumburg,60173,2017/01/15/15fp1uk6i3_Krishnamoorthi_IL_60173.png,Krishnamoorthi_IL_60173.png
H001048,619-448-5201,El Cajon,92020,2017/01/15/4z5pie7g7h_Hunter_CA_92020.png,Hunter_CA_92020.png
H001052,410-588-5670,Bel Air,21014,2017/01/15/br6s8jj55_Harris_MD_21014.png,Harris_MD_21014.png
H001046,505-988-6647,Santa Fe,87501,2017/01/15/78kg3qxy5h_Heinrich_NM_87501.png,Heinrich_NM_87501.png
H001047,203-353-9400,Stamford,06901,2017/01/15/4v9sdyj67c_Himes_CT_06901.png,Himes_CT_06901.png
H001050,808-541-2570,Honolulu,96850,2017/01/15/3ner6355v9_Hanabusa_HI_96850.png,Hanabusa_HI_96850.png
H001052,410-643-5425,Chester,21619,2017/01/15/5juglj8rlp_Harris_MD_21619.png,Harris_MD_21619.png
H001053,573-442-9311,Columbia,65201,2017/01/15/477urjfvkw_Hartzler_MO_65201.png,Hartzler_MO_65201.png
H001053,417-532-5582,Lebanon,65536,2017/01/15/3skng8wdpz_Hartzler_MO_65536.png,Hartzler_MO_65536.png
H001056,"",Chehalis,98532,2017/01/15/7crtuux7gj_Herrera_Beutler_WA_98532.png,Herrera Beutler_WA_98532.png
H001056,360-695-6292,Vancouver,98661,2017/01/15/mjzt27n2g_Herrera_Beutler_WA_98661.png,Herrera Beutler_WA_98661.png
H001058,616-570-0917,Grandville,49418,2017/01/15/5nbk8m7lum_Huizenga_MI_49418.png,Huizenga_MI_49418.png
H001059,630-584-2734,Campton Hills,60175,2017/01/15/2j4issoqen_Hultgren_IL_60175.png,Hultgren_IL_60175.png
H001061,701-239-5389,Fargo,58103,2017/01/15/8xj0sx33y7_Hoeven_ND_58103.png,Hoeven_ND_58103.png
H001061,701-580-4535,"Williston, ND","",2017/01/15/42m7h44z3s_Hoeven_ND_.png,Hoeven_ND_.png
H001064,360-459-8514,Lacey,98503,2017/01/15/1l1tmvdfvd_Heck_WA_98503.png,Heck_WA_98503.png
H001064,253-722-5860,Lakewood,98499,2017/01/15/7cyzgnav7j_Heck_WA_98499.png,Heck_WA_98499.png
H001068,707-981-8967,Petaluma,94952,2017/01/15/3vdw3b3lfc_Huffman_CA_94952.png,Huffman_CA_94952.png
H001069,701-225-0974,Dickinson,58601,2017/01/15/4ou2zuxn80_Heitkamp_ND_58601.png,Heitkamp_ND_58601.png
H001061,701-838-1361,Minot,58701,2017/01/15/1e8nnlz0dm_Hoeven_ND_58701.png,Hoeven_ND_58701.png
H001065,919-440-5247,Fremont,27830,2017/01/15/ap2gkuiig_Holding_NC_27830.png,Holding_NC_27830.png
H001067,704-786-1612,Concord,28027,2017/01/15/8n8qy1x16p_Hudson_NC_28027.png,Hudson_NC_28027.png
H001067,910-997-2070,Rockingham,28379,2017/01/15/39y1m6phfj_Hudson_NC_28379.png,Hudson_NC_28379.png
H001068,707-962-0933,Fort Bragg,95437,2017/01/15/9ccp24ctlb_Huffman_CA_95437.png,Huffman_CA_95437.png
H001068,415-258-9657,San Rafael,94901,2017/01/15/87f4p8rek5_Huffman_CA_94901.png,Huffman_CA_94901.png
H001069,701-232-8030,Fargo,58102,2017/01/15/86wbnaak5e_Heitkamp_ND_58102.png,Heitkamp_ND_58102.png
H001069,701-852-0703,Minot,58701,2017/01/15/7q0j1gwuqy_Heitkamp_ND_58701.png,Heitkamp_ND_58701.png
I000024,918-748-5111,Tulsa,74104-6511,2017/01/15/16hd7c3kda_Inhofe_OK_74104_6511.png,Inhofe_OK_74104-6511.png
I000056,760-599-5000,Vista,92081,2017/01/15/276n6rguht_Issa_CA_92081.png,Issa_CA_92081.png
H001071,770-207-1776,Thomson,30824,2017/01/15/1aap3yu7mq_Hice_GA_30824.png,Hice_GA_30824.png
H001072,501-358-3481,Conway,72032,2017/01/15/1wq58owxhi_Hill_AR_72032.png,Hill_AR_72032.png
H001072,501-324-5941,Little Rock,72207,2017/01/15/7l3i2s0czq_Hill_AR_72207.png,Hill_AR_72207.png
H001073,830-491-7003,Eagle Pass,78852,2017/01/15/4azo83voh1_Hurd_TX_78852.png,Hurd_TX_78852.png
H001073,210-921-3130,San Antonio,78258,2017/01/15/43jawgznnl_Hurd_TX_78258.png,Hurd_TX_78258.png
H001073,915-235-6421,Socorro,79927,2017/01/15/8ct5ntk0un_Hurd_TX_79927.png,Hurd_TX_79927.png
H001074,"",Jeffersonville,47130,2017/01/15/3cjx5ejp30_Hollingsworth_IN_47130.png,Hollingsworth_IN_47130.png
I000024,580-234-5105,Enid,73701,2017/01/15/1alfxkgt2b_Inhofe_OK_73701.png,Inhofe_OK_73701.png
I000024,405-608-4381,Oklahoma City,73118,2017/01/15/339xzihfcm_Inhofe_OK_73118.png,Inhofe_OK_73118.png
I000055,770-661-0999,Atlanta,30339,2017/01/15/7i3p3fe48c_Isakson_GA_30339.png,Isakson_GA_30339.png
J000032,713-227-7740,Houston,77020,2017/01/15/8512eliygn_Jackson_Lee_TX_77020.png,Jackson Lee_TX_77020.png
J000032,713-861-4070,Houston,77008,2017/01/15/6ft044uukg_Jackson_Lee_TX_77008.png,Jackson Lee_TX_77008.png
J000292,740-376-0868,Marietta,45750,2017/01/15/3gw0dsd5wv_Johnson_OH_45750.png,Johnson_OH_45750.png
J000292,330-337-6951,Salem,44460,2017/01/15/8vnqxmf41d_Johnson_OH_44460.png,Johnson_OH_44460.png
J000293,414-276-7282,Milwaukee,53202,2017/01/15/3lmvoa199g_Johnson_WI_53202.png,Johnson_WI_53202.png
J000293,920-230-7250,Oshkosh,54901,2017/01/15/6rpu81igkh_Johnson_WI_54901.png,Johnson_WI_54901.png
J000126,214-922-8885,Dallas,75201,2017/01/15/6dggvuz4qc_Johnson_TX_75201.png,Johnson_TX_75201.png
J000255,252-931-1003,Greenville,27858,2017/01/15/404ne3911n_Jones_NC_27858.png,Jones_NC_27858.png
J000255,252-565-6846,Havelock,28532,2017/01/15/9i53w52hgb_Jones_NC_28532.png,Jones_NC_28532.png
J000288,770-987-2291,Decatur,30035,2017/01/15/2q3is2goq9_Johnson_GA_30035.png,Johnson_GA_30035.png
J000289,"",Bucyrus,44820,2017/01/15/6wj0xyf11_Jordan_OH_44820.png,Jordan_OH_44820.png
J000289,419-663-1426,Norwalk,44857,2017/01/15/6g8vud632_Jordan_OH_44857.png,Jordan_OH_44857.png
J000290,620-231-5966,Pittsburg,66762,2017/01/15/67wuovw5hg_Jenkins_KS_66762.png,Jenkins_KS_66762.png
J000290,785-234-5966,Topeka,66606,2017/01/15/2o7mscqmbm_Jenkins_KS_66606.png,Jenkins_KS_66606.png
J000292,740-534-9431,Ironton,45638,2017/01/15/65upbda6vl_Johnson_OH_45638.png,Johnson_OH_45638.png
J000294,718-373-0033,Brooklyn,11224,2017/01/15/3u47wo8x8w_Jeffries_NY_11224.png,Jeffries_NY_11224.png
J000295,330-357-4139,Twinsburg,44087,2017/01/15/6fwuqt93k8_Joyce_OH_44087.png,Joyce_OH_44087.png
J000297,304-250-6177,"Beckley, WV",25801,2017/01/15/uz4lwzboe_Jenkins_WV_25801.png,Jenkins_WV_25801.png
J000297,304-522-2201,Huntington,25701,2017/01/15/97jywterl2_Jenkins_WV_25701.png,Jenkins_WV_25701.png
J000298,"",Seattle,98101,2017/01/15/cocwoktlp_Jayapal_WA_98101.png,Jayapal_WA_98101.png
K000009,216-767-5933,Cleveland,44111,2017/01/15/6q1qjzfd9w_Kaptur_OH_44111.png,Kaptur_OH_44111.png
K000009,440-288-1500,Lorain,44052,2017/01/15/42cntn0l4q_Kaptur_OH_44052.png,Kaptur_OH_44052.png
K000009,419-259-7500,Toledo,43604,2017/01/15/2zjqo5rxxi_Kaptur_OH_43604.png,Kaptur_OH_43604.png
K000188,608-782-2558,La Crosse,54601,2017/01/15/74dsct32o6_Kind_WI_54601.png,Kind_WI_54601.png
K000210,516-541-4225,Massapequa Park,11762,2017/01/15/81iz96ttgh_King_NY_11762.png,King_NY_11762.png
K000362,515-573-2738,Fort Dodge,50501,2017/01/15/5vvel76dj1_King_IA_50501.png,King_IA_50501.png
K000362,641-201-1624,Mason City,50401,2017/01/15/luy7kvnqm_King_IA_50401.png,King_IA_50401.png
K000362,712-224-4692,Sioux City,51101,2017/01/15/18jyerwl0a_King_IA_51101.png,King_IA_51101.png
K000367,612-727-5220,Minneapolis,55415,2017/01/15/9j9dsiqlj9_Klobuchar_MN_55415.png,Klobuchar_MN_55415.png
K000367,218-287-2219,Moorhead,56560,2017/01/15/27ti801o9_Klobuchar_MN_56560.png,Klobuchar_MN_56560.png
K000376,814-454-8190,Erie,16507,2017/01/15/8fd0xalzxv_Kelly_PA_16507.png,Kelly_PA_16507.png
K000375,508-771-0666,Hyannis,02601,2017/01/15/2az3pycnz1_Keating_MA_02601.png,Keating_MA_02601.png
K000375,508-999-6462,New Bedford,02740,2017/01/15/2ex84u6kc8_Keating_MA_02740.png,Keating_MA_02740.png
K000376,724-282-2557,Butler,16001,2017/01/15/4495wc4ffe_Kelly_PA_16001.png,Kelly_PA_16001.png
K000376,724-342-7170,Sharon,16146,2017/01/15/g2g6md6il_Kelly_PA_16146.png,Kelly_PA_16146.png
K000378,815-431-9271,Ottawa,61350,2017/01/15/2ajc3n67wr_Kinzinger_IL_61350.png,Kinzinger_IL_61350.png
K000378,815-708-8032,Rockford,61107,2017/01/15/8dmdemtuc1_Kinzinger_IL_61107.png,Kinzinger_IL_61107.png
K000379,508-431-1110,Attleboro,02703,2017/01/15/6i744e40ox_Kennedy_MA_02703.png,Kennedy_MA_02703.png
K000379,617-332-3333,Newton,02458,2017/01/15/3vowcukal6_Kennedy_MA_02458.png,Kennedy_MA_02458.png
K000381,360-373-9725,Bremerton,98337,2017/01/15/8a7bq6h3k7_Kilmer_WA_98337.png,Kilmer_WA_98337.png
K000381,360-797-3623,Port Angeles,98362,2017/01/15/1zufz5vu9p_Kilmer_WA_98362.png,Kilmer_WA_98362.png
K000382,603-226-1002,Concord,03301,2017/01/15/3bv6cv5mcb_Kuster_NH_03301.png,Kuster_NH_03301.png
K000382,603-444-7700,Littleton,03561,2017/01/15/56yoplcipa_Kuster_NH_03561.png,Kuster_NH_03561.png
W000779,503-326-7525,Portland,97232,2017/01/15/7k89zh99r8_Wyden_OR_97232.png,Wyden_OR_97232.png
K000384,202-224-4024,Richmond,23219,2017/01/15/6kkm82ttq7_Kaine_VA_23219.png,Kaine_VA_23219.png
K000384,757-518-1674,Virginia Beach,23462,2017/01/15/629iysax2l_Kaine_VA_23462.png,Kaine_VA_23462.png
K000385,708-679-0078,Kankakee,60901,2017/01/15/1reqo6xu1_Kelly_IL_60901.png,Kelly_IL_60901.png
K000385,708-679-0078,Matteson,60443,2017/01/15/iyr8qdnx7_Kelly_IL_60443.png,Kelly_IL_60443.png
K000386,"",Lyons,14489,2017/01/15/6d2rwz4744_Katko_NY_14489.png,Katko_NY_14489.png
K000386,"",Oswego,13126,2017/01/15/hslo07c6t_Katko_NY_13126.png,Katko_NY_13126.png
K000386,315-423-5657,Syracuse,13202,2017/01/15/10i1ngmx7_Katko_NY_13202.png,Katko_NY_13202.png
K000387,661-255-5630,Santa Clarita,91350,2017/01/15/803s2nuhjp_Knight_CA_91350.png,Knight_CA_91350.png
K000387,805-581-7130,"Simi Valley, CA",93065,2017/01/15/z9g2lof1v_Knight_CA_93065.png,Knight_CA_93065.png
K000388,662-687-1525,Corinth,38844,2017/01/15/3mz8vhps8t_Kelly_MS_38844.png,Kelly_MS_38844.png
K000388,662-258-7240,Eupora,39744,2017/01/15/frp3cje4_Kelly_MS_39744.png,Kelly_MS_39744.png
K000388,662-449-3090,Hernando,38632,2017/01/15/5ud23mw4j6_Kelly_MS_38632.png,Kelly_MS_38632.png
K000389,408-436-2720,Santa Clara,95050,2017/01/15/75fox2w0zq_Khanna_CA_95050.png,Khanna_CA_95050.png
W000779,503-589-4555,Salem,97301,2017/01/15/9bsalad9e7_Wyden_OR_97301.png,Wyden_OR_97301.png
L000263,586-498-7122,Roseville,48066,2017/01/15/1x2hgcyy4q_Levin_MI_48066.png,Levin_MI_48066.png
L000397,408-271-8700,San Jose,95112,2017/01/15/9fh7zisot9_Lofgren_CA_95112.png,Lofgren_CA_95112.png
L000480,845-639-3485,New City,10956,2017/01/15/mbmqispg1_Lowey_NY_10956.png,Lowey_NY_10956.png
L000491,405-373-1958,Yukon,73099,2017/01/15/4olkj7arju_Lucas_OK_73099.png,Lucas_OK_73099.png
L000551,"",Alameda,94501,2017/01/15/8m0x9na88k_Lee_CA_94501.png,Lee_CA_94501.png
L000551,510-763-0370,Oakland,94612,2017/01/15/95odc2wscx_Lee_CA_94612.png,Lee_CA_94612.png
L000551,"",Oakland,94601,2017/01/15/qm368120s_Lee_CA_94601.png,Lee_CA_94601.png
L000554,800-471-4450,Mays Landing,08330-1746,2017/01/15/86ulehkzor_LoBiondo_NJ_08330_1746.png,LoBiondo_NJ_08330-1746.png
L000557,860-278-8888,Hartford,06106,2017/01/15/ojrbehi6d_Larson_CT_06106.png,Larson_CT_06106.png
L000559,401-732-9400,Warwick,02886,2017/01/15/7evbx0zpse_Langevin_RI_02886.png,Langevin_RI_02886.png
L000560,425-252-3188,Everett,98201,2017/01/15/33do164pk6_Larsen_WA_98201.png,Larsen_WA_98201.png
L000562,617-428-2000,Boston,02210,2017/01/15/11k9wwoc40_Lynch_MA_02210.png,Lynch_MA_02210.png
L000562,617-657-6305,Quincy,02169,2017/01/15/1fuhftcagr_Lynch_MA_02169.png,Lynch_MA_02169.png
L000563,773-948-6223,Chicago,60638,2017/01/15/7e159l3y5t_Lipinski_IL_60638.png,Lipinski_IL_60638.png
L000565,563-323-5988,Davenport,52801,2017/01/15/4kazwp80uk_Loebsack_IA_52801.png,Loebsack_IA_52801.png
L000565,319-351-0789,Iowa City,52240,2017/01/15/39bwvqqxcy_Loebsack_IA_52240.png,Loebsack_IA_52240.png
L000566,419-354-8700,Bowling Green,43402,2017/01/15/2es5ysx8xi_Latta_OH_43402.png,Latta_OH_43402.png
L000563,708-403-4379,Orland Park,60462,2017/01/15/69ww8z7zf4_Lipinski_IL_60462.png,Lipinski_IL_60462.png
L000564,719-520-0055,Colorado Springs,80920,2017/01/15/2ceb3wlwgs_Lamborn_CO_80920.png,Lamborn_CO_80920.png
L000566,419-782-1996,Defiance,43512,2017/01/15/2prup4ou3r_Latta_OH_43512.png,Latta_OH_43512.png
L000567,908-788-6900,Flemington,08822,2017/01/15/61wyvbxako_Lance_NJ_08822.png,Lance_NJ_08822.png
L000567,908-518-7733,Westfield,07090,2017/01/15/85sshpo761_Lance_NJ_07090.png,Lance_NJ_07090.png
L000569,573-635-7232,Jefferson City,65109,2017/01/15/3ymtsmo276_Luetkemeyer_MO_65109.png,Luetkemeyer_MO_65109.png
L000569,636-327-7055,Wentzville,63385,2017/01/15/4n6ibu1yvl_Luetkemeyer_MO_63385.png,Luetkemeyer_MO_63385.png
L000570,505-324-1005,Farmington,87401,2017/01/15/1vrh4aehug_Luj_n_NM_87401.png,Luján_NM_87401.png
L000570,505-454-3038,Las Vegas,87701,2017/01/15/7nyz1qw356_Luj_n_NM_87701.png,Luján_NM_87701.png
L000570,505-994-0499,Rio Rancho,87144,2017/01/15/u81t1p6kh_Luj_n_NM_87144.png,Luján_NM_87144.png
L000570,505-984-8950,Santa Fe,87505,2017/01/15/6phgdsv9bk_Luj_n_NM_87505.png,Luján_NM_87505.png
L000577,801-392-9633,Ogden,84401,2017/01/15/5akzu3pn7l_Lee_UT_84401.png,Lee_UT_84401.png
L000573,208-743-1388,Lewiston,83501,2017/01/15/2byq0yoffu_Labrador_ID_83501.png,Labrador_ID_83501.png
L000573,208-888-3188,Meridian,83642,2017/01/15/6mfnud5se8_Labrador_ID_83642.png,Labrador_ID_83642.png
L000575,918-581-7651,Tulsa,74135,2017/01/15/3j2bwwo3qn_Lankford_OK_74135.png,Lankford_OK_74135.png
L000576,417-889-1800,Springfield,65804,2017/01/15/217wqpg9rh_Long_MO_65804.png,Long_MO_65804.png
L000577,801-524-5933,Salt Lake City,84138,2017/01/15/4kfgia4vc1_Lee_UT_84138.png,Lee_UT_84138.png
L000578,530-878-5035,Auburn,95602,2017/01/15/52w0qncvhe_LaMalfa_CA_95602.png,LaMalfa_CA_95602.png
L000578,530-534-7100,Oroville,95966,2017/01/15/41aml6228q_LaMalfa_CA_95966.png,LaMalfa_CA_95966.png
L000579,562-436-3828,Long Beach,90802,2017/01/15/9pflwzpx9z_Lowenthal_CA_90802.png,Lowenthal_CA_90802.png
L000580,505-346-6781,Albuquerque,87102,2017/01/15/20plev6iwe_Lujan_Grisham_NM_87102.png,Lujan Grisham_NM_87102.png
L000581,313-423-6183,Detroit,48213,2017/01/15/6twoy3qtsu_Lawrence_MI_48213.png,Lawrence_MI_48213.png
L000582,323-651-1040,Los Angeles,90036,2017/01/15/5m6l8umpcm_Lieu_CA_90036.png,Lieu_CA_90036.png
L000582,310-321-7664,Manhattan Beach,90266,2017/01/15/2kretotm41_Lieu_CA_90266.png,Lieu_CA_90266.png
L000583,770-429-1776,Cartersville,30120,2017/01/15/7t3494ywhn_Loudermilk_GA_30120.png,Loudermilk_GA_30120.png
M000303,928-445-0833,Prescott,86301,2017/01/15/153o5b116y_McCain_AZ_86301.png,McCain_AZ_86301.png
M000303,520-670-6334,Tucson,85701,2017/01/15/77bq4e6o3l_McCain_AZ_85701.png,McCain_AZ_85701.png
M000312,978-466-3552,Leominster,01453,2017/01/15/34khi2yu3q_McGovern_MA_01453.png,McGovern_MA_01453.png
L000584,801-996-8729,West Jordan,84088,2017/01/15/79qucu0uos_Love_UT_84088.png,Love_UT_84088.png
L000585,217-245-1431,Jacksonville,62650,2017/01/15/20pp8eyjxe_LaHood_IL_62650.png,LaHood_IL_62650.png
L000585,309-671-7027,Peoria,61602,2017/01/15/5pc8ytgg7w_LaHood_IL_61602.png,LaHood_IL_61602.png
L000586,"",Tallahassee,32301,2017/01/15/3rb3asjfru_Lawson_FL_32301.png,Lawson_FL_32301.png
L000587,"",Burnsville,55337,2017/01/15/3vyjgz1h1l_Lewis_MN_55337.png,Lewis_MN_55337.png
M000087,718-932-1804,Astoria,11102-1391,2017/01/15/8a57m2koby_Maloney_NY_11102_1391.png,Maloney_NY_11102-1391.png
M000087,212-860-0606,New York,10128-3679,2017/01/15/1b68lnb2i5_Maloney_NY_10128_3679.png,Maloney_NY_10128-3679.png
M000133,617-565-8519,Boston,02203,2017/01/15/8gk7ihb3t8_Markey_MA_02203.png,Markey_MA_02203.png
M000133,508-677-0523,Fall River,02721,2017/01/15/8402z2j3qs_Markey_MA_02721.png,Markey_MA_02721.png
M000303,602-952-2410,Phoenix,85016,2017/01/15/bmxzva2uc_McCain_AZ_85016.png,McCain_AZ_85016.png
M000312,413-341-8700,Northampton,01060,2017/01/15/1w213o8cko_McGovern_MA_01060.png,McGovern_MA_01060.png
M000355,270-781-1673,Bowling Green,42101,2017/01/15/4xa25gv9dc_McConnell_KY_42101.png,McConnell_KY_42101.png
M000355,859-224-8286,Lexington,40503,2017/01/15/8dz91t9lne_McConnell_KY_40503.png,McConnell_KY_40503.png
M000355,606-864-2026,London,40741,2017/01/15/25akpc9of0_McConnell_KY_40741.png,McConnell_KY_40741.png
M000355,502-582-6304,Louisville,40202,2017/01/15/vjk6onm5p_McConnell_KY_40202.png,McConnell_KY_40202.png
M000639,856-757-5353,Barrington,08007,2017/01/15/7frmw27joh_Men_ndez_NJ_08007.png,Menéndez_NJ_08007.png
M000639,973-645-3030,Newark,07102,2017/01/15/9r49biz5kn_Men_ndez_NJ_07102.png,Menéndez_NJ_07102.png
M000934,785-539-8973,Manhattan,66502,2017/01/15/3fo8lnaai5_Moran_KS_66502.png,Moran_KS_66502.png
M000934,913-393-0711,Olathe,66061,2017/01/15/9ncaa0m4il_Moran_KS_66061.png,Moran_KS_66061.png
M000934,316-631-1410,Wichita,67226,2017/01/15/55swp9j0ys_Moran_KS_67226.png,Moran_KS_67226.png
M001111,425-259-6515,Everett,98201,2017/01/15/4djj51wvcv_Murray_WA_98201.png,Murray_WA_98201.png
M001111,206-553-5545,Seattle,98174,2017/01/15/991frn650f_Murray_WA_98174.png,Murray_WA_98174.png
M001111,253-572-3636,Tacoma,98402,2017/01/15/7w2x9mlqcx_Murray_WA_98402.png,Murray_WA_98402.png
M001111,360-696-7797,"Vancouver, Washington",98661,2017/01/15/7sjslycz9k_Murray_WA_98661.png,Murray_WA_98661.png
M001151,724-850-7312,Greensburg,15601,2017/01/15/45inzwnn39_Murphy_PA_15601.png,Murphy_PA_15601.png
M001151,412-344-5583,Pittsburgh,15228,2017/01/15/53xp0cap7x_Murphy_PA_15228.png,Murphy_PA_15228.png
M001153,907-456-0233,Fairbanks,99701,2017/01/15/21c36vvslo_Murkowski_AK_99701.png,Murkowski_AK_99701.png
M001153,907-586-7277,Juneau,99801,2017/01/15/2k4koat0d8_Murkowski_AK_99801.png,Murkowski_AK_99801.png
M001153,907-283-5808,Kenai,99611,2017/01/15/1nun2lvudd_Murkowski_AK_99611.png,Murkowski_AK_99611.png
M001153,907-376-7665,Wasilla,99654,2017/01/15/8gjpqj3hu3_Murkowski_AK_99654.png,Murkowski_AK_99654.png
M001156,828-669-0600,Black Mountain,28711,2017/01/15/52x2o6f4pe_McHenry_NC_28711.png,McHenry_NC_28711.png
M001156,800-477-2575,Hickory,28603,2017/01/15/6k1ldfauwa_McHenry_NC_28603.png,McHenry_NC_28603.png
M001157,512-473-2357,Austin,78759,2017/01/15/2lewkqpx8o_McCaul_TX_78759.png,McCaul_TX_78759.png
M001157,979-830-8497,Brenham,77833,2017/01/15/4estmdclwt_McCaul_TX_77833.png,McCaul_TX_77833.png
M001157,281-255-8372,Tomball,77375,2017/01/15/7yd144sj66_McCaul_TX_77375.png,McCaul_TX_77375.png
M001158,972-556-0162,Irving,75063,2017/01/15/1ptp63kn1s_Marchant_TX_75063.png,Marchant_TX_75063.png
W000791,541-624-2400,La Grande,97850,2017/01/15/s4l3fbwke_Walden_OR_97850.png,Walden_OR_97850.png
M001165,661-327-3611,Bakersfield,93309,2017/01/15/wgoijgx6l_McCarthy_CA_93309.png,McCarthy_CA_93309.png
M001169,860-549-8463,Hartford,06106,2017/01/15/6cfph9dxkx_Murphy_CT_06106.png,Murphy_CT_06106.png
M001170,573-651-0964,Cape Girardeau,63703,2017/01/15/6hswu8i5mm_McCaskill_MO_63703.png,McCaskill_MO_63703.png
M001170,573-442-7130,Columbia,65201,2017/01/15/u2dx027o1_McCaskill_MO_65201.png,McCaskill_MO_65201.png
M001159,509-529-9358,Walla Walla,99362,2017/01/15/1lqoriaknq_McMorris_Rodgers_WA_99362.png,McMorris Rodgers_WA_99362.png
M001163,916-498-5600,Sacramento,95814,2017/01/15/5bybc3s89t_Matsui_CA_95814.png,Matsui_CA_95814.png
M001166,209-476-8552,Stockton,95207,2017/01/15/7oqcqfkkav_McNerney_CA_95207.png,McNerney_CA_95207.png
M001170,816-421-1639,Kansas City,64111,2017/01/15/4z0ujj7ib1_McCaskill_MO_64111.png,McCaskill_MO_64111.png
M001170,417-868-8745,Springfield,65806,2017/01/15/9ex7p42bhu_McCaskill_MO_65806.png,McCaskill_MO_65806.png
M001170,314-367-1364,St. Louis,63112,2017/01/15/s3g8k2ffy_McCaskill_MO_63112.png,McCaskill_MO_63112.png
M001176,541-465-6750,Eugene,97401,2017/01/15/97vtbfptc0_Merkley_OR_97401.png,Merkley_OR_97401.png
M001176,541-608-9102,Medford,97501,2017/01/15/283yoctoyw_Merkley_OR_97501.png,Merkley_OR_97501.png
W000791,541-776-4646,Medford,97501,2017/01/15/8uywrx76j_Walden_OR_97501.png,Walden_OR_97501.png
M001176,503-362-8102,Salem,97301,2017/01/15/480g61ulur_Merkley_OR_97301.png,Merkley_OR_97301.png
M001177,916-786-5560,Roseville,95661,2017/01/15/6mik3anr76_McClintock_CA_95661.png,McClintock_CA_95661.png
M001179,570-374-9469,Selinsgrove,17870,2017/01/15/1zqku1f2x_Marino_PA_17870.png,Marino_PA_17870.png
M001179,570-322-3961,Williamsport,17701,2017/01/15/5e0q3kt0a1_Marino_PA_17701.png,Marino_PA_17701.png
M001180,304-422-5972,Parkersburg,26101,2017/01/15/7enloo5tih_McKinley_WV_26101.png,McKinley_WV_26101.png
M001180,304-232-3801,Wheeling,26003,2017/01/15/9j64oxjris_McKinley_WV_26003.png,McKinley_WV_26003.png
M001181,"",Douglassville,19518,2017/01/15/6ey5355j0k_Meehan_PA_19518.png,Meehan_PA_19518.png
M001181,"",Honey Brook,19344,2017/01/15/3iefke3f9x_Meehan_PA_19344.png,Meehan_PA_19344.png
M001181,610-690-7323,Springfield,19064,2017/01/15/d96bvafz8_Meehan_PA_19064.png,Meehan_PA_19064.png
M001182,864-206-6004,Gaffney,29340,2017/01/15/3hgx7l9kgt_Mulvaney_SC_29340.png,Mulvaney_SC_29340.png
M001182,803-327-1114,Rock Hill,29732,2017/01/15/6hls5wft80_Mulvaney_SC_29732.png,Mulvaney_SC_29732.png
M001183,304-368-0567,Fairmont,26554,2017/01/15/50aydzj4ut_Manchin_WV_26554.png,Manchin_WV_26554.png
M001187,828-452-6022,Robbinsville,28771,2017/01/15/6quy0gc7ys_Meadows_NC_28771.png,Meadows_NC_28771.png
M001184,859-426-0080,Crescent Springs,41017,2017/01/15/1nz6s9x0j8_Massie_KY_41017.png,Massie_KY_41017.png
M001185,845-561-1259,Newburgh,12550,2017/01/15/2gn1p2f237_Maloney_NY_12550.png,Maloney_NY_12550.png
M001187,828-693-5660,Asheville,28776,2017/01/15/4n3tyxsa7x_Meadows_NC_28776.png,Meadows_NC_28776.png
M001187,828-693-5660,Brevard,28712,2017/01/15/7l4laj9a06_Meadows_NC_28712.png,Meadows_NC_28712.png
M001187,828-765-0573,Burnsville,28714,2017/01/15/5lzszq73gi_Meadows_NC_28714.png,Meadows_NC_28714.png
M001187,828-452-6022,Cherokee,28719,2017/01/15/7tjy5twddy_Meadows_NC_28719.png,Meadows_NC_28719.png
M001187,828-452-6022,Hayesville,28904,2017/01/15/3mm4v5gmf1_Meadows_NC_28904.png,Meadows_NC_28904.png
M001187,828-693-5660,Hendersonville,28792,2017/01/15/78a5sz5dkf_Meadows_NC_28792.png,Meadows_NC_28792.png
M001187,828-693-5660,Marion,28752,2017/01/15/6pu9k4g79p_Meadows_NC_28752.png,Meadows_NC_28752.png
M001187,828-765-0573,Marshall,28753,2017/01/15/73477bqe0s_Meadows_NC_28753.png,Meadows_NC_28753.png
M001187,828-452-6022,Murphy,28906,2017/01/15/91el2ualme_Meadows_NC_28906.png,Meadows_NC_28906.png
M001187,828-765-0573,Newland,28657,2017/01/15/622i02z1s1_Meadows_NC_28657.png,Meadows_NC_28657.png
W000795,803-642-6416,Aiken,29801,2017/01/15/s51oqsfs6_Wilson_SC_29801.png,Wilson_SC_29801.png
M001187,828-452-6022,Waynesville,28786,2017/01/15/50ugt90nuz_Meadows_NC_28786.png,Meadows_NC_28786.png
M001187,828-452-6022,Sylva,28779,2017/01/15/411jll881q_Meadows_NC_28779.png,Meadows_NC_28779.png
M001188,718-358-6364,Flushing,11358,2017/01/15/82u0gmemva_Meng_NY_11358.png,Meng_NY_11358.png
M001189,765-747-5566,"Muncie,",47305,2017/01/15/6muybgd7oi_Messer_IN_47305.png,Messer_IN_47305.png
M001189,765-962-2883,Richmond,47374,2017/01/15/34hrd801d0_Messer_IN_47374.png,Messer_IN_47374.png
M001190,918-423-5951,McAlester,74501,2017/01/15/6q5p89nova_Mullin_OK_74501.png,Mullin_OK_74501.png
M001190,918-687-2533,"Muskogee,",74401,2017/01/15/4d3m09ni3i_Mullin_OK_74401.png,Mullin_OK_74401.png
M001193,732-569-6495,Toms River,08753,2017/01/15/69vxr86f0v_MacArthur_NJ_08753.png,MacArthur_NJ_08753.png
M001194,231-942-5070,Cadillac,49601,2017/01/15/8vzgeij6k1_Moolenaar_MI_49601.png,Moolenaar_MI_49601.png
M001194,989-631-2552,Midland,48640,2017/01/15/4g9l5f8oo3_Moolenaar_MI_48640.png,Moolenaar_MI_48640.png
M001195,304-264-8810,Martinsburg,25401,2017/01/15/51s8tjirhq_Mooney_WV_25401.png,Mooney_WV_25401.png
M001196,978-531-1669,Salem,01970,2017/01/15/ug4dzqomf_Moulton_MA_01970.png,Moulton_MA_01970.png
M001197,520-881-3588,Tucson,85711,2017/01/15/3b0ak9jii1_McSally_AZ_85711.png,McSally_AZ_85711.png
M001198,"",Salina,67401,2017/01/15/20p01zmg4d_Marshall_KS_67401.png,Marshall_KS_67401.png
V000132,956-544-8352,Brownsville,78520,2017/01/15/5ytqlaf8ls_Vela_TX_78520.png,Vela_TX_78520.png
M001201,586-997-5010,Shelby Township,48317,2017/01/15/2tonlb99b8_Mitchell_MI_48317.png,Mitchell_MI_48317.png
M001202,"",Sanford,32771,2017/01/15/ho4iwkld6_Murphy_FL_32771.png,Murphy_FL_32771.png
N000002,718-373-3198,Brooklyn,11219,2017/01/15/6hmafc3oba_Nadler_NY_11219.png,Nadler_NY_11219.png
N000015,413-785-0325,Springfield,01105,2017/01/15/25h2qsjn06_Neal_MA_01105.png,Neal_MA_01105.png
N000032,305-536-5999,Coral Gables,33134,2017/01/15/39srh8uds_Nelson_FL_33134.png,Nelson_FL_33134.png
N000032,954-693-4851,Fort Lauderdale,33328,2017/01/15/66wu2lv47j_Nelson_FL_33328.png,Nelson_FL_33328.png
N000032,239-334-7760,Fort Myers,33901,2017/01/15/5m8keq4e1o_Nelson_FL_33901.png,Nelson_FL_33901.png
N000032,407-872-7161,Orlando,32801,2017/01/15/4r4ooecli7_Nelson_FL_32801.png,Nelson_FL_32801.png
N000032,850-942-8415,Tallahassee,32301,2017/01/15/73g94hn1zm_Nelson_FL_32301.png,Nelson_FL_32301.png
N000032,813-225-7040,Tampa,33602,2017/01/15/2whjejk3rr_Nelson_FL_33602.png,Nelson_FL_33602.png
N000127,218-454-4078,Brainerd,56401,2017/01/15/9rexhy8ifs_Nolan_MN_56401.png,Nolan_MN_56401.png
N000127,218-491-3131,Center City,55012,2017/01/15/8keam9xqgq_Nolan_MN_55012.png,Nolan_MN_55012.png
N000184,605-878-2868,Watertown,57201,2017/01/15/98mqh6pq7_Noem_SD_57201.png,Noem_SD_57201.png
N000188,856-427-7000,Cherry Hill,08003,2017/01/15/1mfq41cc0i_Norcross_NJ_08003.png,Norcross_NJ_08003.png
N000189,509-713-7374,Richland,99354,2017/01/15/2hln3tikjn_Newhouse_WA_99354.png,Newhouse_WA_99354.png
N000147,202-408-9041,Washington,20001,2017/01/15/3jyl0e72i3_Norton_DC_20001.png,Norton_DC_20001.png
N000147,202-678-8900,Washington,20020,2017/01/15/6o7dmdm14u_Norton_DC_20020.png,Norton_DC_20020.png
N000179,626-350-0150,El Monte,91731,2017/01/15/16zp9gm1ol_Napolitano_CA_91731.png,Napolitano_CA_91731.png
N000181,559-733-3861,Visalia,93291,2017/01/15/4dmjm8ij47_Nunes_CA_93291.png,Nunes_CA_93291.png
N000184,605-878-2868,"","",2017/01/15/5c6x5p39dx_Noem_SD_.png,Noem_SD_.png
N000184,605-791-4673,Rapid City,57702,2017/01/15/4e5ig3evc3_Noem_SD_57702.png,Noem_SD_57702.png
N000184,605-275-2868,Sioux Falls,57104,2017/01/15/4tswd1utt8_Noem_SD_57104.png,Noem_SD_57104.png
N000189,509-452-3243,Yakima,98901,2017/01/15/1dmcsj1er8_Newhouse_WA_98901.png,Newhouse_WA_98901.png
O000168,281-494-2690,Sugar Land,77478,2017/01/15/3l98j0tgqi_Olson_TX_77478.png,Olson_TX_77478.png
O000170,915-541-1400,El Paso,79901,2017/01/15/1e2h79whtn_O_Rourke_TX_79901.png,O'Rourke_TX_79901.png
O000171,"",Flagstaff,68001,2017/01/15/23loa0bnv2_O_Halleran_AZ_68001.png,O'Halleran_AZ_68001.png
P000034,732-249-8892,New Brunswick,08901,2017/01/15/7dof9d988_Pallone_NJ_08901.png,Pallone_NJ_08901.png
P000096,201-935-2248,Lyndhurst,07071,2017/01/15/2o9hz0z7dj_Pascrell_NJ_07071.png,Pascrell_NJ_07071.png
P000096,973-472-4510,Passaic,07055,2017/01/15/6v1zhs9t1o_Pascrell_NJ_07055.png,Pascrell_NJ_07055.png
P000096,973-523-5152,Paterson,07505,2017/01/15/1dni3al2f0_Pascrell_NJ_07505.png,Pascrell_NJ_07505.png
P000258,218-847-5056,Detroit Lakes,56501,2017/01/15/21kbd6tpar_Peterson_MN_56501.png,Peterson_MN_56501.png
P000258,507-537-2299,Marshall,56258,2017/01/15/6l7eawmcej_Peterson_MN_56258.png,Peterson_MN_56258.png
P000258,507-637-2270,Redwood Falls,56283,2017/01/15/105y7uiklr_Peterson_MN_56283.png,Peterson_MN_56283.png
P000258,320-235-1061,Willmar,56201,2017/01/15/94oe3wd2vk_Peterson_MN_56201.png,Peterson_MN_56201.png
P000449,216-522-7095,Cleveland,44199,2017/01/15/4z6lk30zci_Portman_OH_44199.png,Portman_OH_44199.png
P000449,614-469-6774,Columbus,43215,2017/01/15/7qmn012jvz_Portman_OH_43215.png,Portman_OH_43215.png
P000449,419-259-3895,Toledo,43604,2017/01/15/8o37o8uygb_Portman_OH_43604.png,Portman_OH_43604.png
P000523,910-323-0260,Fayetteville,28301,2017/01/15/6dca7v4e4r_Price_NC_28301.png,Price_NC_28301.png
P000523,919-859-5999,Raleigh,27603,2017/01/15/5i70qf40p9_Price_NC_27603.png,Price_NC_27603.png
P000588,855-473-2723,Hobbs,88240,2017/01/15/9h6xwfaecq_Pearce_NM_88240.png,Pearce_NM_88240.png
P000588,855-473-2723,Los Lunas,87031,2017/01/15/4w4g3kv511_Pearce_NM_87031.png,Pearce_NM_87031.png
P000588,855-473-2723,Socorro,87801,2017/01/15/6i5hyftdor_Pearce_NM_87801.png,Pearce_NM_87801.png
P000591,770-998-0049,Roswell,30075,2017/01/15/392nu2sh5s_Price_GA_30075.png,Price_GA_30075.png
P000592,281-446-0242,Kingwood,77339,2017/01/15/7nqdsi6zun_Poe_TX_77339.png,Poe_TX_77339.png
P000594,952-405-8510,"Eden Prairie, MN",55344,2017/01/15/abriozed1_Paulsen_MN_55344.png,Paulsen_MN_55344.png
P000595,313-226-6020,Detroit,48226,2017/01/15/x96bd51lg_Peters_MI_48226.png,Peters_MI_48226.png
P000595,517-377-1508,Lansing,48933,2017/01/15/4rufbalpmh_Peters_MI_48933.png,Peters_MI_48933.png
P000595,906-226-4554,Marquette,49855,2017/01/15/2xrdp9j1ih_Peters_MI_49855.png,Peters_MI_49855.png
P000595,248-608-8040,Rochester,48307,2017/01/15/4wm2p38z1q_Peters_MI_48307.png,Peters_MI_48307.png
P000595,231-947-7773,Traverse City,49684,2017/01/15/2uvwgd381_Peters_MI_49684.png,Peters_MI_49684.png
P000597,888-862-6500,Portland,04101,2017/01/15/75vsbqj4ap_Pingree_ME_04101.png,Pingree_ME_04101.png
P000598,303-484-9596,Boulder,80302,2017/01/15/3sxmia13zx_Polis_CO_80302.png,Polis_CO_80302.png
P000598,970-226-1239,Fort Collins,80525,2017/01/15/6kxyyum9ck_Polis_CO_80525.png,Polis_CO_80525.png
P000598,970-409-7301,Frisco,80443,2017/01/15/2b1tl8kvky_Polis_CO_80443.png,Polis_CO_80443.png
P000601,228-202-8104,Pascagoula,39567,2017/01/15/99mngyu06a_Palazzo_MS_39567.png,Palazzo_MS_39567.png
P000602,316-262-8992,Wichita,67207,2017/01/15/39cmpevq8g_Pompeo_KS_67207.png,Pompeo_KS_67207.png
P000603,270-782-8303,Bowling Green,42101,2017/01/15/84di0y4os8_Paul_KY_42101.png,Paul_KY_42101.png
P000605,717-600-1919,York,17402,2017/01/15/88i3mt8pi9_Perry_PA_17402.png,Perry_PA_17402.png
P000601,601-582-3246,Hattiesburg,39401,2017/01/15/3zumpvgm0m_Palazzo_MS_39401.png,Palazzo_MS_39401.png
P000603,859-426-0165,Crescent Springs,41017,2017/01/15/1afm9tvp0x_Paul_KY_41017.png,Paul_KY_41017.png
P000603,859-219-2239,Lexington,40503,2017/01/15/19i0xs0udi_Paul_KY_40503.png,Paul_KY_40503.png
P000603,502-582-5341,Louisville,40202,2017/01/15/8gbrcew8uv_Paul_KY_40202.png,Paul_KY_40202.png
P000603,270-689-9085,Owensboro,42301,2017/01/15/9r6pnpxfru_Paul_KY_42301.png,Paul_KY_42301.png
P000604,201-369-0392,Jersey City,07305,2017/01/15/7qbipt2r6h_Payne_NJ_07305.png,Payne_NJ_07305.png
P000604,973-645-3213,Newark,07102,2017/01/15/8zc5p7igz6_Payne_NJ_07102.png,Payne_NJ_07102.png
P000605,717-338-1919,Gettysburg,17325,2017/01/15/1zzfdtjnib_Perry_PA_17325.png,Perry_PA_17325.png
P000606,704-362-1060,Charlotte,28210,2017/01/15/66qzsxd6zz_Pittenger_NC_28210.png,Pittenger_NC_28210.png
P000606,704-917-9573,Monroe,28112,2017/01/15/21vak96z4n_Pittenger_NC_28112.png,Pittenger_NC_28112.png
P000609,205-968-1290,Birmingham,35243,2017/01/15/2a3xqt3kju_Palmer_AL_35243.png,Palmer_AL_35243.png
P000609,205-274-2136,Oneonta,35121,2017/01/15/9i1faxeie9_Palmer_AL_35121.png,Palmer_AL_35121.png
P000610,340-778-5900,Frederiksted,00840,2017/01/15/45lkwnmglz_Plaskett_VI_00840.png,Plaskett_VI_00840.png
P000610,340-774-4408,St. Thomas,00802,2017/01/15/5q0jwin29o_Plaskett_VI_00802.png,Plaskett_VI_00802.png
P000611,207-784-0768,Lewiston,04240,2017/01/15/zmy2kuxl0_Poliquin_ME_04240.png,Poliquin_ME_04240.png
P000611,207-764-1968,Presque Isle,04769,2017/01/15/88sn4risum_Poliquin_ME_04769.png,Poliquin_ME_04769.png
P000612,404-865-0087,Atlanta,30303,2017/01/15/6xuzchkkpp_Perdue_GA_30303.png,Perdue_GA_30303.png
P000613,831-429-1976,Santa Cruz,95060,2017/01/15/8y20evw4fk_Panetta_CA_95060.png,Panetta_CA_95060.png
Q000023,773-267-5926,Chicago,60641,2017/01/15/98b8s4zus9_Quigley_IL_60641.png,Quigley_IL_60641.png
R000122,401-943-3100,Cranston,02920,2017/01/15/154javda3w_Reed_RI_02920.png,Reed_RI_02920.png
R000122,401-528-5200,Providence,02903-1744,2017/01/15/6casbxfnuq_Reed_RI_02903_1744.png,Reed_RI_02903-1744.png
R000307,620-227-2244,Dodge City,67801,2017/01/15/7kok0dzug2_Roberts_KS_67801.png,Roberts_KS_67801.png
R000307,785-295-2745,Topeka,66683,2017/01/15/9t9s85r2t9_Roberts_KS_66683.png,Roberts_KS_66683.png
R000570,608-752-4050,Janesville,53545,2017/01/15/4ooidn2wce_Ryan_WI_53545.png,Ryan_WI_53545.png
R000575,334-745-6221,Opelika,36801,2017/01/15/3948qzn23z_Rogers_AL_36801.png,Rogers_AL_36801.png
R000576,410-628-2701,Timonium,21093,2017/01/15/uki1panb7_Ruppersberger_MD_21093.png,Ruppersberger_MD_21093.png
R000578,877-920-9208,Issaquah,98029,2017/01/15/12gx8tl25j_Reichert_WA_98029.png,Reichert_WA_98029.png
R000395,606-886-0844,Prestonsburg,41653,2017/01/15/9ot8v7ivq7_Rogers_KY_41653.png,Rogers_KY_41653.png
R000395,800-632-8588,Somerset,42503,2017/01/15/2iqj0fgap4_Rogers_KY_42503.png,Rogers_KY_42503.png
R000409,714-960-6483,Huntington Beach,92648,2017/01/15/8qm2jwub09_Rohrabacher_CA_92648.png,Rohrabacher_CA_92648.png
R000486,323-721-8790,Commerce,90040,2017/01/15/d9pwez5dx_Roybal_Allard_CA_90040.png,Roybal-Allard_CA_90040.png
R000487,714-255-0101,Brea,92821,2017/01/15/2gr9m1qtwl_Royce_CA_92821.png,Royce_CA_92821.png
R000515,773-779-2400,Chicago,60643-4732,2017/01/15/1q1i64e71m_Rush_IL_60643_4732.png,Rush_IL_60643-4732.png
R000570,262-637-0510,Racine,53403,2017/01/15/6mc3o4f2g2_Ryan_WI_53403.png,Ryan_WI_53403.png
R000575,256-236-5655,Anniston,36201,2017/01/15/4qy5dt6pk1_Rogers_AL_36201.png,Rogers_AL_36201.png
R000577,330-630-7311,Akron,44310,2017/01/15/2yvhbx3nqz_Ryan_OH_44310.png,Ryan_OH_44310.png
R000577,330-740-0193,Youngstown,44503,2017/01/15/57ripfkj8e_Ryan_OH_44503.png,Ryan_OH_44503.png
R000584,208-667-6130,Coeur d'Alene,83814,2017/01/15/1ry3d06gmo_Risch_ID_83814.png,Risch_ID_83814.png
R000580,630-232-0006,West Chicago,60185,2017/01/15/1jqd39794w_Roskam_IL_60185.png,Roskam_IL_60185.png
R000582,423-247-8161,Kingsport,37660,2017/01/15/1md2k4juc2_Roe_TN_37660.png,Roe_TN_37660.png
R000583,863-402-9082,Okeechobee,34972,2017/01/15/35q20ssoi0_Rooney_FL_34972.png,Rooney_FL_34972.png
R000583,941-575-9101,Punta Gorda,33950,2017/01/15/63eiz7btzn_Rooney_FL_33950.png,Rooney_FL_33950.png
R000584,208-342-7985,Boise,83702,2017/01/15/8a4pdwjbnu_Risch_ID_83702.png,Risch_ID_83702.png
R000584,208-523-5541,Idaho Falls,83402,2017/01/15/2u0seifuxf_Risch_ID_83402.png,Risch_ID_83402.png
R000584,208-743-0792,Lewiston,83501,2017/01/15/6vy2un0irh_Risch_ID_83501.png,Risch_ID_83501.png
R000584,208-734-6780,Twin Falls,83301,2017/01/15/lv480amj5_Risch_ID_83301.png,Risch_ID_83301.png
R000585,607-654-7566,Corning,14830,2017/01/15/3kv0npbuee_Reed_NY_14830.png,Reed_NY_14830.png
R000585,607-222-2027,Ithaca,14850,2017/01/15/8jaqxekoyo_Reed_NY_14850.png,Reed_NY_14850.png
R000585,716-708-6369,Jamestown,14701,2017/01/15/8sox6z73nc_Reed_NY_14701.png,Reed_NY_14701.png
R000586,440-882-6779,Parma,44129,2017/01/15/1mv8z5v7ga_Renacci_OH_44129.png,Renacci_OH_44129.png
R000595,850-433-2603,Pensacola,32502,2017/01/15/8uh3y3rs5q_Rubio_FL_32502.png,Rubio_FL_32502.png
R000588,225-636-5600,Baton Rouge,70802,2017/01/15/10jc2nik97_Richmond_LA_70802.png,Richmond_LA_70802.png
R000588,504-288-3777,New Orleans,70122,2017/01/15/7nkffohvzs_Richmond_LA_70122.png,Richmond_LA_70122.png
R000591,334-428-1129,Andalusia,36420,2017/01/15/7zp9ur5j6h_Roby_AL_36420.png,Roby_AL_36420.png
R000591,334-262-7718,Montgomery,36104,2017/01/15/4mc3y5nuqi_Roby_AL_36104.png,Roby_AL_36104.png
R000592,317-718-0404,Danville,46122,2017/01/15/6aoprvpiot_Rokita_IN_46122.png,Rokita_IN_46122.png
R000593,863-644-8215,Lakeland,33813,2017/01/15/70wzpb1prj_Ross_FL_33813.png,Ross_FL_33813.png
R000593,813-752-4790,Plant City,33563,2017/01/15/4awnz4uaka_Ross_FL_33563.png,Ross_FL_33563.png
R000595,904-398-8586,Jacksonville,32207,2017/01/15/1xhjvbdx57_Rubio_FL_32207.png,Rubio_FL_32207.png
R000595,239-213-1521,Naples,34112,2017/01/15/3twviqg5al_Rubio_FL_34112.png,Rubio_FL_34112.png
R000595,561-775-3360,Palm Beach Gardens,33418,2017/01/15/31m9yffsr0_Rubio_FL_33418.png,Rubio_FL_33418.png
R000595,850-599-9100,Tallahassee,32399,2017/01/15/103mnu3sk7_Rubio_FL_32399.png,Rubio_FL_32399.png
R000597,"","",29577,2017/01/15/2oenxjle1i_Rice_SC_29577.png,Rice_SC_29577.png
R000597,843-679-9781,Florence,29501,2017/01/15/90y17w9vmm_Rice_SC_29501.png,Rice_SC_29501.png
R000599,951-765-2304,Hemet,92543,2017/01/15/ooyxowpxb_Ruiz_CA_92543.png,Ruiz_CA_92543.png
R000599,760-424-8888,Palm Desert,92211,2017/01/15/9c7po424u7_Ruiz_CA_92211.png,Ruiz_CA_92211.png
R000600,684-633-3601,Pago Pago,96799,2017/01/15/5l3487vts7_Amata_AS_96799.png,Amata_AS_96799.png
R000598,814-619-3659,Johnstown,15901,2017/01/15/24ty125qbu_Rothfus_PA_15901.png,Rothfus_PA_15901.png
R000598,412-837-1361,Pittsburgh,15237,2017/01/15/95gg8y3sjk_Rothfus_PA_15237.png,Rothfus_PA_15237.png
R000601,972-771-0100,Rockwall,75032,2017/01/15/7gwy4sh3ps_Ratcliffe_TX_75032.png,Ratcliffe_TX_75032.png
R000601,903-813-5270,Sherman,75090,2017/01/15/3y8952lvtt_Ratcliffe_TX_75090.png,Ratcliffe_TX_75090.png
R000602,516-739-3008,"Garden City,",11530,2017/01/15/8f41psp2s_Rice_NY_11530.png,Rice_NY_11530.png
R000603,910-253-6111,Bolivia,28422,2017/01/15/4n6kjm1au4_Rouzer_NC_28422.png,Rouzer_NC_28422.png
R000603,919-938-3040,Four Oaks,27524,2017/01/15/7jpqmpoho9_Rouzer_NC_27524.png,Rouzer_NC_27524.png
R000604,405-602-3074,"Del City,",73115,2017/01/15/yzxr537hd_Russell_OK_73115.png,Russell_OK_73115.png
R000605,605-225-0366,Aberdeen,57401,2017/01/15/9iwn9jx3h_Rounds_SD_57401.png,Rounds_SD_57401.png
R000605,605-224-1450,Pierre,57501,2017/01/15/1n5ubmjl2u_Rounds_SD_57501.png,Rounds_SD_57501.png
R000605,605-336-0486,Sioux Falls,57104,2017/01/15/39l2ejxn5o_Rounds_SD_57104.png,Rounds_SD_57104.png
S000033,802-748-9269,St. Johnsbury,05819,2017/01/15/g7u64j405_Sanders_VT_05819.png,Sanders_VT_05819.png
S000051,843-521-2530,Beaufort,29902,2017/01/15/8930u1ai2x_Sanford_SC_29902.png,Sanford_SC_29902.png
S000148,585-263-5866,"",14614,2017/01/15/2d3hlhcnmt_Schumer_NY_14614.png,Schumer_NY_14614.png
S000148,518-431-4070,Albany,12207,2017/01/15/9kywwrsf7s_Schumer_NY_12207.png,Schumer_NY_12207.png
S000148,716-846-4111,Buffalo,14202,2017/01/15/1bhj2w0bn0_Schumer_NY_14202.png,Schumer_NY_14202.png
S000148,631-753-0978,Melville,11747,2017/01/15/47h606jqmr_Schumer_NY_11747.png,Schumer_NY_11747.png
S000148,212-486-4430,New York,10017,2017/01/15/9d7koatx7e_Schumer_NY_10017.png,Schumer_NY_10017.png
S000148,315-423-5471,Syracuse,13261,2017/01/15/3eb8ngd0wm_Schumer_NY_13261.png,Schumer_NY_13261.png
S000185,757-380-1000,Newport News,23607,2017/01/15/1h740x2s80_Scott_VA_23607.png,Scott_VA_23607.png
S000244,262-784-1111,Brookfield,53005-6294,2017/01/15/3fcoabne26_Sensenbrenner_WI_53005_6294.png,Sensenbrenner_WI_53005-6294.png
S000250,972-392-0505,Dallas,75251-1229,2017/01/15/7dzxomp8eb_Sessions_TX_75251_1229.png,Sessions_TX_75251-1229.png
S000320,205-731-1384,Birmingham,35203,2017/01/15/2slzoaiftp_Shelby_AL_35203.png,Shelby_AL_35203.png
S000320,251-694-4164,Mobile,36602,2017/01/15/2ud1sl1ai4_Shelby_AL_36602.png,Shelby_AL_36602.png
S000364,217-446-0664,Danville,61832,2017/01/15/17msmfms08_Shimkus_IL_61832.png,Shimkus_IL_61832.png
S000364,618-288-7190,Maryville,62062,2017/01/15/6fzyicla8l_Shimkus_IL_62062.png,Shimkus_IL_62062.png
S000510,425-793-5180,Renton,98057,2017/01/15/76sjmlvnb1_Smith_WA_98057.png,Smith_WA_98057.png
S000510,"",Seattle,98118,2017/01/15/71b927jjy1_Smith_WA_98118.png,Smith_WA_98118.png
S000510,"",Seattle,98144,2017/01/15/6tcm8mgxks_Smith_WA_98144.png,Smith_WA_98144.png
S000344,818-501-9200,Sherman Oaks,91403,2017/01/15/7vjsay9o3y_Sherman_CA_91403.png,Sherman_CA_91403.png
S000364,618-252-8271,Harrisburg,62946,2017/01/15/1k29dmse2p_Shimkus_IL_62946.png,Shimkus_IL_62946.png
S000510,"",Bellevue,98007,2017/01/15/v09hkgvla_Smith_WA_98007.png,Smith_WA_98007.png
S000510,425-793-5180,Federal Way,98003,2017/01/15/6yhbamisei_Smith_WA_98003.png,Smith_WA_98003.png
S001177,670-323-2647,Saipan,96950,2017/01/15/2goptgfgxd_Sablan_MP_96950.png,Sablan_MP_96950.png
S000510,"",Mercer Island,98040,2017/01/15/45vjbzf32e_Smith_WA_98040.png,Smith_WA_98040.png
S000510,202-225-8901,Seattle,98144,2017/01/15/6p9fzdbp5a_Smith_WA_98144.png,Smith_WA_98144.png
S000522,732-780-3035,Freehold,07728,2017/01/15/2jktlxvwjw_Smith_NJ_07728.png,Smith_NJ_07728.png
S000522,609-286-2571,Plumsted,08514,2017/01/15/1di66vtdbw_Smith_NJ_08514.png,Smith_NJ_08514.png
S000583,210-821-5024,San Antonio,78209,2017/01/15/1hu6yj7j08_Smith_TX_78209.png,Smith_TX_78209.png
S000770,313-961-4330,Detroit,48226,2017/01/15/6irjqhz60h_Stabenow_MI_48226.png,Stabenow_MI_48226.png
S000770,517-203-1760,East Lansing,48823,2017/01/15/635mp6339j_Stabenow_MI_48823.png,Stabenow_MI_48823.png
S000770,616-975-0052,Grand Rapids,49525,2017/01/15/5r74yrz9lp_Stabenow_MI_49525.png,Stabenow_MI_49525.png
S000770,906-228-8756,Marquette,49855,2017/01/15/146uq05fuk_Stabenow_MI_49855.png,Stabenow_MI_49855.png
S000770,231-929-1031,Traverse City,49684,2017/01/15/2b60kaxh5t_Stabenow_MI_49684.png,Stabenow_MI_49684.png
S001141,334-792-4924,Dothan,36303,2017/01/15/544qcihm9u_Sessions_AL_36303.png,Sessions_AL_36303.png
S001141,256-533-0979,Huntsville,35801,2017/01/15/66ma9mni3b_Sessions_AL_35801.png,Sessions_AL_35801.png
S001145,847-328-3409,"",60025,2017/01/15/3hv3xalrp_Schakowsky_IL_60025.png,Schakowsky_IL_60025.png
S001145,773-506-7100,Chicago,60640,2017/01/15/28mm8rfec6_Schakowsky_IL_60640.png,Schakowsky_IL_60640.png
S001148,208-334-1953,Boise,83702,2017/01/15/1syh6u08sj_Simpson_ID_83702.png,Simpson_ID_83702.png
S001148,208-523-6701,Idaho Falls,83402,2017/01/15/2jc0jjhxk7_Simpson_ID_83402.png,Simpson_ID_83402.png
S001150,818-450-2900,Burbank,91502,2017/01/15/2ds8fbg6wp_Schiff_CA_91502.png,Schiff_CA_91502.png
S001150,323-315-5555,Los Angeles,90028,2017/01/15/5y2ly1dqxx_Schiff_CA_90028.png,Schiff_CA_90028.png
S001154,717-264-8308,Chambersburg,17201,2017/01/15/7e2w4j4zp0_Shuster_PA_17201.png,Shuster_PA_17201.png
S001154,724-463-0516,Indiana,15701,2017/01/15/5yy6zfgz7t_Shuster_PA_15701.png,Shuster_PA_15701.png
S001156,562-860-5050,Norwalk,90650,2017/01/15/2pmpjbwhvw_S_nchez_CA_90650.png,Sánchez_CA_90650.png
S001157,770-432-5405,Smyma,30080,2017/01/15/93aw1jsaeb_Scott_GA_30080.png,Scott_GA_30080.png
S001165,908-820-0692,Elizabeth,07201,2017/01/15/3yzlvwaqdm_Sires_NJ_07201.png,Sires_NJ_07201.png
S001165,201-309-0301,Jersey City,07302,2017/01/15/6wterqatb9_Sires_NJ_07302.png,Sires_NJ_07302.png
S001168,410-295-1679,Annapolis,21401,2017/01/15/1wo1pgnv2_Sarbanes_MD_21401.png,Sarbanes_MD_21401.png
S001168,301-421-4078,Burtonsville,20866,2017/01/15/64pr4bsu74_Sarbanes_MD_20866.png,Sarbanes_MD_20866.png
S001170,888-216-5373,Dover,03820,2017/01/15/5bgvzcnowp_Shea_Porter_NH_03820.png,Shea-Porter_NH_03820.png
S001172,308-384-3900,Grand Island,68803,2017/01/15/9jlymkdnal_Smith_NE_68803.png,Smith_NE_68803.png
S001175,650-342-0300,San Mateo,94402,2017/01/15/2mcccbye9y_Speier_CA_94402.png,Speier_CA_94402.png
S001176,985-340-2185,Hammond,70401,2017/01/15/3jzseorjiu_Scalise_LA_70401.png,Scalise_LA_70401.png
S001180,503-557-1324,Oregon,97045,2017/01/15/8za0hqrhy4_Schrader_OR_97045.png,Schrader_OR_97045.png
S001180,503-588-9100,Salem,97301,2017/01/15/67zzidh289_Schrader_OR_97301.png,Schrader_OR_97301.png
S001181,603-752-6300,Berlin,03570,2017/01/15/4xo506xrir_Shaheen_NH_03570.png,Shaheen_NH_03570.png
S001181,603-542-4872,Claremont,03743,2017/01/15/8j7wys3cou_Shaheen_NH_03743.png,Shaheen_NH_03743.png
S001176,504-837-1259,Metairie,70005,2017/01/15/4wjtnbm6bw_Scalise_LA_70005.png,Scalise_LA_70005.png
S001177,670-532-2647,Rota,96951,2017/01/15/4caekwh94h_Sablan_MP_96951.png,Sablan_MP_96951.png
S001177,670-433-2647,Tinian,96952,2017/01/15/1pdt1850lr_Sablan_MP_96952.png,Sablan_MP_96952.png
S001181,603-750-3004,Dover,03820,2017/01/15/622xq1kw7d_Shaheen_NH_03820.png,Shaheen_NH_03820.png
S001181,603-358-6604,Keene,03431,2017/01/15/526zaxtm8v_Shaheen_NH_03431.png,Shaheen_NH_03431.png
S001181,603-883-0196,Nashua,03060,2017/01/15/5h14a5lg4j_Shaheen_NH_03060.png,Shaheen_NH_03060.png
S001183,480-946-2411,Scottsdale,85260,2017/01/15/6aq3skpsz8_Schweikert_AZ_85260.png,Schweikert_AZ_85260.png
S001184,803-771-6112,Columbia,29201,2017/01/15/5cz8onvj5q_Scott_SC_29201.png,Scott_SC_29201.png
S001184,843-727-4525,North Charleston,29406,2017/01/15/5nwn4rj695_Scott_SC_29406.png,Scott_SC_29406.png
S001185,334-877-4414,112Selma,36701,2017/01/15/7z4i11sw96_Sewell_AL_36701.png,Sewell_AL_36701.png
S001185,205-752-5380,Tuscaloosa,35401,2017/01/15/5o7w1yzr3y_Sewell_AL_35401.png,Sewell_AL_35401.png
S001187,740-654-2654,Lancaster,43130,2017/01/15/919etq3nko_Stivers_OH_43130.png,Stivers_OH_43130.png
S001187,937-283-7049,Wilmington,45177,2017/01/15/2ejeo2tffs_Stivers_OH_45177.png,Stivers_OH_45177.png
S001189,229-396-5175,Tifton,31794,2017/01/15/80w5evszfj_Scott_GA_31794.png,Scott_GA_31794.png
S001190,"",Lincolnshire,60069,2017/01/15/13ti3k6lk3_Schneider_IL_60069.png,Schneider_IL_60069.png
S001191,602-956-2285,Phoenix,85018,2017/01/15/1zntu7q8i3_Sinema_AZ_85018.png,Sinema_AZ_85018.png
S001192,435-627-1500,St. George,84770,2017/01/15/wjqio6yvh_Stewart_UT_84770.png,Stewart_UT_84770.png
S001193,510-370-3322,"Castro Valley, CA",94546,2017/01/15/4ldry2hbcr_Swalwell_CA_94546.png,Swalwell_CA_94546.png
S001194,808-523-2061,Honolulu,96850,2017/01/15/7prx8mpmgm_Schatz_HI_96850.png,Schatz_HI_96850.png
S001195,573-756-9755,Farmington,63640,2017/01/15/2h0shvms1q_Smith_MO_63640.png,Smith_MO_63640.png
S001195,"",Poplar Bluff,63901,2017/01/15/4v0boxxvtb_Smith_MO_63901.png,Smith_MO_63901.png
S001195,417-255-1515,West Plains,65775,2017/01/15/9ch2173h2y_Smith_MO_65775.png,Smith_MO_65775.png
S001196,518-743-0964,Glens Falls,12801,2017/01/15/5u563xfvno_Stefanik_NY_12801.png,Stefanik_NY_12801.png
S001196,518-561-2324,Plattsburgh,12901,2017/01/15/538tvvpe1n_Stefanik_NY_12901.png,Stefanik_NY_12901.png
S001198,907-271-5915,Anchorage,99501,2017/01/15/56wxpvmk6a_Sullivan_AK_99501.png,Sullivan_AK_99501.png
T000193,662-335-9003,Greenville,38701,2017/01/15/4s6mnfxnb1_Thompson_MS_38701.png,Thompson_MS_38701.png
S001197,402-476-1400,Lincoln,68508,2017/01/15/8fyk9zrf90_Sasse_NE_68508.png,Sasse_NE_68508.png
S001197,308-632-6032,Scottsbluff,69361,2017/01/15/1c4myekiea_Sasse_NE_69361.png,Sasse_NE_69361.png
S001198,907-456-0261,Fairbanks,99701,2017/01/15/16tu9exopl_Sullivan_AK_99701.png,Sullivan_AK_99701.png
S001198,907-283-4000,Kenai,99611,2017/01/15/7qeq8to2r_Sullivan_AK_99611.png,Sullivan_AK_99611.png
S001198,907-225-6880,Ketchikan,99901,2017/01/15/4wtwwoxv0r_Sullivan_AK_99901.png,Sullivan_AK_99901.png
S001198,907-357-9956,"Wasilla,",99654,2017/01/15/ygkgp3rcj_Sullivan_AK_99654.png,Sullivan_AK_99654.png
S001200,"","Kissimmee, FL",34741,2017/01/15/j9rkktjk3_Soto_FL_34741.png,Soto_FL_34741.png
T000193,601-866-9003,Bolton,39041,2017/01/15/5iv1utjxzx_Thompson_MS_39041.png,Thompson_MS_39041.png
T000193,662-455-9003,Greenwood,38930,2017/01/15/62vimnwv8x_Thompson_MS_38930.png,Thompson_MS_38930.png
T000193,601-946-9003,Jackson,39213,2017/01/15/8g77qz012g_Thompson_MS_39213.png,Thompson_MS_39213.png
T000193,662-741-9003,Mound Bayou,38762,2017/01/15/nivcp4zop_Thompson_MS_38762.png,Thompson_MS_38762.png
W000797,305-936-5724,Aventura,33180,2017/01/15/90ahprzmw1_Wasserman_Schultz_FL_33180.png,Wasserman Schultz_FL_33180.png
T000250,605-225-8823,"Aberdeen, SD",57401,2017/01/15/4ako1hs8l1_Thune_SD_57401.png,Thune_SD_57401.png
T000250,605-348-7551,Rapid City,57701,2017/01/15/1rw76eask6_Thune_SD_57701.png,Thune_SD_57701.png
T000238,940-692-1700,Wichita Falls,76308,2017/01/15/7q81mcwhqd_Thornberry_TX_76308.png,Thornberry_TX_76308.png
T000250,605-334-9596,Sioux Falls,57108,2017/01/15/1v6fe8we0d_Thune_SD_57108.png,Thune_SD_57108.png
T000460,707-226-9898,Napa,94558,2017/01/15/8yuqrsdvl2_Thompson_CA_94558.png,Thompson_CA_94558.png
T000460,707-645-1888,Vallejo,94592,2017/01/15/j9g1azspu_Thompson_CA_94592.png,Thompson_CA_94592.png
T000461,814-453-3010,Erie,16501,2017/01/15/58r3x0f3mj_Toomey_PA_16501.png,Toomey_PA_16501.png
T000463,937-225-2843,"Dayton, OH",45402,2017/01/15/7xtevnbm1n_Turner_OH_45402.png,Turner_OH_45402.png
T000464,406-252-0550,Billings,59101,2017/01/15/8luzdug8d2_Tester_MT_59101.png,Tester_MT_59101.png
T000464,406-586-4450,Bozeman,59715,2017/01/15/9s92pmvfvt_Tester_MT_59715.png,Tester_MT_59715.png
T000464,406-723-3277,Butte,59701,2017/01/15/19414avcmu_Tester_MT_59701.png,Tester_MT_59701.png
T000464,402-452-9585,Great falls,59401,2017/01/15/243do8yaqv_Tester_MT_59401.png,Tester_MT_59401.png
T000464,406-449-5401,Helena,59601,2017/01/15/5tdg01qd4j_Tester_MT_59601.png,Tester_MT_59601.png
T000465,978-459-0101,Lawrence,01852,2017/01/15/5ybskreyuf_Tsongas_MA_01852.png,Tsongas_MA_01852.png
T000465,978-459-0101,Lowell,01852,2017/01/15/5m64fnr7ry_Tsongas_MA_01852.png,Tsongas_MA_01852.png
T000467,814-353-0215,Bellefonte,16823,2017/01/15/3i4jfeu8xi_Thompson_PA_16823.png,Thompson_PA_16823.png
T000467,814-827-3985,Titusville,16354,2017/01/15/6i6kwkxow4_Thompson_PA_16354.png,Thompson_PA_16354.png
T000469,518-465-0700,Albany,12210,2017/01/15/20pxt89ul5_Tonko_NY_12210.png,Tonko_NY_12210.png
T000469,518-843-3400,Amsterdam,12010,2017/01/15/5d4pn3l5i8_Tonko_NY_12010.png,Tonko_NY_12010.png
T000469,518-374-4547,Schenectady,12305,2017/01/15/1ybr59dd1a_Tonko_NY_12305.png,Tonko_NY_12305.png
T000470,970-259-1490,Durango,81301,2017/01/15/5crrwkday2_Tipton_CO_81301.png,Tipton_CO_81301.png
T000470,970-241-2499,Grand Junction,81501,2017/01/15/5z6lw4mp1a_Tipton_CO_81501.png,Tipton_CO_81501.png
T000472,951-222-0202,Riverside,92501,2017/01/15/8h08ddnha1_Takano_CA_92501.png,Takano_CA_92501.png
T000474,909-481-6474,Ontario,91764,2017/01/15/8wanx9yd9c_Torres_CA_91764.png,Torres_CA_91764.png
T000476,704-509-9087,Charlotte,28269,2017/01/15/9rmtu6gse0_Tillis_NC_28269.png,Tillis_NC_28269.png
T000476,252-329-0371,Greenville,27858,2017/01/15/2j6n9c6g43_Tillis_NC_27858.png,Tillis_NC_27858.png
U000031,269-982-1986,St. Joseph,49085,2017/01/15/3aqccz6dwr_Upton_MI_49085.png,Upton_MI_49085.png
V000108,219-795-1844,Merrillville,46410,2017/01/15/86dinuwsqx_Visclosky_IN_46410.png,Visclosky_IN_46410.png
V000129,661-864-7736,Bakersfield,93301,2017/01/15/94sw26kn9u_Valadao_CA_93301.png,Valadao_CA_93301.png
V000129,559-582-5526,Hanford,93230,2017/01/15/8ky1ogkc6w_Valadao_CA_93230.png,Valadao_CA_93230.png
T000476,919-856-4630,Raleigh,27601,2017/01/15/7rnb35ow2e_Tillis_NC_27601.png,Tillis_NC_27601.png
U000031,269-385-0039,Kalamazoo,49007,2017/01/15/4tkwnev291_Upton_MI_49007.png,Upton_MI_49007.png
U000039,575-234-0366,Carlsbad,88220,2017/01/15/7z32lr0tkw_Udall_NM_88220.png,Udall_NM_88220.png
U000039,575-356-6811,Portales,88130,2017/01/15/35z8sksg88_Udall_NM_88130.png,Udall_NM_88130.png
U000039,510-988-6511,Santa Fe,87501,2017/01/15/za7ggltt5_Udall_NM_87501.png,Udall_NM_87501.png
V000081,212-619-2606,New York,10007,2017/01/15/5tsolxjrke_Vel_zquez_NY_10007.png,Velázquez_NY_10007.png
V000130,619-422-5963,Chula Vista,91910,2017/01/15/3ba4uq02uh_Vargas_CA_91910.png,Vargas_CA_91910.png
W000797,954-437-3936,Pembroke Pines,33026,2017/01/15/82888x818x_Wasserman_Schultz_FL_33026.png,Wasserman Schultz_FL_33026.png
W000798,517-780-9075,Jackson,49201,2017/01/15/9mrbck4u7a_Walberg_MI_49201.png,Walberg_MI_49201.png
W000805,757-441-3079,Norfolk,23510,2017/01/15/920wa8j53v_Warner_VA_23510.png,Warner_VA_23510.png
W000802,401-453-5294,Providence,02903,2017/01/15/50s82ndljp_Whitehouse_RI_02903.png,Whitehouse_RI_02903.png
W000804,804-443-0668,Tappahannock,22560,2017/01/15/4tbuwqvk5y_Wittman_VA_22560.png,Wittman_VA_22560.png
W000805,276-628-8158,Abingdon,24210,2017/01/15/133jno48c0_Warner_VA_24210.png,Warner_VA_24210.png
W000805,804-775-2314,Richmond,23219,2017/01/15/3ka18uzati_Warner_VA_23219.png,Warner_VA_23219.png
W000805,540-857-2676,Roanoke,24011,2017/01/15/1iv6lilzuy_Warner_VA_24011.png,Warner_VA_24011.png
W000805,703-442-0670,Vienna,22182,2017/01/15/xgdn9g86a_Warner_VA_22182.png,Warner_VA_22182.png
W000806,"",The Villages,32162,2017/01/15/5wu8y4gvin_Webster_FL_32162.png,Webster_FL_32162.png
W000808,305-690-5905,Miami Gardens,33169,2017/01/15/3qjv8uipvv_Wilson_FL_33169.png,Wilson_FL_33169.png
W000808,954-602-4357,Mirama,33025,2017/01/15/8mubr6j51n_Wilson_FL_33025.png,Wilson_FL_33025.png
W000809,479-424-1146,Fort Smith,72902,2017/01/15/1w030k1m65_Womack_AR_72902.png,Womack_AR_72902.png
W000809,870-741-6900,Harrison,72601,2017/01/15/59uq99r5gb_Womack_AR_72601.png,Womack_AR_72601.png
W000810,770-232-3005,Lawrenceville,30046-6935,2017/01/15/5koff15t8x_Woodall_GA_30046_6935.png,Woodall_GA_30046-6935.png
W000816,817-774-2575,Cleburne,76033,2017/01/15/2yo80apcc2_Williams_TX_76033.png,Williams_TX_76033.png
W000813,574-223-4373,Rochester,46975,2017/01/15/4868zjknoj_Walorski_IN_46975.png,Walorski_IN_46975.png
W000814,409-835-0108,Beaumont,77701,2017/01/15/5rg2qs6igp_Weber_TX_77701.png,Weber_TX_77701.png
W000814,979-285-0271,Lake Jackson,77566,2017/01/15/5mp41st5u_Weber_TX_77566.png,Weber_TX_77566.png
W000815,"",Cincinnati,45245,2017/01/15/8f2q4twhk_Wenstrup_OH_45245.png,Wenstrup_OH_45245.png
W000815,513-474-7777,Cincinnati,45255,2017/01/15/3f6mig21tg_Wenstrup_OH_45255.png,Wenstrup_OH_45255.png
W000816,512-473-8910,Austin,78701,2017/01/15/7hl9v4waiy_Williams_TX_78701.png,Williams_TX_78701.png
W000817,617-565-3170,Boston,02203,2017/01/15/7h7q411mr9_Warren_MA_02203.png,Warren_MA_02203.png
W000817,413-788-2690,Springfield,01103,2017/01/15/7tkh8tf8py_Warren_MA_01103.png,Warren_MA_01103.png
W000819,336-333-5005,Greensboro,27408,2017/01/15/5qul4nsh44_Walker_NC_27408.png,Walker_NC_27408.png
W000821,870-864-8946,El Dorado,71730,2017/01/15/3jkcbwvw06_Westerman_AR_71730.png,Westerman_AR_71730.png
W000821,501-609-9796,Hot Springs,71901,2017/01/15/2p1jtydbup_Westerman_AR_71901.png,Westerman_AR_71901.png
W000821,479-667-0075,Ozark,72949,2017/01/15/9fcjd7qt4k_Westerman_AR_72949.png,Westerman_AR_72949.png
W000822,609-883-0026,Ewing,08628,2017/01/15/9hqsonffrv_Watson_Coleman_NJ_08628.png,Watson Coleman_NJ_08628.png
Y000065,352-505-0838,Gainesville,32606,2017/01/15/5fp1ohub8b_Yoho_FL_32606.png,Yoho_FL_32606.png
Y000033,907-271-5978,Anchorage,99503,2017/01/15/3s3490itj8_Young_AK_99503.png,Young_AK_99503.png
Y000062,502-582-5129,Louisville,40202,2017/01/15/68vp7do1jd_Yarmuth_KY_40202.png,Yarmuth_KY_40202.png
Y000063,913-621-0832,Overland Park,66204,2017/01/15/7v0790ip0m_Yoder_KS_66204.png,Yoder_KS_66204.png
Y000066,712-325-1404,Council Bluffs,51503,2017/01/15/vvy5eyrr1_Young_IA_51503.png,Young_IA_51503.png
Y000066,641-782-2495,Creston,50801,2017/01/15/84po8qbgm4_Young_IA_50801.png,Young_IA_50801.png
Z000017,631-209-4235,"",11901,2017/01/15/7jwe2jsc5p_Zeldin_NY_11901.png,Zeldin_NY_11901.png
Z000017,631-289-1097,Patchogue,11772,2017/01/15/rn4y0yvet_Zeldin_NY_11772.png,Zeldin_NY_11772.png
Z000018,406-969-1736,Billings,59101,2017/01/15/onto4r55s_Zinke_MT_59101.png,Zinke_MT_59101.png
Z000018,406-502-1435,Helena,59601,2017/01/15/471zomxxpa_Zinke_MT_59601.png,Zinke_MT_59601.png
Z000018,406-540-4370,Missoula,59801,2017/01/15/348ekhuuqi_Zinke_MT_59801.png,Zinke_MT_59801.png
B000944,614-469-2083,Columbus,43215,2017/01/15/4q0xygm60h_Brown_OH_43215.png,Brown_OH_43215.png
B000490,229-439-8067,Albany,31701,2017/01/15/3jnha0jtxc_Bishop_GA_31701.png,Bishop_GA_31701.png
B000490,478-803-2631,Macon,31201,2017/01/15/6jz3ghj6ga_Bishop_GA_31201.png,Bishop_GA_31201.png
B000575,573-334-7044,Cape Girardeau,63703,2017/01/15/4gd2nlf6pb_Blunt_MO_63703.png,Blunt_MO_63703.png
B000575,314-725-4484,Clayton,63105,2017/01/15/5hvyg0amd0_Blunt_MO_63105.png,Blunt_MO_63105.png
B000575,573-442-8151,Columbia,65201,2017/01/15/36txw890f2_Blunt_MO_65201.png,Blunt_MO_65201.png
B000575,417-877-7814,Springfield,65804,2017/01/15/5uf62wl5gc_Blunt_MO_65804.png,Blunt_MO_65804.png
K000392,"",Martin,38237,2017/01/15/55dfoxwxju_Kustoff_TN_38237.png,Kustoff_TN_38237.png
B000490,706-320-9477,Columbus,31901,2017/01/15/20trb633p5_Bishop_GA_31901.png,Bishop_GA_31901.png
K000383,207-622-8292,Augusta,04330,2017/01/15/6j2jpn0vp7_King_ME_04330.png,King_ME_04330.png
K000383,207-945-8000,Bangor,04401,2017/01/15/62495vyrqd_King_ME_04401.png,King_ME_04401.png
B001285,805-379-1779,Thousand Oaks,91360,2017/01/15/hs53fs7m4_Brownley_CA_91360.png,Brownley_CA_91360.png
B000287,213-481-1425,Los Angeles,90017,2017/01/15/8ccwxc7ixf_Becerra_CA_90017.png,Becerra_CA_90017.png
W000812,636-779-5449,Ballwin,63011,2017/01/15/1gi5mhycub_Wagner_MO_63011.png,Wagner_MO_63011.png
C000174,302-856-7690,Georgetown,19947,2017/01/15/1vgx9jxb9u_Carper_DE_19947.png,Carper_DE_19947.png
K000383,207-764-5124,Presque Isle,04769,2017/01/15/1n2ajy493w_King_ME_04769.png,King_ME_04769.png
K000383,207-883-1588,Scarborough,04074,2017/01/15/7ps9t8d70w_King_ME_04074.png,King_ME_04074.png
M001199,"",Stuart,34994,2017/01/15/1zlc045h4u_Mast_FL_34994.png,Mast_FL_34994.png
D000216,203-562-3718,New Haven,06510,2017/01/15/53e66rbhvg_DeLauro_CT_06510.png,DeLauro_CT_06510.png
V000130,760-312-9900,El Centro,92243,2017/01/15/67earapa42_Vargas_CA_92243.png,Vargas_CA_92243.png
R000607,"",Cape Coral,33990,2017/01/15/9k3x957hl3_Rooney_FL_33990.png,Rooney_FL_33990.png
F000454,815-280-5876,Joliet,60435,2017/01/15/1aqeawgdix_Foster_IL_60435.png,Foster_IL_60435.png
K000384,434-792-0976,Danville,24541,2017/01/15/5o3nbjyr8e_Kaine_VA_24541.png,Kaine_VA_24541.png
V000131,817-920-9086,Fort Worth,76112,2017/01/15/2cjpf444c_Veasey_TX_76112.png,Veasey_TX_76112.png
L000174,802-863-2525,Burlington,05401,2017/01/15/5ddqdx0roq_Leahy_VT_05401.png,Leahy_VT_05401.png
H001065,919-782-4400,Raleigh,27612,2017/01/15/10qc4dyue1_Holding_NC_27612.png,Holding_NC_27612.png
K000384,703-361-3192,Manassas,20110,2017/01/15/1h6lodnf4k_Kaine_VA_20110.png,Kaine_VA_20110.png
K000385,773-321-2001,Chicago,60617,2017/01/15/4prqehz183_Kelly_IL_60617.png,Kelly_IL_60617.png
M000355,859-578-0188,Fort Wright,41011,2017/01/15/2o4i8zju9d_McConnell_KY_41011.png,McConnell_KY_41011.png
V000132,956-276-4497,San Benito,78586,2017/01/15/2mew07sh1a_Vela_TX_78586.png,Vela_TX_78586.png
M001176,541-318-1298,Bend,97701,2017/01/15/1tmpnqiub4_Merkley_OR_97701.png,Merkley_OR_97701.png
W000187,323-757-8900,Los Angeles,90003,2017/01/15/560dyzh7pa_Waters_CA_90003.png,Waters_CA_90003.png
W000799,507-388-2149,Rochester,55901,2017/01/15/5snuledkk6_Walz_MN_55901.png,Walz_MN_55901.png
W000800,802-652-2450,Burlington,05401,2017/01/15/8rbnv8edlf_Welch_VT_05401.png,Welch_VT_05401.png
R000307,913-451-9343,Overland Park,66210,2017/01/15/8o9hpib9z3_Roberts_KS_66210.png,Roberts_KS_66210.png
W000437,228-871-7017,Gulfport,39501,2017/01/15/89l2aat222_Wicker_MS_39501.png,Wicker_MS_39501.png
W000437,601-965-4644,"Jackson, MS",39201,2017/01/15/4j84w03s9d_Wicker_MS_39201.png,Wicker_MS_39201.png
W000437,662-844-5010,Tupelo,38804,2017/01/15/4c9m6pqb46_Wicker_MS_38804.png,Wicker_MS_38804.png
W000779,541-431-0229,Eugene,97401,2017/01/15/7rokaszts3_Wyden_OR_97401.png,Wyden_OR_97401.png
T000460,707-542-7182,Santa Rosa,95403,2017/01/15/27spnxydxf_Thompson_CA_95403.png,Thompson_CA_95403.png
C001070,202-224-6324,Washington,20510,2017/01/15/8ui0r04hkn_Casey_DC_20510.png,Casey_DC_20510.png
C001056,202-224-2934,Washington,20510,2017/01/15/4rizwd7hfd_Cornyn_DC_20510.png,Cornyn_DC_20510.png
M001183,202-224-3954,Washington,20510,2017/01/15/3x9te3ezjd_Manchin_DC_20510.png,Manchin_DC_20510.png
B001227,202-225-4731,Washington,20515-3801,2017/01/15/30qul5zo7f_Brady_DC_20515_3801.png,Brady_DC_20515-3801.png
C001061,202-225-4535,Washington,20515-2505,2017/01/15/2cs649xqv9_Cleaver_DC_20515_2505.png,Cleaver_DC_20515-2505.png
C001038,202-225-3965,Washington,20515-3214,2017/01/15/5qbi3dblu_Crowley_DC_20515_3214.png,Crowley_DC_20515-3214.png
D000197,202-225-4431,Washington,20515-0601,2017/01/15/5jkhxpbgy4_DeGette_DC_20515_0601.png,DeGette_DC_20515-0601.png
F000459,202-225-3271,Washington,20515-4203,2017/01/15/9l1jdfkm8u_Fleischmann_DC_20515_4203.png,Fleischmann_DC_20515-4203.png
F000372,202-225-5034,Washington,20515-3011,2017/01/15/8wtw55pace_Frelinghuysen_DC_20515_3011.png,Frelinghuysen_DC_20515-3011.png
G000410,202-225-1688,Washington,20515-4329,2017/01/15/8ihylhhl56_Green_DC_20515_4329.png,Green_DC_20515-4329.png
I000055,202-224-3643,Washington,20510,2017/01/15/8y06ayy2ig_Isakson_DC_20510.png,Isakson_DC_20510.png
K000375,202-225-3111,Washington,20515-2109,2017/01/15/2ymejl3mek_Keating_DC_20515_2109.png,Keating_DC_20515-2109.png
L000567,202-225-5361,Washington,20515-3007,2017/01/15/7jyquks6tu_Lance_DC_20515_3007.png,Lance_DC_20515-3007.png
L000569,202-225-2956,Washington,20515-2503,2017/01/15/7nhw1rfeh1_Luetkemeyer_DC_20515_2503.png,Luetkemeyer_DC_20515-2503.png
M001160,202-225-4572,Washington,20515-4904,2017/01/15/2mfgp7zrg7_Moore_DC_20515_4904.png,Moore_DC_20515-4904.png
P000593,202-225-2645,Washington,20515-0607,2017/01/15/4nijnjnpgj_Perlmutter_DC_20515_0607.png,Perlmutter_DC_20515-0607.png
R000395,202-225-4601,Washington,20515-1705,2017/01/15/5ohbbiwqre_Rogers_DC_20515_1705.png,Rogers_DC_20515-1705.png
S001180,202-225-5711,Washington,20515-3705,2017/01/15/3t8pluebug_Schrader_DC_20515_3705.png,Schrader_DC_20515-3705.png
S000522,202-225-3765,Washington,20515-3004,2017/01/15/7nu2crrw2u_Smith_DC_20515_3004.png,Smith_DC_20515-3004.png
V000081,202-225-2361,Washington,20515-3207,2017/01/15/8x0mfd5w6k_Vel_zquez_DC_20515_3207.png,Velázquez_DC_20515-3207.png
A000369,202-225-6155,Washington,20515-2802,2017/01/15/8fgwxfp1ys_Amodei_DC_20515_2802.png,Amodei_DC_20515-2802.png
L000579,202-225-7924,Washington,20515-0547,2017/01/15/4r59qelffm_Lowenthal_DC_20515_0547.png,Lowenthal_DC_20515-0547.png
D000620,202-225-2721,Washington,20515-2006,2017/01/15/1sri7jb5j7_Delaney_DC_20515_2006.png,Delaney_DC_20515-2006.png
J000295,202-225-5731,Washington,20515-3514,2017/01/15/48m9oas0ra_Joyce_DC_20515_3514.png,Joyce_DC_20515-3514.png
S000051,202-225-3176,Washington,20515-4001,2017/01/15/3qr3wl2hjz_Sanford_DC_20515_4001.png,Sanford_DC_20515-4001.png
W000820,202-225-5611,Washington,20515-0545,2017/01/15/7ivxb6akky_Walters_DC_20515_0545.png,Walters_DC_20515-0545.png
Z000018,202-225-3211,Washington,20515-2600,2017/01/15/8h343ugia9_Zinke_DC_20515_2600.png,Zinke_DC_20515-2600.png
M001195,202-225-2711,Washington,20515-4802,2017/01/15/3oqp8j28vx_Mooney_DC_20515_4802.png,Mooney_DC_20515-4802.png
C001113,202-224-3542,Washington,20510,2017/01/15/7mof27h0g7_Cortez_Masto_DC_20510.png,Cortez Masto_DC_20510.png
K000391,202-225-3711,Washington,20515-1308,2017/01/15/72gykf9gse_Krishnamoorthi_DC_20515_1308.png,Krishnamoorthi_DC_20515-1308.png
G000582,202-225-2615,Washington,20515-5401,2017/01/15/n7520ebpa_Gonz_lez_Col_n_DC_20515_5401.png,González-Colón_DC_20515-5401.png
A000360,901-544-4224,Memphis,38103,2017/01/15/1cjk3a4obg_Alexander_TN_38103.png,Alexander_TN_38103.png
B001135,828-350-2437,Asheville,28801,2017/01/15/8lekiz0lf4_Burr_NC_28801.png,Burr_NC_28801.png
B001236,870-424-0129,Mountain Home,72653,2017/01/15/4fpnc6gttk_Boozman_AR_72653.png,Boozman_AR_72653.png
B001267,719-587-0096,Alamosa,81101,2017/01/15/1jb3tivys4_Bennet_CO_81101.png,Bennet_CO_81101.png
B001277,203-330-0598,Bridgeport,06604,2017/01/15/8rrtj4qrfe_Blumenthal_CT_06604.png,Blumenthal_CT_06604.png
B001284,317-848-0201,Carmel,46032,2017/01/15/6iwg3ot544_Brooks_IN_46032.png,Brooks_IN_46032.png
B001290,804-747-4073,Glen Allen,23060,2017/01/15/7q1q6j8s5i_Brat_VA_23060.png,Brat_VA_23060.png
B001295,618-233-8026,Granite City,62040,2017/01/15/a1z9ukphr_Bost_IL_62040.png,Bost_IL_62040.png
B001300,323-563-9562,South Gate,90280,2017/01/15/4pdp6bslu1_Barrag_n_CA_90280.png,Barragán_CA_90280.png
C000141,301-860-0414,Bowie,20720,2017/01/15/17d0r6wlw0_Cardin_MD_20720.png,Cardin_MD_20720.png
C000141,202-224-4524,Salisbury,21801,2017/01/15/63zvw0kxru_Cardin_MD_21801.png,Cardin_MD_21801.png
C000880,208-734-2515,Twin Falls,83301,2017/01/15/7c9kjk1c74_Crapo_ID_83301.png,Crapo_ID_83301.png
C001048,713-682-8828,HOUSTON,77024,2017/01/15/4ktxohxpgt_Culberson_TX_77024.png,Culberson_TX_77024.png
C001061,660-584-7373,Higginsville,64037,2017/01/15/2xfsab5ib9_Cleaver_MO_64037.png,Cleaver_MO_64037.png
C001070,814-874-5080,Erie,16501,2017/01/15/8w2fosoeis_Casey_PA_16501.png,Casey_PA_16501.png
C001077,720-748-7514,Aurora,80014,2017/01/15/12f9a2j5ie_Coffman_CO_80014.png,Coffman_CO_80014.png
C001092,716-634-2324,"Williamsville, NY",14221,2017/01/15/9f4cgbb5nq_Collins_NY_14221.png,Collins_NY_14221.png
C001101,508-319-9757,Framingham,01702,2017/01/15/5saxxak8zc_Clark_MA_01702.png,Clark_MA_01702.png
C001105,703-404-6903,Sterling,20164,2017/01/15/7eqp9p8je2_Comstock_VA_20164.png,Comstock_VA_20164.png
D000191,541-440-3523,Roseburg,97470,2017/01/15/1bewo8wc3e_DeFazio_OR_97470.png,DeFazio_OR_97470.png
D000604,717-867-1026,Annville,17003,2017/01/15/4io84sn17g_Dent_PA_17003.png,Dent_PA_17003.png
D000616,615-896-1986,Murfreesboro,37130,2017/01/15/1utn9c6v12_DesJarlais_TN_37130.png,DesJarlais_TN_37130.png
D000621,386-756-9798,Port Orange,32129,2017/01/15/9pfc6kq58_DeSantis_FL_32129.png,DeSantis_FL_32129.png
E000285,307-261-6572,Casper,82601,2017/01/15/2v3punj8q9_Enzi_WY_82601.png,Enzi_WY_82601.png
E000285,307-682-6268,Gillette,82716,2017/01/15/4rx48mjvej_Enzi_WY_82716.png,Enzi_WY_82716.png
F000449,402-727-0888,Fremont,68026,2017/01/15/7ila0xwfgq_Fortenberry_NE_68026.png,Fortenberry_NE_68026.png
F000460,361-894-6446,Victoria,77904,2017/01/15/9tk563p7vi_Farenthold_TX_77904.png,Farenthold_TX_77904.png
F000463,308-234-2361,Kearney,68847,2017/01/15/6mlq1tjat6_Fischer_NE_68847.png,Fischer_NE_68847.png
G000359,843-669-1505,Florence,29501,2017/01/15/6ydsrbr43v_Graham_SC_29501.png,Graham_SC_29501.png
G000551,623-536-3388,Avondale,85323,2017/01/15/7o9ifxb0xx_Grijalva_AZ_85323.png,Grijalva_AZ_85323.png
G000559,707-438-1822,Fairfield,94533,2017/01/15/8pmx4cu5zy_Garamendi_CA_94533.png,Garamendi_CA_94533.png
G000571,808-541-1986,Honolulu,96850,2017/01/15/2pdw81eiy1_Gabbard_HI_96850.png,Gabbard_HI_96850.png
H000338,435-586-8435,"Cedar City, UT",84720,2017/01/15/8u8snu1id9_Hatch_UT_84720.png,Hatch_UT_84720.png
H000338,801-375-7881,Provo,84601,2017/01/15/2nxmt69vv7_Hatch_UT_84601.png,Hatch_UT_84601.png
H000338,801-524-4380,Salt Lake City,84138,2017/01/15/6m4gkqcpem_Hatch_UT_84138.png,Hatch_UT_84138.png
H001046,575-622-7113,Roswell,88201,2017/01/15/9gm52tidmx_Heinrich_NM_88201.png,Heinrich_NM_88201.png
H001061,701-746-8972,Grand Forks,58203,2017/01/15/4jyhb3m1dj_Hoeven_ND_58203.png,Hoeven_ND_58203.png
H001069,701-258-4648,Bismarck,58501,2017/01/15/20inbpj8ad_Heitkamp_ND_58501.png,Heitkamp_ND_58501.png
H001071,478-457-0007,Milledgeville,31061,2017/01/15/1badeufkf4_Hice_GA_31061.png,Hice_GA_31061.png
J000032,713-691-4882,Houston,77091,2017/01/15/8fm7rh5ho1_Jackson_Lee_TX_77091.png,Jackson Lee_TX_77091.png
J000295,440-352-3939,Painesville,44077,2017/01/15/2yotf65bcd_Joyce_OH_44077.png,Joyce_OH_44077.png
K000367,507-288-5321,Rochester,55901,2017/01/15/8bu19qqv48_Klobuchar_MN_55901.png,Klobuchar_MN_55901.png
K000384,804-771-2221,Richmond,23219,2017/01/15/8g45a0gc3q_Kaine_VA_23219.png,Kaine_VA_23219.png
L000174,802-229-0569,Montpelier,05602,2017/01/15/870kkxcxgr_Leahy_VT_05602.png,Leahy_VT_05602.png
L000563,708-424-0853,Oak Lawn,60453,2017/01/15/4fl4fvmlek_Lipinski_IL_60453.png,Lipinski_IL_60453.png
L000573,208-667-0127,"Coeur, d'Alene",83814,2017/01/15/35din3p7kx_Labrador_ID_83814.png,Labrador_ID_83814.png
L000583,770-429-1776,Woodstock,30188,2017/01/15/bjppmy0zi_Loudermilk_GA_30188.png,Loudermilk_GA_30188.png
M000312,508-831-7356,Worcester,01604,2017/01/15/48fi1lw016_McGovern_MA_01604.png,McGovern_MA_01604.png
M001137,347-230-4032,Arverne,11692,2017/01/15/1d796b96v9_Meeks_NY_11692.png,Meeks_NY_11692.png
M001137,718-725-6000,Jamaica,11432,2017/01/15/7duou2ren4_Meeks_NY_11432.png,Meeks_NY_11432.png
M001159,509-353-2374,Spokane,99201,2017/01/15/19eit038h2_McMorris_Rodgers_WA_99201.png,McMorris Rodgers_WA_99201.png
M001176,503-326-3386,Portland,97204,2017/01/15/7p8jzpc4xj_Merkley_OR_97204.png,Merkley_OR_97204.png
M001183,304-342-5855,Charleston,25302,2017/01/15/3emspvn610_Manchin_WV_25302.png,Manchin_WV_25302.png
M001183,304-264-4626,Martinsburg,25404,2017/01/15/2z51kp74j5_Manchin_WV_25404.png,Manchin_WV_25404.png
M001187,828-765-0573,Spruce Pine,28777,2017/01/15/6ovv47l2dr_Meadows_NC_28777.png,Meadows_NC_28777.png
M001200,202-225-6365,Washington,20515,2017/01/15/3r18sfuxdh_McEachin_D_20515.png,McEachin_D_20515.png
N000002,212-367-7350,New York,10014,2017/01/15/1zmb8j73cd_Nadler_NY_10014.png,Nadler_NY_10014.png
N000127,218-464-5095,Duluth,55802,2017/01/15/4blbuganje_Nolan_MN_55802.png,Nolan_MN_55802.png
P000034,732-571-1140,Long Branch,07740,2017/01/15/2hj2o1xic4_Pallone_NJ_07740.png,Pallone_NJ_07740.png
P000588,855-4-PEARCE (732723),Las Cruces,88011,2017/01/15/7aw1va4zgp_Pearce_NM_88011.png,Pearce_NM_88011.png
P000601,228-864-7670,Biloxi,39532,2017/01/15/vcg0f3e9i_Palazzo_MS_39532.png,Palazzo_MS_39532.png
P000607,608-365-8001,Beloit,53511,2017/01/15/6dp8v8a5of_Pocan_WI_53511.png,Pocan_WI_53511.png
P000608,858-455-5550,San Diego,92121,2017/01/15/52jvpmge1s_Peters_CA_92121.png,Peters_CA_92121.png
R000307,316-263-0416,Wichita,67202,2017/01/15/45n66gqv09_Roberts_KS_67202.png,Roberts_KS_67202.png
R000578,509-885-6615,Wenatchee,98801,2017/01/15/7bnc27745k_Reichert_WA_98801.png,Reichert_WA_98801.png
R000586,855-334-0040,"Wadsworth, OH",44281,2017/01/15/9fz6kyvdhr_Renacci_OH_44281.png,Renacci_OH_44281.png
R000597,843-445-6459,Myrtle Beach,29577,2017/01/15/75yc2fwbem_Rice_SC_29577.png,Rice_SC_29577.png
S000033,800-339-9834,Burlington,05401,2017/01/15/9bhms4cysc_Sanders_VT_05401.png,Sanders_VT_05401.png
S000320,334-223-7303,Montgomery,36104,2017/01/15/9hmleyqczp_Shelby_AL_36104.png,Shelby_AL_36104.png
S000583,512-912-7508,Austin,78741,2017/01/15/7gbb34r8wu_Smith_TX_78741.png,Smith_TX_78741.png
S001141,251-414-3083,Mobile,36608,2017/01/15/8l9xprmum3_Sessions_AL_36608.png,Sessions_AL_36608.png
S001148,208-233-2222,Pocatello,83201,2017/01/15/8dnmhuxzok_Simpson_ID_83201.png,Simpson_ID_83201.png
S001176,985-893-9064,Mandeville,70471,2017/01/15/4rnd5fgdey_Scalise_LA_70471.png,Scalise_LA_70471.png
S001185,334-262-1919,Montgomery,36104,2017/01/15/6l8yb834qu_Sewell_AL_36104.png,Sewell_AL_36104.png
S001197,308-233-3677,Kearney,68845,2017/01/15/4b0258nwwk_Sasse_NE_68845.png,Sasse_NE_68845.png
T000238,806-371-8844,Amarillo,79101,2017/01/15/7b652g7g9p_Thornberry_TX_79101.png,Thornberry_TX_79101.png
T000464,406-728-3003,Missoula,59802,2017/01/15/7lukk0dahi_Tester_MT_59802.png,Tester_MT_59802.png
T000465,978-459-0101,Fitchburg,01420,2017/01/15/6wsth8w8qt_Tsongas_MA_01420.png,Tsongas_MA_01420.png
T000476,828-693-8750,Hendersonville,28792,2017/01/15/469rsbww51_Tillis_NC_28792.png,Tillis_NC_28792.png
U000039,505-346-6791,Albuquerque,87102,2017/01/15/9srz5sp8k1_Udall_NM_87102.png,Udall_NM_87102.png
W000813,574-204-2645,Mishawaka,46544,2017/01/15/5eks08grim_Walorski_IN_46544.png,Walorski_IN_46544.png
F000062,202-224-3841,Washington,20510,2017/01/15/7rqjcrslm7_Feinstein_DC_20510.png,Feinstein_DC_20510.png
